{"type":"FeatureCollection","periode":"Prakiraan Gerakan Tanah Bulan September 2026","features":[{"type":"Feature","properties":{"level":"rendah","label":"Rendah","unsur":"Sangat Rendah","keterangan":"Daerah yang mempunyai tingkat kerentanan sangat rendah untuk terkena gerakan tanah. Pada zona ini jarang atau hampir tidak pernah terjadi gerakan tanah, baik gerakan tanah lama maupun gerakan tanah baru, kecuali pada daerah tidak luas pada tebing sungai","tahun":2016,"wilayah":"Jawa Barat","zona":"001","lcode":"MB03050260","zona_perki":"Rendah"},"geometry":{"type":"MultiPolygon","coordinates":[[[[108.56934,-6.76074],[108.56799,-6.75867],[108.56263,-6.75403],[108.56085,-6.75289],[108.55935,-6.75289],[108.55392,-6.75596],[108.55107,-6.7556],[108.54964,-6.75474],[108.54878,-6.75267],[108.54843,-6.7501],[108.5515,-6.74311],[108.55142,-6.73997],[108.54707,-6.73597],[108.5425,-6.73333],[108.5405,-6.72676],[108.53843,-6.72519],[108.52837,-6.72105],[108.52594,-6.71891],[108.52537,-6.71712],[108.52787,-6.71359],[108.52862,-6.71131],[108.52844,-6.70949],[108.52676,-6.70727],[108.52523,-6.70684],[108.52291,-6.70706],[108.51548,-6.70966],[108.51141,-6.71084],[108.51006,-6.71082],[108.51124,-6.71135],[108.50699,-6.70963],[108.50542,-6.7072],[108.50399,-6.70613],[108.50338952453608,-6.70608480292207],[108.50496390636486,-6.701961974850325],[108.50529685669696,-6.698684270672923],[108.50245161393669,-6.693314183134688],[108.49983822905851,-6.68638750771253],[108.49821396053456,-6.682966170310809],[108.49572495618767,-6.676277752247826],[108.49633,-6.67529],[108.49595,-6.674],[108.49442542786097,-6.674296311826395],[108.4910858197324,-6.6689505206718485],[108.48811326330514,-6.661425747722376],[108.48380489980204,-6.646720617682416],[108.48226762623057,-6.643244914145917],[108.47944021361393,-6.634503144897195],[108.47670058556403,-6.621839451956994],[108.46880342073982,-6.6053917318145965],[108.4660934207398,-6.59814195900049],[108.46389702738414,-6.590265090848688],[108.46182482987423,-6.584859514741174],[108.4611085068404,-6.581722192870402],[108.45256581641144,-6.5803963643365435],[108.44459522958782,-6.577634038786682],[108.44175850582803,-6.576005963200608],[108.43142282956494,-6.571408622702198],[108.4242244897214,-6.566060243481776],[108.41824232841876,-6.559394937423967],[108.41371593906862,-6.5516796119952385],[108.41125484978738,-6.544476601177319],[108.40643283067647,-6.53990544926878],[108.40019286778065,-6.532558981871742],[108.3983304284466,-6.529048487659881],[108.39374657229206,-6.523244657863465],[108.3891369021136,-6.513831151967988],[108.38667315234224,-6.504862963370992],[108.38613295232764,-6.495582040928545],[108.38753974388126,-6.486391121542581],[108.39283981444599,-6.4662112169290165],[108.39303172984216,-6.461136101024771],[108.39410179266345,-6.454428809389604],[108.39683298880585,-6.443011489396533],[108.39352185291338,-6.438957602162173],[108.38997141432365,-6.435932158007016],[108.38313852429819,-6.428645713966711],[108.37952811550049,-6.423210988478225],[108.36467306286553,-6.431381856082872],[108.32394012944293,-6.454823059128779],[108.31661953057439,-6.458202926445664],[108.30880832407675,-6.4602261793670115],[108.30075880461321,-6.460827485194919],[108.29469880461322,-6.460737493105286],[108.2893330523079,-6.46033751468105],[108.27445776945389,-6.4583326883183885],[108.25053,-6.4583326883183885],[108.22576379609332,-6.457516646229775],[108.1872766526261,-6.453327911450365],[108.15980805710329,-6.451640197235959],[108.1516311543842,-6.451739906807288],[108.13898160289119,-6.450093703054557],[108.12531182294343,-6.446098830863372],[108.08322337267116,-6.430133862373918],[108.06442102586328,-6.424195033736671],[108.05503558188282,-6.422122225101903],[108.04560558188284,-6.4193824548786225],[108.03647777335402,-6.415603548036745],[107.98458599193943,-6.387093152422006],[107.97716118035997,-6.38398308979735],[107.96255809265527,-6.379948028875586],[107.95691435617651,-6.377977687803469],[107.9439817734801,-6.372146349052996],[107.92864783187744,-6.363399854738851],[107.92048219046033,-6.3605338790866055],[107.9151083386887,-6.3590278386761],[107.89530664570084,-6.355302812476891],[107.88965112445415,-6.353890625537432],[107.87654019442616,-6.352067163428733],[107.87065576180603,-6.351680580366903],[107.83352116688975,-6.351645451335963],[107.82273730269137,-6.353305131262896],[107.80481730269136,-6.3550249832496215],[107.7999905856018,-6.355228805153643],[107.74322058560182,-6.354588860486561],[107.73391161216236,-6.353512141057052],[107.72336137385413,-6.350363053849188],[107.71318137385414,-6.345993400458949],[107.70940566364825,-6.3439406895005765],[107.69630351602335,-6.339438425748531],[107.68660174082133,-6.3353598337484875],[107.65150759827176,-6.319296518531215],[107.64739713995462,-6.318306406401223],[107.6428710918487,-6.317718657873588],[107.63118661542276,-6.314565598560901],[107.62400661542277,-6.311545837521601],[107.61480824230712,-6.3063297497416615],[107.59614736481277,-6.292506380023494],[107.59137519803224,-6.299408026600885],[107.58978999621516,-6.302233237870835],[107.58490914642225,-6.315760636429573],[107.58058815745159,-6.326043222690375],[107.5764990986442,-6.333520577692643],[107.57105666102396,-6.340090717535187],[107.56445863884564,-6.345514902589565],[107.55694482371936,-6.349596040714063],[107.55536349993073,-6.350098132264338],[107.55285161618218,-6.351591600839521],[107.54369620051506,-6.354644397722326],[107.53409580789015,-6.3556816299875],[107.52381358878017,-6.355687501677968],[107.51751109439307,-6.3577609899125145],[107.5089650377531,-6.3717309165220986],[107.50378888667895,-6.378563027871939],[107.49739668461203,-6.384288644125746],[107.49001901829294,-6.388699559879677],[107.48726215481356,-6.394476001220766],[107.47885215481357,-6.410165357461093],[107.47549069700159,-6.414974531752538],[107.47442107360497,-6.4180769377651545],[107.47067415704943,-6.426190322964201],[107.46537740953437,-6.433400361785375],[107.45874270980251,-6.439418684496143],[107.45579285949405,-6.4411738814567805],[107.45529,-6.44099],[107.45454527645396,-6.441916208602625],[107.45110722107833,-6.443961893540776],[107.45076,-6.44339],[107.44795,-6.44265],[107.44892,-6.44015],[107.44353,-6.4393],[107.44047,-6.44019],[107.43998,-6.44119],[107.44121,-6.44268],[107.44612,-6.44491],[107.44672107494932,-6.445517208367169],[107.44256395386458,-6.446974687269162],[107.43456969968324,-6.448084838132206],[107.43363,-6.44584],[107.43206,-6.44408],[107.43205,-6.44079],[107.43009,-6.43356],[107.42578,-6.42919],[107.42405,-6.42854],[107.4232,-6.42942],[107.42406,-6.43117],[107.426,-6.43248],[107.42515,-6.43512],[107.42623,-6.43774],[107.42581,-6.43884],[107.42625,-6.44323],[107.42561,-6.44455],[107.42281,-6.44281],[107.42062,-6.43273],[107.41911,-6.4301],[107.41717,-6.42879],[107.41502,-6.42837],[107.40837,-6.43037],[107.40629,-6.43075],[107.4036,-6.43052],[107.40004,-6.42767],[107.3977,-6.42456],[107.39464,-6.42432],[107.39305,-6.42545],[107.39209993474164,-6.427081162270064],[107.38904411870224,-6.421582377352373],[107.3862423738805,-6.42467649782164],[107.38442527888891,-6.426010469232162],[107.3813,-6.42389],[107.37932,-6.41766],[107.37858,-6.41729],[107.37773,-6.41767],[107.37663,-6.42017],[107.37652,-6.42242],[107.37702,-6.42566],[107.37865,-6.42745],[107.37715,-6.42987],[107.37684561919617,-6.430996493442172],[107.37075593858853,-6.433804547944852],[107.36677222511543,-6.434742543401697],[107.36725,-6.43332],[107.36896,-6.43206],[107.37005,-6.43019],[107.37029,-6.42856],[107.36992,-6.42707],[107.3682,-6.42608],[107.36674,-6.42683],[107.36601,-6.42821],[107.36442,-6.42959],[107.36332,-6.42897],[107.36356,-6.4276],[107.36232,-6.42448],[107.36452,-6.42173],[107.365,-6.41935],[107.36267,-6.41812],[107.35948,-6.41414],[107.35678,-6.41241],[107.35212,-6.41131],[107.34808,-6.41095],[107.34687,-6.41345],[107.34786,-6.41769],[107.34749,-6.41869],[107.34676,-6.41857],[107.34614,-6.41758],[107.34504,-6.41733],[107.34247,-6.41809],[107.34186,-6.41772],[107.34186,-6.41635],[107.33953,-6.41474],[107.33891,-6.41349],[107.3389,-6.411],[107.33656,-6.40627],[107.33705,-6.40402],[107.34034,-6.40088],[107.34202,-6.3879],[107.34445,-6.38227],[107.3442,-6.38027],[107.3415,-6.37842],[107.3405,-6.37281],[107.33756,-6.37132],[107.33621,-6.36921],[107.33386,-6.36273],[107.33239,-6.36324],[107.33143,-6.36674],[107.33181,-6.37285],[107.33367,-6.38157],[107.33247,-6.38869],[107.33371,-6.3948],[107.33249,-6.39655],[107.32895,-6.3972],[107.32613,-6.39871],[107.32564,-6.39746],[107.32711,-6.39583],[107.32943,-6.39445],[107.3304,-6.39307],[107.33027,-6.38858],[107.33148,-6.38421],[107.33159,-6.38208],[107.32975,-6.37885],[107.32764,-6.36913],[107.32604,-6.36801],[107.32468,-6.3634],[107.32199,-6.36254],[107.32052,-6.36155],[107.31769,-6.35794],[107.31634,-6.35695],[107.31463,-6.35684],[107.31279,-6.35797],[107.3117,-6.35985],[107.3089,-6.36722],[107.30696,-6.3706],[107.30622,-6.37085],[107.30487,-6.37011],[107.30511,-6.36811],[107.30633,-6.36586],[107.30693,-6.36324],[107.30729,-6.35924],[107.30875,-6.35724],[107.31303,-6.35472],[107.31351,-6.35198],[107.31008,-6.35212],[107.30703,-6.35313],[107.30495,-6.35489],[107.30361,-6.35801],[107.30338,-6.36251],[107.29862,-6.3669],[107.29631,-6.37115],[107.29509,-6.37528],[107.29424,-6.3764],[107.29302,-6.37616],[107.29325,-6.37117],[107.29263,-6.36942],[107.29152,-6.36831],[107.29188,-6.36593],[107.2931,-6.36306],[107.29505,-6.36093],[107.30018,-6.35766],[107.30237,-6.3529],[107.30236,-6.34941],[107.30125,-6.34704],[107.30003,-6.34568],[107.28936,-6.34199],[107.28557,-6.34188],[107.28337,-6.34326],[107.2824,-6.34502],[107.28105,-6.34502],[107.28068,-6.34353],[107.28116,-6.34153],[107.2803,-6.34053],[107.2792,-6.34041],[107.27713,-6.34367],[107.27468,-6.34493],[107.27334,-6.34643],[107.2731,-6.34818],[107.27495,-6.35366],[107.27422,-6.35442],[107.27287,-6.3538],[107.2714,-6.35218],[107.27053,-6.34957],[107.27114,-6.34632],[107.27443,-6.34256],[107.27479,-6.34044],[107.27332,-6.33795],[107.27111,-6.33783],[107.26854,-6.33872],[107.26464,-6.34223],[107.26341,-6.34274],[107.26243,-6.34187],[107.26389,-6.33637],[107.2629,-6.33588],[107.26144,-6.33701],[107.26059,-6.33839],[107.25924,-6.33814],[107.25727,-6.33578],[107.2558,-6.33591],[107.25507,-6.33679],[107.25508,-6.33854],[107.25569,-6.34003],[107.2579,-6.34202],[107.2584,-6.34439],[107.25767,-6.34514],[107.25657,-6.34502],[107.25448,-6.34328],[107.25362,-6.34329],[107.25387,-6.34453],[107.25326,-6.34529],[107.25167,-6.34567],[107.25107,-6.34892],[107.24924,-6.35067],[107.24789,-6.35006],[107.24715,-6.34781],[107.24812,-6.34494],[107.25141,-6.33881],[107.25115,-6.33669],[107.24919,-6.33495],[107.24638,-6.33559],[107.24137,-6.33861],[107.23954,-6.34311],[107.23967,-6.34448],[107.24151,-6.34647],[107.24238,-6.35096],[107.2446,-6.35382],[107.24448,-6.35544],[107.24387,-6.35681],[107.24252,-6.3567],[107.24153,-6.35258],[107.2403,-6.34984],[107.23895,-6.34923],[107.23724,-6.34899],[107.23552,-6.34987],[107.23517,-6.35299],[107.2406,-6.36731],[107.24183,-6.37192],[107.24467,-6.3774],[107.2443,-6.3784],[107.24259,-6.37841],[107.2367,-6.37395],[107.23583,-6.37071],[107.23582,-6.36546],[107.23482,-6.36135],[107.23163,-6.35663],[107.22967,-6.35626],[107.22784,-6.35764],[107.22613,-6.36164],[107.22516,-6.36215],[107.22381,-6.3624],[107.21952,-6.36143],[107.21842,-6.36243],[107.21855,-6.36443],[107.2199,-6.36604],[107.22715,-6.372],[107.22788,-6.37324],[107.2274,-6.37474],[107.22936,-6.3766],[107.22815,-6.37998],[107.22326,-6.3825],[107.22192,-6.38575],[107.22231,-6.39186],[107.22271440391306,-6.39329349679753],[107.22050594468891,-6.392968946249625],[107.22141,-6.38876],[107.22142,-6.38454],[107.22027,-6.38356],[107.21878,-6.38353],[107.21864,-6.38296],[107.21945,-6.38144],[107.21907,-6.38059],[107.21432,-6.37951],[107.21275,-6.37737],[107.21304,-6.37479],[107.21244,-6.37449],[107.21194,-6.37453],[107.2116,-6.3753],[107.2117,-6.37906],[107.21128,-6.37944],[107.20917,-6.37953],[107.20752,-6.37861],[107.20692,-6.37717],[107.20574,-6.37689],[107.20489,-6.37584],[107.20564,-6.37296],[107.20487,-6.37047],[107.20619,-6.36854],[107.21019,-6.36629],[107.21048,-6.36447],[107.21014,-6.36375],[107.20802,-6.36291],[107.20734,-6.36181],[107.20768,-6.36139],[107.21127,-6.36154],[107.21301,-6.36373],[107.21423,-6.3633],[107.21516,-6.36212],[107.21507,-6.36034],[107.21333,-6.35879],[107.21311,-6.35769],[107.21316,-6.35509],[107.21492,-6.35205],[107.21508,-6.34976],[107.21656,-6.34984],[107.22274,-6.35192],[107.22657,-6.3495],[107.22554,-6.34154],[107.22342,-6.33876],[107.22389,-6.33582],[107.22355,-6.33523],[107.22072,-6.33465],[107.21851,-6.3309],[107.21589,-6.33116],[107.21496,-6.3307],[107.21475,-6.33007],[107.21575,-6.32791],[107.21881,-6.32645],[107.21488,-6.32781],[107.21315,-6.32924],[107.21433,-6.33479],[107.21059,-6.34376],[107.20908,-6.34408],[107.20141,-6.34286],[107.19744,-6.34152],[107.19524,-6.33957],[107.1902,-6.33362],[107.18788,-6.33022],[107.18812,-6.32804],[107.19193,-6.32239],[107.19203,-6.32059],[107.19121,-6.31703],[107.18516,-6.30725],[107.18203,-6.29745],[107.18017,-6.29587],[107.17677,-6.29591],[107.17418,-6.29713],[107.17366,-6.29863],[107.17681,-6.30322],[107.17754,-6.30954],[107.17822,-6.31154],[107.18476,-6.32001],[107.18567,-6.32282],[107.18494,-6.32566],[107.17948,-6.33664],[107.17806,-6.33855],[107.17678,-6.33872],[107.17522,-6.33717],[107.17404,-6.33431],[107.17378,-6.32816],[107.17248,-6.32193],[107.17236,-6.31765],[107.17179,-6.31678],[107.16414,-6.31439],[107.16303,-6.31559],[107.16072,-6.32036],[107.15974,-6.32081],[107.15845,-6.32055],[107.15681,-6.31889],[107.1567,-6.31711],[107.15758,-6.31645],[107.15717015015015,-6.316245075075078],[107.15937,-6.31416],[107.15972,-6.31299],[107.15963,-6.31174],[107.15786,-6.31033],[107.15678,-6.31069],[107.15107,-6.31576],[107.14949,-6.3161],[107.1482,-6.31519],[107.14764,-6.31388],[107.1477,-6.31255],[107.15018,-6.30892],[107.1526,-6.30277],[107.15184,-6.30147],[107.1482,-6.29986],[107.14717,-6.2989],[107.14924,-6.29454],[107.14905,-6.29333],[107.14788,-6.29215],[107.14895,-6.29153],[107.14539,-6.29162],[107.14254,-6.29273],[107.14098,-6.29449],[107.14075,-6.29573],[107.14194,-6.3004],[107.13973,-6.30421],[107.13932,-6.30595],[107.13989,-6.30862],[107.14308,-6.31345],[107.14281,-6.31491],[107.14137,-6.31563],[107.13856,-6.31408],[107.13627,-6.31398],[107.13153,-6.31462],[107.12949,-6.31539],[107.12793,-6.31712],[107.12681,-6.32195],[107.12582,-6.32391],[107.11976,-6.33077],[107.11777,-6.33244],[107.11549,-6.33339],[107.11255,-6.33379],[107.11116,-6.33349],[107.11075,-6.33288],[107.1109,-6.33196],[107.11205,-6.33001],[107.12311,-6.31814],[107.12545,-6.31519],[107.12642,-6.31311],[107.12667,-6.31136],[107.12622,-6.3087],[107.12326,-6.30408],[107.12276,-6.30257],[107.12436,-6.29582],[107.12336,-6.28714],[107.12338,-6.28282],[107.1239,-6.28081],[107.13181,-6.27265],[107.13856,-6.26913],[107.14442,-6.2643],[107.14514,-6.26282],[107.1441,-6.26075],[107.14418,-6.25958],[107.1471,-6.25601],[107.14755,-6.25476],[107.14534,-6.25376],[107.14232,-6.2542],[107.13497,-6.259],[107.13401,-6.26081],[107.13334,-6.26524],[107.12882,-6.26891],[107.12542,-6.27092],[107.11553,-6.27435],[107.11143,-6.27666],[107.10986,-6.27887],[107.10918,-6.28318],[107.10823,-6.28475],[107.10077,-6.28521],[107.09536,-6.28741],[107.09416,-6.2874],[107.09261,-6.28582],[107.09226,-6.28413],[107.09251,-6.28239],[107.09536,-6.27762],[107.09663,-6.27294],[107.09886,-6.27082],[107.09948,-6.2693],[107.09917,-6.2674],[107.09729,-6.26368],[107.09705,-6.26224],[107.09775,-6.26154],[107.10094,-6.26089],[107.10142,-6.26032],[107.09914,-6.25598],[107.10012,-6.25011],[107.09962,-6.24716],[107.09769,-6.24134],[107.09604,-6.23878],[107.09269,-6.23717],[107.09006,-6.23758],[107.08682,-6.2405],[107.08289,-6.23953],[107.0787,-6.24148],[107.07718,-6.24047],[107.07373,-6.23607],[107.07229,-6.23549],[107.07082,-6.2361],[107.06805,-6.23957],[107.0669,-6.24268],[107.06874,-6.25354],[107.0701,-6.25462],[107.07195,-6.25465],[107.07284,-6.25391],[107.07469,-6.25027],[107.07634,-6.24859],[107.0779,-6.24784],[107.07858,-6.24879],[107.07787,-6.25165],[107.07433,-6.25663],[107.07114,-6.26233],[107.06942,-6.26446],[107.06767,-6.26536],[107.06006,-6.26426],[107.0563,-6.26535],[107.05471,-6.26672],[107.04898,-6.27459],[107.04556,-6.27724],[107.04241,-6.27883],[107.03778,-6.27983],[107.03435,-6.27941],[107.03331,-6.27875],[107.03277,-6.27771],[107.03335,-6.2744],[107.03508,-6.27203],[107.03786,-6.2705],[107.04061,-6.26997],[107.04632,-6.2701],[107.0489,-6.26896],[107.05176,-6.26235],[107.05658,-6.25504],[107.05672,-6.25166],[107.05513,-6.24898],[107.05417,-6.24898],[107.05254,-6.25077],[107.05144,-6.25106],[107.04007,-6.24604],[107.03892,-6.24699],[107.03719,-6.2464],[107.03523,-6.24652],[107.03276,-6.24921],[107.03112,-6.24947],[107.0303,-6.25012],[107.02956,-6.25296],[107.02875,-6.25234],[107.02446,-6.25483],[107.02388,-6.25637],[107.0228,-6.25715],[107.02213,-6.25839],[107.02088,-6.26194],[107.01884,-6.26117],[107.01675,-6.26449],[107.01645,-6.26566],[107.01713,-6.2682],[107.01641,-6.26991],[107.01784,-6.27109],[107.01763,-6.27287],[107.01661,-6.27598],[107.0151,-6.2781],[107.01409,-6.27762],[107.01301,-6.2801],[107.01418,-6.27962],[107.01461,-6.27999],[107.01408,-6.28224],[107.01464,-6.28349],[107.01423,-6.28635],[107.01534,-6.28677],[107.01599,-6.28408],[107.01667,-6.28359],[107.01691,-6.28256],[107.01787,-6.28217],[107.01809,-6.28074],[107.01931,-6.28066],[107.0203,-6.27992],[107.0225,-6.28007],[107.02535,-6.27876],[107.02673,-6.27899],[107.02759,-6.27768],[107.02854,-6.27765],[107.02822,-6.27834],[107.02909,-6.27875],[107.02906,-6.27956],[107.03,-6.28027],[107.03016,-6.28132],[107.0309,-6.28159],[107.03065,-6.282],[107.03398,-6.28253],[107.03444,-6.2817],[107.03629,-6.28233],[107.03793,-6.28147],[107.0372,-6.28353],[107.03794,-6.28458],[107.03775,-6.28578],[107.04017,-6.28785],[107.0403,-6.29429],[107.04102,-6.29561],[107.0385,-6.30597],[107.04092,-6.30539],[107.04327,-6.30582],[107.04362,-6.30794],[107.04311,-6.30854],[107.04283,-6.3108],[107.04294,-6.31198],[107.04376,-6.31304],[107.04264,-6.31581],[107.04363,-6.31634],[107.04341,-6.31679],[107.04034,-6.31781],[107.04049,-6.3189],[107.03996,-6.32019],[107.03852,-6.3202],[107.0372,-6.32129],[107.03535,-6.32096],[107.03196,-6.32124],[107.02897,-6.32577],[107.0277,-6.32621],[107.02674,-6.32773],[107.02502,-6.32904],[107.02336,-6.32902],[107.02088,-6.32809],[107.01987,-6.32871],[107.01907,-6.33346],[107.01917,-6.33555],[107.01227,-6.33404],[107.0121,-6.33484],[107.01277,-6.33524],[107.01271,-6.33608],[107.01377,-6.33695],[107.01281,-6.3389],[107.0151,-6.33932],[107.01431,-6.34017],[107.01506,-6.34046],[107.01455,-6.34101],[107.01496,-6.34152],[107.01389,-6.34274],[107.0155,-6.34397],[107.01666,-6.34415],[107.01536,-6.34527],[107.01606,-6.34819],[107.01522,-6.35138],[107.0158,-6.35174],[107.01595,-6.35284],[107.01525,-6.35388],[107.01655,-6.35388],[107.01567,-6.35561],[107.0138,-6.35829],[107.01291,-6.35788],[107.01256,-6.35899],[107.0113,-6.35839],[107.00998,-6.35905],[107.00692,-6.36262],[107.00615,-6.3626],[107.00516,-6.36172],[107.00326,-6.36297],[107.00042,-6.36246],[107.00064,-6.36113],[107.00013,-6.36014],[107.00089,-6.35894],[107.00017,-6.35827],[106.99965,-6.35557],[106.99898,-6.35567],[106.9981,-6.35708],[106.99658,-6.3579],[106.99599,-6.36059],[106.99407,-6.36219],[106.99312,-6.36399],[106.99313,-6.36665],[106.99349,-6.36701],[106.9935,-6.36913],[106.99557,-6.37195],[106.99694,-6.37247],[106.99907,-6.37635],[106.99977,-6.37864],[107.00441,-6.38573],[107.00525,-6.38669],[107.00787,-6.38786],[107.00847,-6.38933],[107.00347,-6.39231],[107.00139,-6.39452],[107.00204,-6.39696],[107.00602,-6.40028],[107.0069,-6.40248],[107.00655,-6.40387],[107.00351,-6.40672],[107.00329,-6.40861],[107.00401,-6.41089],[107.00611,-6.41307],[107.00815,-6.41357],[107.01885,-6.41144],[107.0238,-6.41171],[107.0253244974717,-6.4127110660107824],[107.01705431641317,-6.417037071235428],[107.00756335642326,-6.419597946152447],[106.99857335642328,-6.420997825328369],[106.99264742292492,-6.421284460502136],[106.99533,-6.41974],[106.99757,-6.41773],[106.9988,-6.41547],[106.99854,-6.41423],[106.99695,-6.41267],[106.99518,-6.41186],[106.9919,-6.41172],[106.98813,-6.4132],[106.98392,-6.4177],[106.98123,-6.41836],[106.97783,-6.41719],[106.97634,-6.41546],[106.97577,-6.41402],[106.97571,-6.41253],[106.97625,-6.41111],[106.97854,-6.40899],[106.98069,-6.40827],[106.98979,-6.40725],[106.99248,-6.40562],[106.99384,-6.39993],[106.9943,-6.39436],[106.99319,-6.39215],[106.99117,-6.39073],[106.98891,-6.3904],[106.98554,-6.39086],[106.98064,-6.38993],[106.97372,-6.3975],[106.96893,-6.40017],[106.96626,-6.40315],[106.96568,-6.40447],[106.96581,-6.40575],[106.96809,-6.41106],[106.96766,-6.41324],[106.96602,-6.41464],[106.96388,-6.41422],[106.96258,-6.4124],[106.96281,-6.40646],[106.96224,-6.40455],[106.95785,-6.40145],[106.95628,-6.39933],[106.95649,-6.39638],[106.95854,-6.39351],[106.96133,-6.39205],[106.96602,-6.39161],[106.96716,-6.39081],[106.96722,-6.38581],[106.96925,-6.38216],[106.97082,-6.37683],[106.97032,-6.37578],[106.9666,-6.37444],[106.966,-6.37253],[106.96636,-6.37107],[106.97017,-6.36501],[106.97038,-6.36355],[106.96977,-6.35882],[106.97157,-6.35593],[106.97196,-6.35212],[106.97232,-6.35085],[106.97263,-6.3511],[106.96986,-6.34879],[106.97142,-6.34835],[106.97266,-6.34673],[106.9699,-6.34645],[106.96844,-6.345],[106.96809,-6.34304],[106.96618,-6.34249],[106.96623,-6.34184],[106.96893,-6.34148],[106.97135,-6.34292],[106.97518,-6.34138],[106.97598,-6.34057],[106.97582,-6.33942],[106.97281,-6.34013],[106.97328,-6.33775],[106.97453,-6.33565],[106.97553,-6.33516],[106.97445,-6.33306],[106.97262443136094,-6.332902855226784],[106.97678713796633,-6.3328553316209115],[106.97999914999102,-6.332262473943491],[106.98725758087245,-6.325600855678054],[106.99649850623689,-6.318495806880952],[107.00482474476472,-6.307501729517281],[107.00870479209708,-6.303056329890483],[107.01689737100097,-6.296172865969272],[107.01203869788398,-6.293500256767133],[107.00648535552132,-6.292918333536479],[106.99807720086835,-6.290320365861084],[106.99034051608714,-6.286141820404363],[106.98357261763506,-6.280543240643477],[106.97803359205413,-6.27373973509577],[106.97393630099113,-6.265992717208322],[106.97143820104381,-6.25759986571325],[106.97063529279218,-6.248883690297881],[106.97155843155011,-6.240179141199713],[106.97417214161278,-6.231820738363337],[106.97837597956834,-6.224129714621737],[106.98400839428163,-6.217401667207626],[106.99085293521395,-6.211895192709689],[106.99864657049574,-6.207821943050256],[107.00181657049573,-6.206541842194227],[107.01110277716704,-6.203905922543205],[107.02074112142604,-6.203304351313702],[107.02908465429485,-6.204229736981506],[107.03521407535405,-6.205988188271668],[107.02788486254204,-6.184158129563463],[107.02628831407412,-6.1779510009381795],[107.02083617679345,-6.147915554449048],[107.01791535841059,-6.139052730795381],[107.00321669194307,-6.144743792251578],[106.99456801232988,-6.147057537808167],[106.98562955304838,-6.147619174952975],[106.9835487064068,-6.147334751499963],[106.97305523029794,-6.150555929961488],[106.97327,-6.14808],[106.97049,-6.12883],[106.97081,-6.125],[106.97049,-6.12109],[106.9716,-6.10689],[106.96899,-6.09069],[106.97311,-6.09069],[106.97661,-6.08931],[106.98135,-6.08944],[106.98582,-6.0886],[106.98752,-6.08766],[106.99086,-6.08741],[106.99091,-6.08644],[106.99531,-6.08338],[106.99542,-6.08272],[106.99619,-6.08241],[106.99615,-6.08178],[106.99708,-6.08147],[106.996,-6.07772],[106.99803,-6.07682],[106.99971,-6.07703],[107.00234,-6.07856],[107.0025,-6.08043],[107.00419,-6.08045],[107.00456,-6.08139],[107.0073,-6.08212],[107.00772,-6.08075],[107.01212,-6.08083],[107.01408,-6.07968],[107.01573,-6.07969],[107.0166,-6.07849],[107.01385,-6.07523],[107.01103,-6.07375],[107.0102,-6.07444],[107.00826,-6.07346],[107.00651,-6.07127],[107.00435,-6.07076],[107.00283,-6.06982],[107.00195,-6.06816],[107.00094,-6.06794],[107.00002,-6.06681],[107.00043,-6.06594],[106.99876,-6.0631],[106.9999,-6.06202],[106.99847,-6.05902],[106.9968,-6.05792],[106.99362,-6.05458],[106.99152,-6.05369],[106.99224,-6.05245],[106.99448,-6.05221],[106.99397,-6.0513],[106.99091,-6.05051],[106.98941,-6.04959],[106.99672,-6.05007],[106.99805,-6.04821],[106.99867,-6.04799],[107.00092,-6.0487],[107.00244,-6.04979],[107.00481,-6.05011],[107.00588,-6.04973],[107.00561,-6.04841],[107.0071,-6.04719],[107.0065,-6.04574],[107.00695,-6.04429],[107.00856,-6.04272],[107.00827668742376,-6.042004262965291],[107.01467366032931,-6.0441302308117395],[107.0163054753425,-6.045056932646909],[107.01745788649495,-6.044786300902807],[107.01993843191796,-6.042809043319178],[107.02775111934405,-6.038770747509239],[107.0362059196833,-6.036325748068313],[107.04497791970019,-6.03556802688648],[107.05373001635344,-6.036526709812879],[107.06212587147692,-6.039164946301688],[107.06629273218712,-6.04109669870345],[107.07401343294923,-6.046209703573432],[107.08051331774026,-6.0527907486122885],[107.08551516044353,-6.060559098258703],[107.08880562782721,-6.06918338158588],[107.0902443784046,-6.078295732932919],[107.09029276529105,-6.082532289577402],[107.09645792669266,-6.093442876493805],[107.10202865279923,-6.1056623985817255],[107.10798210471201,-6.125491640196339],[107.11411793519125,-6.158928112860735],[107.12510654479107,-6.1916589083438955],[107.14787220572673,-6.201625747042148],[107.15556410277362,-6.205935977435668],[107.16225919359215,-6.211658828675334],[107.16769874818166,-6.218573100742076],[107.17167255640452,-6.226411552164682],[107.17402705150086,-6.234871233798216],[107.17460956503413,-6.242787041099802],[107.18048308351057,-6.24504904759596],[107.18791517112459,-6.2497425138918326],[107.1942833331383,-6.255787052168945],[107.19934284465685,-6.262950331866739],[107.20289927148997,-6.2709570322071535],[107.20481594214893,-6.279499428691351],[107.20501920005518,-6.288249223585851],[107.20395584123156,-6.294288342593106],[107.2133735849877,-6.298704350511777],[107.22017215520722,-6.3027443887128385],[107.2277007829303,-6.303774805147842],[107.23286593919107,-6.30293914501934],[107.23678390473258,-6.303068848436604],[107.245822565818,-6.30086801343291],[107.25505810909642,-6.30056794062],[107.2657782474064,-6.302609113214331],[107.28095903647755,-6.2995555241647665],[107.292618073359,-6.299644662373204],[107.30541545450679,-6.30277488225327],[107.31185545450678,-6.305395091661235],[107.31769496202587,-6.308279328087509],[107.32375496202587,-6.3118395929515065],[107.33098674142362,-6.317190575073423],[107.33692137191247,-6.308048420388607],[107.34401640639454,-6.301251704776457],[107.35352219292618,-6.295378335456121],[107.36307293810441,-6.292229322297805],[107.3730892945893,-6.291272703434172],[107.38836929458931,-6.2915227249847625],[107.39537182167486,-6.292184860620684],[107.4055665844872,-6.294622491175963],[107.41255634319626,-6.297812144554294],[107.41599634319624,-6.299752290124955],[107.41869078036012,-6.3017434412880275],[107.44442895330724,-6.303624783510259],[107.45048171444354,-6.294171078975399],[107.45786655930343,-6.287123027400893],[107.46074655930342,-6.2849428781138466],[107.46700908153699,-6.280969836464201],[107.47384480863737,-6.278077240444136],[107.50244480863738,-6.268666472600059],[107.50696604774947,-6.267567136743703],[107.50953235733937,-6.26195364407003],[107.51615377776797,-6.250551228800401],[107.52630377776799,-6.235870518499352],[107.53377057263545,-6.227533821571536],[107.5439105984584,-6.219001447220708],[107.56364059845838,-6.204940475048911],[107.57044284101774,-6.200942868854535],[107.57784450489466,-6.198192190891006],[107.58561650563144,-6.19677359571617],[107.60045434884226,-6.196522743563053],[107.61082326936922,-6.197584012961337],[107.62066690043143,-6.200992812099195],[107.62622690043142,-6.203673017005876],[107.63330434964276,-6.207925829245614],[107.6445323987752,-6.216175258436465],[107.64339,-6.2185],[107.64368,-6.22072],[107.64842,-6.22806],[107.65287,-6.23247],[107.65509,-6.23656],[107.65815,-6.23973],[107.66225,-6.24264],[107.66698,-6.24488],[107.67226,-6.2457],[107.67683,-6.24539],[107.68131,-6.24423],[107.6859,-6.24183],[107.68982113457515,-6.238528554267787],[107.72348755733191,-6.253940807243955],[107.72957164935043,-6.2564815382093375],[107.74504383154006,-6.261648429586138],[107.75336593376652,-6.265410190801499],[107.79859053327952,-6.265920076773752],[107.81261673223845,-6.264573696975494],[107.82260357494746,-6.262943942873501],[107.82992275236676,-6.262354188938078],[107.87512254217579,-6.2624913962761335],[107.88736480804565,-6.26341507040211],[107.90519480804565,-6.2658952812492315],[107.91401964522824,-6.2679509549272305],[107.93759033930277,-6.272560707179784],[107.94902691083338,-6.275863225253129],[107.96241691083338,-6.280563606460701],[107.96981822651989,-6.283939942329333],[107.98642509194111,-6.293413963873325],[107.98950993327104,-6.294726527863107],[108.00399190734471,-6.298728784621036],[108.0094052235477,-6.30060214291578],[108.02167522354772,-6.305742551910062],[108.02596222664599,-6.307811227505243],[108.07558889619489,-6.335081364253058],[108.08939585899714,-6.338407971572085],[108.11212585899712,-6.345588566115213],[108.15697246498091,-6.362397601508515],[108.16369199494483,-6.362437909425969],[108.19396199494483,-6.3642980712943364],[108.23059798913576,-6.368359369782329],[108.25129832671028,-6.369063403031535],[108.27749,-6.369063403031535],[108.2835269476921,-6.36946843740199],[108.2912045931077,-6.370503378717294],[108.32078816936115,-6.35348547055608],[108.35588531224371,-6.334177503789255],[108.35951206500859,-6.331044033208309],[108.36423893013328,-6.327599215523286],[108.37085036052316,-6.323944254222473],[108.37346,-6.33188],[108.37777,-6.34264],[108.38314,-6.35288],[108.38537,-6.3562],[108.38638,-6.35718],[108.3876,-6.35672],[108.3896,-6.35921],[108.39038,-6.35931],[108.39135,-6.36062],[108.39194,-6.36036],[108.39274,-6.36135],[108.40587,-6.3825],[108.41861,-6.39826],[108.42051,-6.40173],[108.42337,-6.40361],[108.43202,-6.41371],[108.45242,-6.43405],[108.45428,-6.43534],[108.4554,-6.43514],[108.46128,-6.44058],[108.47373,-6.45036],[108.48575298145059,-6.457742664643246],[108.48270227976097,-6.470037788655478],[108.48286639526974,-6.473263896290059],[108.48089741680741,-6.484420266158632],[108.48398592544952,-6.487107794403754],[108.48939600379586,-6.494135835191306],[108.49084001544722,-6.497073293848122],[108.49335925027785,-6.49768679146015],[108.49715564112861,-6.497863816798997],[108.5057576626826,-6.499101421681519],[108.51395871562539,-6.501961981736401],[108.52145169607205,-6.506338351440969],[108.5279560152468,-6.5120666123623785],[108.53322810665868,-6.518932216852107],[108.53788810665867,-6.526402567918909],[108.54238999794893,-6.536006734917323],[108.54544661330674,-6.545268081194362],[108.5476,-6.55888],[108.54562,-6.55954],[108.54581,-6.56143],[108.54348,-6.56844],[108.54299,-6.57414],[108.54357,-6.58907],[108.54328,-6.59085],[108.54594,-6.60305],[108.55216,-6.62166],[108.54957,-6.62485],[108.55279,-6.62695],[108.55514,-6.6364],[108.55791,-6.64432],[108.55798,-6.6451],[108.55694,-6.6463],[108.55686,-6.64712],[108.55816,-6.64886],[108.55842,-6.65074],[108.55764,-6.65502],[108.55774,-6.65905],[108.55698,-6.66058],[108.55745,-6.66206],[108.55817,-6.67292],[108.5595,-6.67952],[108.5624,-6.69005],[108.56379,-6.69274],[108.56732,-6.70372],[108.56842,-6.706],[108.57196,-6.70866],[108.57147,-6.7115],[108.56916,-6.71107],[108.56909,-6.7121],[108.57205,-6.71297],[108.57173,-6.71388],[108.56933,-6.71372],[108.5694,-6.71403],[108.57101,-6.71569],[108.57135,-6.71528],[108.57232,-6.71601],[108.57353,-6.71565],[108.57329,-6.71509],[108.5721,-6.71544],[108.57199,-6.71497],[108.5732,-6.71122],[108.57464,-6.71843],[108.57607,-6.7225],[108.57747,-6.72473],[108.57862,-6.72912],[108.58038,-6.73235],[108.58235,-6.7331],[108.58631,-6.74001],[108.58789608795439,-6.74167681698201],[108.58593726527319,-6.747290426673215],[108.58128929053723,-6.755536831910128],[108.57499617181512,-6.762625604867651],[108.57347472254787,-6.76376634703971],[108.56934,-6.76074]],[[107.12906,-6.26112],[107.12943,-6.26087],[107.12878,-6.26088],[107.12906,-6.26112]],[[107.12792,-6.26124],[107.12797,-6.26093],[107.12722,-6.26124],[107.12792,-6.26124]],[[107.06542,-6.23256],[107.06568,-6.2322],[107.06534,-6.23199],[107.06492,-6.23256],[107.06542,-6.23256]],[[107.09806,-6.28207],[107.09841,-6.28017],[107.09782,-6.28125],[107.09806,-6.28207]],[[107.09843,-6.28352],[107.09661,-6.28156],[107.09595,-6.28162],[107.09843,-6.28352]]],[[[106.9711,-6.43178],[106.96843,-6.43206],[106.96559,-6.43141],[106.96382,-6.43014],[106.96271,-6.42865],[106.96192,-6.42565],[106.96213,-6.4237],[106.96364,-6.42102],[106.9655,-6.41993],[106.97147,-6.41997],[106.9761,-6.42204],[106.99006786833422,-6.421868848447913],[106.98745910214564,-6.422282450097149],[106.98379017266141,-6.422332474891347],[106.98183404696468,-6.423172552344577],[106.98091847532615,-6.426250200512467],[106.97924529944528,-6.429661491624097],[106.9711,-6.43178]]],[[[106.96178,-6.33584],[106.96137,-6.33599],[106.96104,-6.33518],[106.96029,-6.33564],[106.95927,-6.33551],[106.95682,-6.3377],[106.95719,-6.33933],[106.95536,-6.33902],[106.95478,-6.33994],[106.95275,-6.34028],[106.95307,-6.34269],[106.95476,-6.3433],[106.95472,-6.34431],[106.95325,-6.34454],[106.95081,-6.34393],[106.95025,-6.34422],[106.95228,-6.3488],[106.95326,-6.34828],[106.9539,-6.34899],[106.95368,-6.3509],[106.95291,-6.35095],[106.95205,-6.34914],[106.95021,-6.35089],[106.95052,-6.35181],[106.95213,-6.35262],[106.95234503909802,-6.353000069103467],[106.95213,-6.35387],[106.95046,-6.35334],[106.94949,-6.35414],[106.94926,-6.35535],[106.94778,-6.35654],[106.94735,-6.35752],[106.94748,-6.3582],[106.94866,-6.35866],[106.94631,-6.3594],[106.94613,-6.35909],[106.94695,-6.35817],[106.94451,-6.35772],[106.94387,-6.35811],[106.94387,-6.35959],[106.94462,-6.35895],[106.94611,-6.36031],[106.94709,-6.36012],[106.94648,-6.36167],[106.94583,-6.36211],[106.94622,-6.36305],[106.94451,-6.36414],[106.94486,-6.36541],[106.94399,-6.36621],[106.94427,-6.36672],[106.94499,-6.3662],[106.94528,-6.36855],[106.94446,-6.36837],[106.94343,-6.36914],[106.94258,-6.36729],[106.94217,-6.3674],[106.94207,-6.36917],[106.9401,-6.37052],[106.93846,-6.37078],[106.93859,-6.37214],[106.93969,-6.37123],[106.94054,-6.37159],[106.93787,-6.37413],[106.93887,-6.37521],[106.93739,-6.37783],[106.93794,-6.37863],[106.93591,-6.3783],[106.93542,-6.37874],[106.93644,-6.38021],[106.93765,-6.38062],[106.93711,-6.38188],[106.93599,-6.38273],[106.93483,-6.38189],[106.93411,-6.38328],[106.93144,-6.38352],[106.93055,-6.38534],[106.92948,-6.38613],[106.9274,-6.38633],[106.92662,-6.38547],[106.92619,-6.38639],[106.92644,-6.38779],[106.92585,-6.38826],[106.92531,-6.38805],[106.92541,-6.3863],[106.92435,-6.38643],[106.92326,-6.38973],[106.92195,-6.38881],[106.92219,-6.38991],[106.92086,-6.39277],[106.92265,-6.39434],[106.91347,-6.39339],[106.90862,-6.39411],[106.90839,-6.39528],[106.90634,-6.39432],[106.90548,-6.39442],[106.90377,-6.3961],[106.9016,-6.39611],[106.90102,-6.39741],[106.89912,-6.39658],[106.89824,-6.39729],[106.89777,-6.39665],[106.89782,-6.396],[106.89858,-6.39563],[106.8985,-6.39444],[106.89911,-6.39436],[106.89936,-6.39488],[106.90031,-6.39439],[106.90116,-6.39466],[106.90284,-6.39383],[106.90436,-6.3921],[106.90447,-6.39139],[106.90394,-6.3908],[106.90418,-6.38914],[106.90356,-6.38818],[106.90455,-6.38724],[106.90391,-6.38646],[106.90507,-6.38417],[106.90394,-6.38009],[106.90468,-6.37993],[106.90464,-6.37932],[106.90605,-6.3786],[106.90649,-6.3777],[106.90768,-6.3777],[106.90813,-6.37689],[106.90763,-6.37596],[106.90839,-6.37552],[106.9086,-6.37457],[106.90793,-6.37397],[106.90858,-6.37278],[106.90789,-6.37253],[106.9079,-6.37109],[106.91025,-6.37027],[106.91064,-6.36791],[106.91211,-6.36742],[106.912,-6.36807],[106.91246,-6.36842],[106.9126,-6.36743],[106.914,-6.36652],[106.91487,-6.36385],[106.9146,-6.36312],[106.91593,-6.36269],[106.91439,-6.36123],[106.91539,-6.3607],[106.91396,-6.3601],[106.91419,-6.35937],[106.91345,-6.35844],[106.91462,-6.35821],[106.91445,-6.35761],[106.91564,-6.35631],[106.91683,-6.35637],[106.91693,-6.356],[106.91533,-6.35511],[106.9154,-6.35445],[106.91709,-6.35295],[106.91625,-6.35162],[106.91754,-6.35039],[106.91611,-6.34888],[106.91697,-6.34786],[106.9158,-6.34612],[106.91713,-6.34599],[106.91718,-6.34366],[106.91921,-6.34315],[106.91851,-6.34226],[106.91927,-6.34079],[106.91839919840812,-6.340059035160101],[106.9213145777657,-6.337895545675214],[106.92926204983031,-6.334128416163668],[106.9377962606576,-6.33197466289031],[106.9465892453115,-6.331517073836728],[106.95530309432289,-6.332773238368944],[106.96166219590671,-6.334815616580034],[106.96178,-6.33584]]],[[[107.00473,-6.04185],[107.00486646713205,-6.04117116349698],[107.0075881636658,-6.041775439208719],[107.00473,-6.04185]]]]}},{"type":"Feature","properties":{"level":"rendah","label":"Rendah","unsur":"Sangat Rendah","keterangan":"Daerah yang mempunyai tingkat kerentanan sangat rendah untuk terkena gerakan tanah. Pada zona ini jarang atau hampir tidak pernah terjadi gerakan tanah, baik gerakan tanah lama maupun gerakan tanah baru, kecuali pada daerah tidak luas pada tebing sungai","tahun":2009,"wilayah":" ","zona":"001","lcode":"MB03050260","zona_perki":"Rendah"},"geometry":{"type":"Polygon","coordinates":[[[98.00351922319201,4.157501068283124],[98.00855,4.15741],[98.0094,4.16071],[98.0083,4.16602],[98.005,4.17017],[98.00238,4.17175],[98.00128,4.17548],[98.00482,4.17725],[98.00965,4.17438],[98.01526,4.17307],[98.01605,4.17395],[98.0202,4.17566],[98.0213,4.1803],[98.02484,4.18292],[98.02661,4.18781],[98.02646,4.18835],[98.04084,4.1885],[98.04242,4.18512],[98.04199,4.17615],[98.0387,4.17371],[98.02942,4.17371],[98.02661,4.17151],[98.02484,4.16669],[98.01978,4.16559],[98.01978,4.15656],[98.02832,4.14685],[98.02594,4.14227],[98.01647,4.14575],[98.01227,4.14575],[98.01153801212935,4.142708923119201],[98.003764049853,4.156757855474084],[98.00351922319201,4.157501068283124]]]}},{"type":"Feature","properties":{"level":"menengah","label":"Menengah","unsur":"Rendah","keterangan":"Daerah yang mempunyai tingkat kerentanan rendah untuk terkena gerakan tanah. Umumnya pada zona ini jarang terjadi gerakan tanah jika tidak mengalami gangguan pada lereng, dan jika terdapat gerakan tanah lama, lereng telah mantap kembali. Gerakan tanah b*","tahun":2009,"wilayah":" ","zona":"002","lcode":"MB03050260","zona_perki":"Menengah"},"geometry":{"type":"MultiPolygon","coordinates":[[[[98.06155,4.18481],[98.06152,4.18381],[98.0639,4.17738],[98.06903,4.1672],[98.07041,4.16257],[98.07223,4.15978],[98.07206,4.15732],[98.07085,4.15519],[98.0712,4.15241],[98.07318,4.14925],[98.07456,4.14812],[98.07515,4.14636],[98.0733,4.14365],[98.06355,4.13748],[98.05526,4.13658],[98.05445,4.13621],[98.05347,4.13455],[98.05579,4.13054],[98.05515,4.12549],[98.0534,4.11995],[98.05271,4.11547],[98.05411,4.10656],[98.05295,4.10304],[98.05117840597472,4.089472451180851],[98.04762641204243,4.09717460418552],[98.04081616216223,4.1036880494560695],[98.03599256833677,4.110464373699561],[98.0337061253461,4.114231718258753],[98.03169247012252,4.116262079693405],[98.02956991241658,4.117560414787661],[98.02249482079347,4.1244027015383855],[98.01708606884323,4.13261917911714],[98.01495135545866,4.137947667066636],[98.01153801212935,4.142708923119201],[98.01227,4.14575],[98.01647,4.14575],[98.02594,4.14227],[98.02832,4.14685],[98.01978,4.15656],[98.01978,4.16559],[98.02484,4.16669],[98.02661,4.17151],[98.02942,4.17371],[98.0387,4.17371],[98.04199,4.17615],[98.04242,4.18512],[98.04084,4.1885],[98.05915,4.18819],[98.06874,4.18688],[98.06484,4.18658],[98.06302,4.18592],[98.06155,4.18481]]],[[[98.02484,4.18292],[98.0213,4.1803],[98.0202,4.17566],[98.01605,4.17395],[98.01526,4.17307],[98.00965,4.17438],[98.00482,4.17725],[98.00128,4.17548],[98.00238,4.17175],[98.005,4.17017],[98.0083,4.16602],[98.0094,4.16071],[98.00855,4.15741],[98.00351922319201,4.157501068283124],[98.00136541130414,4.164039329177141],[97.99920348631628,4.172912552335168],[97.99793158815747,4.181466955139159],[97.99801198946139,4.1832038150391515],[97.99652543092844,4.188495265584136],[98.0012,4.18823],[98.02646,4.18835],[98.02661,4.18781],[98.02484,4.18292]]]]}},{"type":"Feature","properties":{"level":"rendah","label":"Rendah","unsur":"Sangat Rendah","keterangan":"Daerah yang mempunyai tingkat kerentanan sangat rendah untuk terkena gerakan tanah. Pada zona ini jarang atau hampir tidak pernah terjadi gerakan tanah, baik gerakan tanah lama maupun gerakan tanah baru, kecuali pada daerah tidak luas pada tebing sungai","tahun":2009,"wilayah":" ","zona":"001","lcode":"MB03050260","zona_perki":"Rendah"},"geometry":{"type":"Polygon","coordinates":[[[98.46425,3.6628],[98.46781,3.66138],[98.46817,3.6603],[98.46996,3.65959],[98.47103,3.65852],[98.47174,3.65852],[98.47174,3.65781],[98.47388,3.65602],[98.47388,3.65531],[98.47602,3.65352],[98.47709,3.65174],[98.47781,3.65174],[98.47852,3.65102],[98.47852,3.64995],[98.47924,3.64924],[98.48066,3.64888],[98.48138,3.64781],[98.49066,3.64638],[98.49209,3.64424],[98.49209,3.64353],[98.4928,3.64353],[98.4928,3.6421],[98.49316,3.6421],[98.49316,3.63639],[98.49173,3.63639],[98.48852,3.63496],[98.48352,3.63496],[98.48316,3.63568],[98.47924,3.6371],[98.47817,3.63853],[98.47674,3.63853],[98.47674,3.63889],[98.47424,3.63925],[98.47353,3.63996],[98.47281,3.63996],[98.47031,3.64246],[98.4696,3.64246],[98.4696,3.64353],[98.46889,3.64389],[98.46817,3.64567],[98.46639,3.6471],[98.46567,3.64888],[98.4646,3.6496],[98.46425,3.65102],[98.46317,3.6521],[98.46103,3.65245],[98.46103,3.65317],[98.45175,3.65388],[98.44926,3.65566],[98.44783,3.65959],[98.44569,3.65995],[98.44533,3.66066],[98.44319,3.66066],[98.44283,3.65995],[98.4414,3.65959],[98.44105,3.65781],[98.44069,3.65781],[98.44069,3.64781],[98.44033,3.6471],[98.43962,3.6471],[98.43951026270416,3.6468271808894994],[98.43148972079469,3.6545966648731425],[98.42864354911366,3.658925475263584],[98.42927,3.65923],[98.42927,3.65995],[98.43034,3.66102],[98.43034,3.66173],[98.43105,3.66209],[98.43105,3.66316],[98.43177,3.66387],[98.43355,3.66459],[98.43462,3.66602],[98.43783,3.66744],[98.43926,3.66744],[98.43962,3.66816],[98.45175,3.66851],[98.45211,3.6678],[98.45532,3.66744],[98.45532,3.66709],[98.46425,3.66352],[98.46425,3.6628]],[[98.46734,3.65165],[98.46714,3.65193],[98.46693,3.65151],[98.46734,3.65165]],[[98.46551,3.65145],[98.46518,3.65096],[98.46595,3.65083],[98.46551,3.65145]]]}},{"type":"Feature","properties":{"level":"menengah","label":"Menengah","unsur":"Rendah","keterangan":"Daerah yang mempunyai tingkat kerentanan rendah untuk terkena gerakan tanah. Umumnya pada zona ini jarang terjadi gerakan tanah jika tidak mengalami gangguan pada lereng, dan jika terdapat gerakan tanah lama, lereng telah mantap kembali. Gerakan tanah b*","tahun":2009,"wilayah":" ","zona":"002","lcode":"MB03050260","zona_perki":"Menengah"},"geometry":{"type":"MultiPolygon","coordinates":[[[[98.38334,3.73308],[98.38677,3.73822],[98.38734,3.73993],[98.38734,3.74193],[98.38134,3.74707],[98.38077,3.74879],[98.37934,3.7505],[98.37877,3.75221],[98.37877,3.75478],[98.37934,3.75621],[98.38049,3.75764],[98.38191,3.75849],[98.38191,3.75935],[98.38306,3.76049],[98.3842,3.76535],[98.39084,3.76527],[98.39391,3.76164],[98.39476,3.75849],[98.39476,3.75507],[98.39733,3.7485],[98.3979,3.74536],[98.3979,3.7425],[98.39705,3.73908],[98.39476,3.73622],[98.39448,3.73451],[98.39334,3.73223],[98.38648,3.72623],[98.38584549467906,3.7251687805743194],[98.38400494285547,3.728312528306215],[98.38244460224996,3.7324123788705896],[98.38334,3.73308]]],[[[98.41676,3.69],[98.41676,3.69205],[98.4176,3.69325],[98.41869,3.69386],[98.42134,3.69386],[98.42267,3.69229],[98.42279,3.68807],[98.42327,3.68662],[98.4246,3.68517],[98.42713,3.68373],[98.42809,3.68469],[98.42785,3.69012],[98.42544,3.6953],[98.42242,3.69747],[98.41724,3.70001],[98.41591,3.70109],[98.41278,3.70544],[98.40735,3.70881],[98.40735,3.71509],[98.40792,3.71738],[98.41049,3.72452],[98.4122,3.73251],[98.4142,3.73565],[98.41485,3.73581],[98.41597,3.73065],[98.41714,3.72777],[98.4188,3.72539],[98.42123,3.72357],[98.42763,3.72147],[98.43934,3.72045],[98.47785,3.72078],[98.48592,3.72036],[98.49313,3.71906],[98.49617,3.71784],[98.49864,3.71605],[98.50041,3.71358],[98.50162,3.71054],[98.50291,3.70332],[98.5034,3.691],[98.50311,3.6563],[98.50403,3.64442],[98.50587,3.63804],[98.50745,3.63573],[98.50931,3.63437],[98.5115,3.63358],[98.51627,3.6335],[98.52061,3.63539],[98.52231,3.63713],[98.52784,3.64634],[98.52954,3.64843],[98.54316,3.65769],[98.54485,3.65977],[98.55031,3.66932],[98.55125739541852,3.670474813350387],[98.55194576420597,3.6635],[98.55108272039126,3.654755232614344],[98.54852675523698,3.6463464413322977],[98.5443760930506,3.638596785260597],[98.53879024145222,3.6318041000807537],[98.53198386158616,3.6262294492290525],[98.52421851881364,3.6220870876845983],[98.51579263090254,3.619536224607417],[98.49797595950753,3.617994771718578],[98.48823078445422,3.6182838651569784],[98.47877768951571,3.6206647599496278],[98.47006206347302,3.6250252628643427],[98.46622253460309,3.627499992724126],[98.46247777453202,3.628635482965144],[98.45467122696382,3.632816481631051],[98.4478388794317,3.6384453738795783],[98.43951026270416,3.6468271808894994],[98.43962,3.6471],[98.44033,3.6471],[98.44069,3.64781],[98.44069,3.65781],[98.44105,3.65781],[98.4414,3.65959],[98.44283,3.65995],[98.44319,3.66066],[98.44533,3.66066],[98.44569,3.65995],[98.44783,3.65959],[98.44926,3.65566],[98.45175,3.65388],[98.46103,3.65317],[98.46103,3.65245],[98.46317,3.6521],[98.46425,3.65102],[98.4646,3.6496],[98.46567,3.64888],[98.46639,3.6471],[98.46817,3.64567],[98.46889,3.64389],[98.4696,3.64353],[98.4696,3.64246],[98.47031,3.64246],[98.47281,3.63996],[98.47353,3.63996],[98.47424,3.63925],[98.47674,3.63889],[98.47674,3.63853],[98.47817,3.63853],[98.47924,3.6371],[98.48316,3.63568],[98.48352,3.63496],[98.48852,3.63496],[98.49173,3.63639],[98.49316,3.63639],[98.49316,3.6421],[98.4928,3.6421],[98.4928,3.64353],[98.49209,3.64353],[98.49101,3.64603],[98.48959,3.64638],[98.48959,3.64674],[98.48423,3.6471],[98.48138,3.64781],[98.48066,3.64888],[98.47924,3.64924],[98.47852,3.64995],[98.47852,3.65102],[98.47781,3.65174],[98.47709,3.65174],[98.47602,3.65352],[98.47388,3.65531],[98.47388,3.65602],[98.47174,3.65781],[98.47174,3.65852],[98.47103,3.65852],[98.46996,3.65959],[98.46817,3.6603],[98.46781,3.66138],[98.46425,3.6628],[98.46425,3.66352],[98.45532,3.66709],[98.45532,3.66744],[98.45211,3.6678],[98.45175,3.66851],[98.43962,3.66816],[98.43926,3.66744],[98.43783,3.66744],[98.43462,3.66602],[98.43355,3.66459],[98.43177,3.66387],[98.43105,3.66316],[98.43105,3.66209],[98.43034,3.66173],[98.43034,3.66102],[98.42927,3.65995],[98.42927,3.65923],[98.42864354911366,3.658925475263584],[98.42113762213776,3.6717113880544825],[98.4196276221378,3.6751414575167627],[98.41681804693171,3.68384006862229],[98.41629187238173,3.688703056270693],[98.41676,3.69]]],[[[98.63949,3.69054],[98.64406,3.69282],[98.6472,3.69539],[98.65091,3.69596],[98.65748,3.69596],[98.6649,3.69425],[98.66547,3.69368],[98.67661,3.69025],[98.67946,3.68854],[98.68574,3.68654],[98.68831,3.68511],[98.68946,3.68511],[98.69203,3.68369],[98.70516,3.6794],[98.71373,3.67797],[98.72587054512117,3.67797],[98.7258038342061,3.6775535154532326],[98.73289227340007,3.6743138658965977],[98.7419999656482,3.6687592423310695],[98.7450499656482,3.6663593363829494],[98.75174515101155,3.659856301533089],[98.75694739631209,3.652111621829157],[98.76135442670278,3.642691382295087],[98.76309662348258,3.6361227560782705],[98.76827662348259,3.608173007556669],[98.76901939757711,3.6007747371952123],[98.76924282719935,3.587532262028023],[98.77034137669722,3.5764920055948277],[98.77369102752097,3.5760603979547256],[98.78568164349319,3.5727840233795574],[98.7981016434932,3.567454261024672],[98.80210318579472,3.5652747289864166],[98.80454690427536,3.568627602707323],[98.8113701497439,3.5752600867602737],[98.81944122749891,3.5803074665995944],[98.83055720399969,3.5840727783645776],[98.84147011935318,3.585368544601324],[98.84484049649933,3.5853543062702804],[98.84554,3.58395],[98.84175,3.58214],[98.84012,3.5804],[98.8361,3.57365],[98.83278,3.56956],[98.83018,3.56793],[98.82371,3.56593],[98.81619,3.56497],[98.80401,3.56449],[98.73632,3.56519],[98.72406,3.56492],[98.71317,3.56328],[98.7102,3.56207],[98.70778,3.56031],[98.706,3.55783],[98.70479,3.55479],[98.70347,3.54758],[98.70291,3.53109],[98.70320134188277,3.5044030835381457],[98.70066516739494,3.5061060841120875],[98.69571807849427,3.5106303444986073],[98.69394807849427,3.5125104065851525],[98.68848501319258,3.5196208157335134],[98.68454779429973,3.5276735360500915],[98.68306304811848,3.5319331129640963],[98.68117372852191,3.5391659994669227],[98.68030860408925,3.5502520933660064],[98.68104319885332,3.5667350748312585],[98.67946060242286,3.5838552494367644],[98.67926353610208,3.595535252209688],[98.6783149848717,3.600653489821294],[98.67045772659992,3.60424480788945],[98.66292818229606,3.608613212593765],[98.65909818229606,3.6113633233349827],[98.65216976520797,3.617515248341845],[98.64785389651415,3.6233383270152446],[98.64831,3.62366],[98.64967,3.62345],[98.64786,3.62412],[98.6476411419559,3.6236253808203354],[98.64719390245631,3.6242288076103426],[98.64735,3.62443],[98.64708202552247,3.6243797547854606],[98.64665492441503,3.624956010349864],[98.64507492441503,3.627626077880484],[98.64145629672598,3.6353287640239964],[98.63973819255655,3.641465731325257],[98.63819751784195,3.6506816137237554],[98.63772065807056,3.6584854963880566],[98.6358489045792,3.671057735951745],[98.63558934620806,3.6793580649870172],[98.63693878426744,3.690706901963812],[98.63949,3.69054]],[[98.65181,3.62403],[98.65242,3.62398],[98.65186,3.62428],[98.65181,3.62403]],[[98.65216,3.62363],[98.65187,3.62348],[98.65247,3.62327],[98.65216,3.62363]],[[98.65521,3.62087],[98.65659,3.62101],[98.6564,3.62105],[98.65521,3.62087]],[[98.64864,3.62461],[98.64779,3.6244],[98.64916,3.62448],[98.64864,3.62461]],[[98.65808,3.62275],[98.65773,3.62353],[98.65757,3.62329],[98.65808,3.62275]],[[98.6551,3.62294],[98.65457,3.62312],[98.65365,3.62295],[98.6551,3.62294]],[[98.65333,3.62082],[98.65317,3.62124],[98.65186,3.62106],[98.65333,3.62082]],[[98.65625,3.62278],[98.65768,3.62208],[98.65754,3.62267],[98.65645,3.62305],[98.65625,3.62278]]],[[[99.22516,3.32036],[99.23154,3.32246],[99.23397,3.32426],[99.23566,3.32662],[99.23757,3.3327],[99.23814,3.33975],[99.23717,3.35053],[99.2351,3.35685],[99.23242,3.36042],[99.237,3.36122],[99.24303,3.35808],[99.24544,3.35845],[99.25147,3.36339],[99.25436,3.37087],[99.25702,3.37256],[99.25919,3.37256],[99.27149,3.36351],[99.27644,3.36026],[99.28048,3.35832],[99.27642,3.35178],[99.27694,3.34748],[99.27504,3.3496],[99.26984,3.3405],[99.26684,3.33649],[99.2627,3.33241],[99.26205,3.3301],[99.2602,3.32759],[99.26031,3.32468],[99.25926,3.32137],[99.26121,3.31866],[99.26036,3.31359],[99.25158,3.29556],[99.24491,3.29048],[99.2443,3.28466],[99.2435,3.28235],[99.23609,3.27022],[99.23424,3.2655],[99.23472,3.25437],[99.23412,3.25307],[99.23172,3.25036],[99.22577062265061,3.2472941234097603],[99.22659867289083,3.250496336937177],[99.22958548180101,3.2572276928250896],[99.23267271358809,3.2628804388524255],[99.2338495313558,3.274089001056467],[99.23615793113653,3.2841232030274052],[99.23903190508373,3.291554039638912],[99.24241969751687,3.2987923829544483],[99.24381599453265,3.3007945750113405],[99.24139864711375,3.302329694363635],[99.23381600113677,3.308351929953312],[99.22527600113675,3.3158821868695805],[99.22130393239088,3.3198907430951867],[99.22516,3.32036]]],[[[99.2254,3.23582],[99.2273,3.23772],[99.2345,3.24334],[99.2378,3.24404],[99.2404,3.24614],[99.2419,3.24835],[99.2419,3.25006],[99.24066,3.25301],[99.23951,3.25442],[99.2386,3.25776],[99.23903,3.26284],[99.24028,3.26505],[99.24128,3.26505],[99.24576,3.25617],[99.24675,3.25507],[99.24803,3.25471],[99.25187,3.25617],[99.25501,3.25823],[99.25666,3.25813],[99.25786,3.25693],[99.26091,3.25547],[99.26315,3.25602],[99.26495,3.25743],[99.2655,3.25949],[99.26799,3.26105],[99.26879,3.26301],[99.27018,3.26477],[99.27492,3.26789],[99.27567,3.2695],[99.27632,3.27327],[99.27791,3.27508],[99.27881,3.27508],[99.28031,3.27397],[99.28156,3.27412],[99.28231,3.27483],[99.28201,3.27533],[99.29471,3.27315],[99.29763,3.27195],[99.30005,3.27025],[99.30191,3.26782],[99.30321,3.26483],[99.30471,3.25772],[99.30559,3.24134],[99.30527,3.21148],[99.30466,3.20346],[99.3033,3.19622],[99.30215,3.19309],[99.30051,3.19044],[99.29861,3.18859],[99.28711,3.18132],[99.27782,3.16808],[99.26621,3.1607],[99.26429,3.15882],[99.26271,3.1563],[99.26082,3.15009],[99.26013,3.13946],[99.26074996922353,3.1337232181182735],[99.25712024540894,3.138237146535727],[99.25306494613257,3.1459941950757684],[99.2505953552094,3.154389800890316],[99.249805484064,3.1631043517192365],[99.24989483165311,3.175070083413149],[99.24896263465374,3.182310592252112],[99.23915896817182,3.194199902874814],[99.23811988755561,3.1949962552158637],[99.23212189049349,3.201946906988028],[99.22766615344227,3.209970796607834],[99.22493916914651,3.218732066849049],[99.22405507423048,3.227864004661191],[99.22409014400317,3.2335944039699975],[99.2254,3.23582]]],[[[99.28762,3.11836],[99.29429,3.11684],[99.29715,3.11561],[99.29949,3.11387],[99.30121,3.11153],[99.3033,3.10549],[99.30392221362544,3.1010629500549114],[99.29976818494126,3.1027877755700692],[99.29300779559324,3.1071479739965833],[99.28713518956141,3.112642835801948],[99.28232189050966,3.119123724696726],[99.28762,3.11836]]],[[[98.05134,4.08951],[98.05295,4.10304],[98.05411,4.10656],[98.05271,4.11547],[98.0534,4.11995],[98.05515,4.12549],[98.05579,4.13054],[98.05347,4.13455],[98.05445,4.13621],[98.05526,4.13658],[98.06355,4.13748],[98.0733,4.14365],[98.07515,4.14636],[98.07456,4.14812],[98.07318,4.14925],[98.0712,4.15241],[98.07085,4.15519],[98.07206,4.15732],[98.07223,4.15978],[98.07041,4.16257],[98.06903,4.1672],[98.0639,4.17738],[98.06152,4.18381],[98.06155,4.18481],[98.06302,4.18592],[98.06484,4.18658],[98.06873,4.18688],[98.073,4.18552],[98.07558,4.18396],[98.07893,4.1799],[98.08296,4.1728],[98.0846,4.17074],[98.0866,4.16902],[98.09598,4.16353],[98.09801,4.16185],[98.09968,4.15981],[98.10489,4.15019],[98.1065,4.1481],[98.11657,4.14052],[98.11912,4.13812],[98.12122,4.13539],[98.12373,4.12927],[98.12456,4.12394],[98.1244,4.12143],[98.13605931204955,4.12143],[98.13763318578641,4.118502741498206],[98.14380066855554,4.102618380979665],[98.14438998048153,4.09975932916751],[98.14600990617157,4.097390544720029],[98.14894381859925,4.091294024363691],[98.15325357118238,4.080412051023266],[98.15325,4.07908],[98.15404117217771,4.078552551881526],[98.15463731765526,4.076921778811139],[98.1597300391191,4.07464590009075],[98.16893166208789,4.068218948379632],[98.17368648358725,4.063920775422995],[98.19792035777812,4.080390605995156],[98.2076,4.07424],[98.20949,4.07234],[98.21107,4.06966],[98.21296,4.06299],[98.21382,4.05527],[98.21411,4.03867],[98.21334,4.02654],[98.21197,4.01949],[98.21082,4.01658],[98.20921,4.01431],[98.20732,4.01296],[98.20513,4.01221],[98.20046,4.01228],[98.19829,4.01311],[98.19642,4.01452],[98.19489,4.01677],[98.19297,4.02285],[98.19091,4.03747],[98.18939,4.04435],[98.18815,4.04731],[98.1864,4.04977],[98.18394,4.05166],[98.18093,4.05299],[98.1738,4.05455],[98.16168,4.05537],[98.14916,4.05527],[98.1375,4.05415],[98.13124,4.05223],[98.12897,4.05063],[98.12763,4.04875],[98.12686,4.04656],[98.12682,4.04181],[98.12873,4.03749],[98.13049,4.03578],[98.13733,4.03159],[98.1415,4.02816],[98.14314,4.02557],[98.14517,4.01913],[98.14616,4.01168],[98.14666,3.9996],[98.1464817600187,3.97197789547072],[98.1438059709416,3.9736091255364783],[98.1395932226961,3.9753629254380454],[98.1313183379121,3.981288861009858],[98.11871048890727,3.992686971513729],[98.11035562515298,3.9960672878809045],[98.09797207404799,4.00277397425812],[98.09037437758005,4.008441126529154],[98.08413934741343,4.0155736738565775],[98.08325440115173,4.017168535813477],[98.0773149216593,4.024386332010236],[98.07334280690216,4.032001069208188],[98.06864211878337,4.0457703624932675],[98.06811575575084,4.05055533210674],[98.06701859786772,4.053456943856464],[98.06232822212225,4.060842240900941],[98.0599675870728,4.065729646569355],[98.05735643072097,4.073681719597313],[98.05713231354311,4.075398592390529],[98.05655582870214,4.076554833137914],[98.05488470610223,4.0828194460611025],[98.05134,4.08951]]],[[[99.06031,3.49177],[99.06209,3.49493],[99.06364,3.49607],[99.06772,3.49743],[99.07773,3.49831],[99.09343,3.49795],[99.09807,3.49719],[99.1001,3.49638],[99.10181,3.49488],[99.1038,3.49026],[99.10454,3.48452],[99.10454,3.4782],[99.10192,3.47766],[99.09748,3.47539],[99.09443991169807,3.4753156338478],[99.09278513699056,3.477023621208606],[99.0842413681849,3.4767461448467247],[99.07859167187173,3.476001181557545],[99.07628462393652,3.476192121494796],[99.07332599548128,3.4758863388731798],[99.06847657434137,3.475819615422984],[99.06523,3.47652],[99.06186,3.47853],[99.06019,3.48176],[99.05963,3.48782],[99.06031,3.49177]]]]}},{"type":"Feature","properties":{"level":"rendah","label":"Rendah","unsur":"Sangat Rendah","keterangan":"Daerah yang mempunyai tingkat kerentanan sangat rendah untuk terkena gerakan tanah. Pada zona ini jarang atau hampir tidak pernah terjadi gerakan tanah, baik gerakan tanah lama maupun gerakan tanah baru, kecuali pada daerah tidak luas pada tebing sungai","tahun":2009,"wilayah":" ","zona":"001","lcode":"MB03050260","zona_perki":"Rendah"},"geometry":{"type":"MultiPolygon","coordinates":[[[[99.25557,3.37195],[99.25436,3.37087],[99.25147,3.36339],[99.24544,3.35845],[99.24303,3.35808],[99.237,3.36122],[99.23242,3.36042],[99.22916,3.36296],[99.22214,3.36727],[99.22031,3.369],[99.21824,3.37334],[99.2181,3.37812],[99.21877,3.38033],[99.22001,3.38222],[99.2222,3.38386],[99.22837,3.38581],[99.23357,3.38647],[99.23371,3.38299],[99.23757,3.38163],[99.23914,3.38242],[99.23999,3.38371],[99.24014,3.38688],[99.28148409087508,3.3866112145392284],[99.28729754142482,3.381166117626636],[99.28856859626674,3.3810637398024324],[99.2865,3.37601],[99.28241,3.36155],[99.28048,3.35832],[99.27644,3.36026],[99.25979,3.37232],[99.25847,3.37268],[99.25557,3.37195]],[[99.25884,3.38242],[99.25912,3.38128],[99.26012,3.38014],[99.26227,3.37928],[99.26269,3.38242],[99.26212,3.38328],[99.25941,3.38385],[99.25884,3.38242]]],[[[99.12685,3.46453],[99.12723,3.4568],[99.1267,3.44118],[99.12498,3.43476],[99.12450769719605,3.434107971350298],[99.12307119812915,3.4368779960689437],[99.12064730119971,3.4450978961257097],[99.1201633699305,3.450175007035175],[99.11827949153144,3.452476493736391],[99.10420415848549,3.465749128182592],[99.10441,3.47551],[99.11347,3.47565],[99.11922,3.4749],[99.12383,3.4729],[99.1253,3.47119],[99.12609,3.46917],[99.12685,3.46453]]],[[[99.10192,3.47766],[99.10454,3.4782],[99.10441,3.47551],[99.09748,3.47539],[99.10192,3.47766]]],[[[98.4246,3.68517],[98.42327,3.68662],[98.42279,3.68807],[98.42267,3.69229],[98.42134,3.69386],[98.41869,3.69386],[98.4176,3.69325],[98.41676,3.69205],[98.41676,3.69],[98.41629187238173,3.688703056270693],[98.4158991983586,3.692332211128893],[98.39251750041039,3.716200844804955],[98.38775701098915,3.72190382221383],[98.38584549467906,3.7251687805743194],[98.38648,3.72623],[98.39334,3.73223],[98.39448,3.73451],[98.39476,3.73622],[98.39705,3.73908],[98.3979,3.7425],[98.39733,3.7485],[98.39476,3.75507],[98.39448,3.76021],[98.39391,3.76164],[98.39084,3.76527],[98.40048,3.76424],[98.40678,3.7621],[98.40918,3.76027],[98.41083,3.75788],[98.41199,3.75499],[98.41335,3.74826],[98.41485,3.73581],[98.41392,3.73537],[98.41277,3.73365],[98.41135,3.72994],[98.41049,3.72452],[98.40735,3.71509],[98.40735,3.70881],[98.41278,3.70544],[98.41591,3.70109],[98.41724,3.70001],[98.42242,3.69747],[98.42544,3.6953],[98.42785,3.69012],[98.42809,3.68469],[98.42713,3.68373],[98.4246,3.68517]]],[[[98.92623,3.5646],[98.88401,3.56453],[98.8726,3.56588],[98.86626,3.56803],[98.86375,3.56975],[98.862,3.57171],[98.858,3.57861],[98.85497,3.58238],[98.85072,3.58418],[98.84554,3.58395],[98.84484049649933,3.5853543062702804],[98.86514011935319,3.5852685494728305],[98.8738111393045,3.5843879254177957],[98.88214849763136,3.5818525005817192],[98.88740119275548,3.5790554610778917],[98.90729593937866,3.5866327444384827],[98.91464927572672,3.588737498427277],[98.92225383150331,3.5895663460168485],[98.92628348610734,3.589317713067956],[98.92623,3.5646]]],[[[98.71373,3.67797],[98.70516,3.6794],[98.69203,3.68369],[98.68946,3.68511],[98.68831,3.68511],[98.68574,3.68654],[98.67946,3.68854],[98.67661,3.69025],[98.66547,3.69368],[98.6649,3.69425],[98.65748,3.69596],[98.65091,3.69596],[98.6472,3.69539],[98.64406,3.69282],[98.63949,3.69054],[98.63693878426744,3.690706901963812],[98.63726315023972,3.692731938586116],[98.63690625283832,3.704105766300421],[98.62660651435696,3.7046266830882244],[98.61719648579127,3.7061121700767456],[98.59805266507844,3.7113427212573384],[98.59151379595532,3.711421035063348],[98.59242,3.71883],[98.59274,3.72745],[98.59213,3.76506],[98.67389,3.76536],[98.68397,3.76496],[98.69311,3.76356],[98.69661,3.76233],[98.6991,3.76065],[98.70082,3.75866],[98.70617,3.74918],[98.70784,3.74715],[98.70987,3.74546],[98.71925,3.73996],[98.72291,3.73621],[98.72713219210938,3.7292708536099077],[98.72782189855023,3.721330407071805],[98.72770287822831,3.7155362923658175],[98.72698203816245,3.7071129199447137],[98.7278701536944,3.70090943767402],[98.72674271669783,3.6834150757189077],[98.72587054512117,3.67797],[98.71373,3.67797]],[[98.65729,3.72629],[98.65722,3.72645],[98.65695,3.72633],[98.65729,3.72629]],[[98.65909,3.7216],[98.6589,3.72228],[98.65892,3.72155],[98.65909,3.7216]],[[98.65891,3.72233],[98.6592,3.72339],[98.65987,3.72332],[98.65848,3.72352],[98.65891,3.72233]],[[98.65868,3.7247],[98.6582,3.72461],[98.65826,3.72352],[98.65881,3.72387],[98.65868,3.7247]],[[98.65923,3.72643],[98.66029,3.72629],[98.66009,3.72555],[98.65977,3.72579],[98.66021,3.72519],[98.66003,3.72454],[98.66087,3.72522],[98.66062,3.72642],[98.66112,3.72544],[98.66126,3.7258],[98.66178,3.72549],[98.66275,3.72584],[98.66296,3.72778],[98.66263,3.7284],[98.6621,3.72831],[98.66247,3.72909],[98.66145,3.73033],[98.66101,3.7305],[98.6594,3.72872],[98.65668,3.72784],[98.65691,3.72677],[98.65784,3.72586],[98.65782,3.72459],[98.65885,3.72487],[98.65853,3.72551],[98.65923,3.72643]]],[[[98.38734,3.73993],[98.38677,3.73822],[98.38334,3.73308],[98.38236407720049,3.732623961308643],[98.37940418852587,3.7420513006835994],[98.37792504091088,3.749525771016716],[98.37782860204833,3.753410107436485],[98.37154633567265,3.765344054916051],[98.38448,3.76545],[98.38363,3.76392],[98.38306,3.76049],[98.38191,3.75935],[98.38191,3.75849],[98.38049,3.75764],[98.37906,3.75564],[98.37877,3.75278],[98.37934,3.7505],[98.38077,3.74879],[98.38134,3.74707],[98.38734,3.74193],[98.38734,3.73993]]]]}},{"type":"Feature","properties":{"level":"menengah","label":"Menengah","unsur":"Rendah","keterangan":"Daerah yang mempunyai tingkat kerentanan rendah untuk terkena gerakan tanah. Umumnya pada zona ini jarang terjadi gerakan tanah jika tidak mengalami gangguan pada lereng, dan jika terdapat gerakan tanah lama, lereng telah mantap kembali. Gerakan tanah b*","tahun":2009,"wilayah":" ","zona":"002","lcode":"MB03050260","zona_perki":"Menengah"},"geometry":{"type":"Polygon","coordinates":[[[99.27619,3.3605],[99.27632,3.3605],[99.27632,3.36044],[99.27619,3.3605]]]}},{"type":"Feature","properties":{"level":"menengah","label":"Menengah","unsur":"Rendah","keterangan":"Daerah yang mempunyai tingkat kerentanan rendah untuk terkena gerakan tanah. Umumnya pada zona ini jarang terjadi gerakan tanah jika tidak mengalami gangguan pada lereng, dan jika terdapat gerakan tanah lama, lereng telah mantap kembali. Gerakan tanah b*","tahun":2009,"wilayah":" ","zona":"002","lcode":"MB03050260","zona_perki":"Menengah"},"geometry":{"type":"Polygon","coordinates":[[[99.24014,3.38688],[99.23999,3.38371],[99.23914,3.38242],[99.23757,3.38163],[99.23371,3.38299],[99.23357,3.38647],[99.24014,3.38688]]]}},{"type":"Feature","properties":{"level":"menengah","label":"Menengah","unsur":"Rendah","keterangan":"Daerah yang mempunyai tingkat kerentanan rendah untuk terkena gerakan tanah. Umumnya pada zona ini jarang terjadi gerakan tanah jika tidak mengalami gangguan pada lereng, dan jika terdapat gerakan tanah lama, lereng telah mantap kembali. Gerakan tanah b*","tahun":2009,"wilayah":" ","zona":"002","lcode":"MB03050260","zona_perki":"Menengah"},"geometry":{"type":"Polygon","coordinates":[[[99.26212,3.38328],[99.26269,3.38242],[99.26269,3.38028],[99.26215,3.37917],[99.26012,3.38014],[99.25884,3.38228],[99.25941,3.38385],[99.26084,3.38385],[99.26212,3.38328]]]}},{"type":"Feature","properties":{"level":"rendah","label":"Rendah","unsur":"Sangat Rendah","keterangan":" ","tahun":0,"wilayah":" ","zona":" ","lcode":" ","zona_perki":"Rendah"},"geometry":{"type":"Polygon","coordinates":[[[99.35466,3.32377],[99.36593,3.31642],[99.36764,3.31468],[99.36881,3.31261],[99.36963,3.30788],[99.36854,3.30328],[99.36718,3.3014],[99.36499,3.29985],[99.36224,3.29876],[99.35565,3.2976],[99.3448,3.29771],[99.33799,3.299],[99.33242,3.30177],[99.33051,3.3037],[99.3244,3.31299],[99.3225,3.31493],[99.31983,3.31662],[99.3167,3.31784],[99.30951,3.31933],[99.29745,3.32022],[99.28096,3.31997],[99.27331,3.319],[99.26682,3.31683],[99.26433,3.315],[99.26257,3.31261],[99.26054,3.30649],[99.25987,3.2958],[99.26068,3.28878],[99.26155,3.28558],[99.26283,3.28274],[99.26463,3.28041],[99.26707,3.27868],[99.27332,3.27659],[99.28201,3.27533],[99.28231,3.27483],[99.28086,3.27392],[99.27881,3.27508],[99.27726,3.27467],[99.27587,3.27211],[99.27567,3.2695],[99.27492,3.26789],[99.27018,3.26477],[99.26759,3.2606],[99.2655,3.25949],[99.2647,3.25708],[99.2622,3.25557],[99.26036,3.25567],[99.25786,3.25693],[99.25666,3.25813],[99.25501,3.25823],[99.24912,3.25496],[99.24803,3.25471],[99.24675,3.25507],[99.24576,3.25617],[99.24128,3.26505],[99.24028,3.26505],[99.23903,3.26284],[99.2386,3.25776],[99.23951,3.25442],[99.24066,3.25301],[99.2419,3.25006],[99.2419,3.24835],[99.2404,3.24614],[99.2378,3.24404],[99.2345,3.24334],[99.2273,3.23772],[99.2254,3.23582],[99.22409014400317,3.2335944039699975],[99.22475530806445,3.243367726260728],[99.22577062265061,3.2472941234097603],[99.23172,3.25036],[99.23412,3.25307],[99.23472,3.25437],[99.23424,3.2655],[99.23609,3.27022],[99.2435,3.28235],[99.2443,3.28466],[99.24491,3.29048],[99.25158,3.29556],[99.26036,3.31359],[99.26121,3.31866],[99.25926,3.32137],[99.26031,3.32468],[99.2602,3.32759],[99.26205,3.3301],[99.2627,3.33241],[99.26684,3.33649],[99.26984,3.3405],[99.27504,3.3496],[99.27694,3.34748],[99.27642,3.35178],[99.28241,3.36155],[99.2865,3.37601],[99.28860838280485,3.3810605351734346],[99.29453233335413,3.380583387258236],[99.30274645468192,3.379146452901984],[99.30581260740469,3.3779964075315188],[99.30807,3.37255],[99.31274,3.36743],[99.32291,3.35982],[99.32455,3.35774],[99.32849,3.35051],[99.33165,3.3462],[99.33375,3.34454],[99.34106,3.34055],[99.34549,3.3374],[99.34722,3.33534],[99.35292,3.32582],[99.35466,3.32377]]]}}]}