{"type":"FeatureCollection","areas":{"ONSA":{"nama":"Operation North Sumatera Area"},"OCSA":{"nama":"Operation Central Sumatera Area"},"ODA":{"nama":"Operation Dumai Area"},"OSSA":{"nama":"Operation South Sumatera Area"},"OWJA":{"nama":"Operation West Java Area"},"OKA":{"nama":"Operation Kalimantan Area"}},"features":[{"type":"Feature","properties":{"kind":"pipa","area":"ONSA","name":"Jalur Pipa ONSA #1","grup":"Pipa"},"geometry":{"type":"LineString","coordinates":[[97.50031,4.86192],[97.50631,4.86869],[97.50876,4.8708],[97.5239,4.87912],[97.55823,4.90197],[97.55999,4.90232],[97.56104,4.902],[97.56275,4.89999],[97.58904,4.88362],[97.59179,4.879],[97.59194,4.86502],[97.59553,4.8634],[97.59951,4.86077],[97.60285,4.86115],[97.60614,4.8591],[97.60967,4.8583],[97.61336,4.85507],[97.61362,4.85373],[97.61304,4.85241],[97.60974,4.85006],[97.60954,4.84817],[97.60644,4.84577],[97.60555,4.84405],[97.60555,4.84277],[97.60502,4.84252],[97.60407,4.83994],[97.60746,4.83995],[97.60842,4.8404],[97.61209,4.83919],[97.61053,4.83726],[97.6099,4.83393],[97.60788,4.83274],[97.60785,4.83114],[97.60945,4.82909],[97.61133,4.82803],[97.61293,4.82805],[97.61564,4.82672],[97.61856,4.82786],[97.61973,4.82738],[97.62219,4.82746],[97.62408,4.82321],[97.62748,4.82309],[97.62851,4.82362],[97.62973,4.82327],[97.63078,4.82398],[97.63091,4.82577],[97.63227,4.82627],[97.63362,4.826],[97.63424,4.82746],[97.63607,4.82842],[97.63545,4.8295],[97.6359,4.83125],[97.63787,4.83394],[97.63934,4.83457],[97.64201,4.83351],[97.64411,4.83431],[97.64626,4.83353],[97.6468,4.83412],[97.65004,4.83255],[97.65343,4.83226],[97.65507,4.83093],[97.6589,4.83409],[97.65954,4.83564],[97.66112,4.83741],[97.66355,4.8386],[97.66444,4.84008],[97.66591,4.84085],[97.66651,4.84285],[97.66909,4.84386],[97.67234,4.84266],[97.67161,4.84157],[97.6715,4.84005],[97.67335,4.83671],[97.67136,4.83368],[97.67191,4.83245],[97.67393,4.83275],[97.67469,4.83235],[97.67575,4.83148],[97.67641,4.82999],[97.67723,4.83012],[97.67789,4.82961],[97.67813,4.82848],[97.6811,4.82533],[97.68281,4.82464],[97.68326,4.82618],[97.68679,4.82889],[97.68892,4.82862],[97.6913,4.83074],[97.69401,4.83072],[97.69676,4.83234],[97.69749,4.83402],[97.70007,4.83459],[97.70343,4.83658],[97.70593,4.83731],[97.70728,4.83608],[97.71006,4.83537],[97.71035,4.83748],[97.71253,4.83883],[97.71276,4.84051],[97.71351,4.84138],[97.71533,4.84169],[97.71644,4.84046],[97.71656,4.83897],[97.7161,4.83779],[97.71705,4.83634],[97.71957,4.83672],[97.72063,4.83832],[97.722,4.83893],[97.7269,4.83744],[97.72865,4.83847],[97.73028,4.83802],[97.7323,4.8394],[97.73532,4.8402],[97.73639,4.84125],[97.7388,4.84134],[97.73985,4.84401],[97.74212,4.84499],[97.74304,4.8467],[97.74435,4.84766],[97.74581,4.84805],[97.74623,4.8448],[97.74702,4.84364],[97.75069,4.8451],[97.75281,4.84332],[97.75368,4.84146],[97.75622,4.84144],[97.75799,4.8401],[97.76008,4.83954],[97.76245,4.84015],[97.76334,4.83935],[97.76748,4.8387],[97.76943,4.83779],[97.7702,4.83534],[97.76996,4.83287],[97.76934,4.83186],[97.76908,4.82889],[97.76699,4.8248],[97.76737,4.82313],[97.76845,4.82181],[97.76641,4.82033],[97.76587,4.8191],[97.76609,4.81738],[97.76768,4.81504],[97.77015,4.8134],[97.77009,4.81127],[97.7691,4.80862],[97.76621,4.80355],[97.76778,4.80304],[97.77239,4.79862],[97.77449,4.79918],[97.77608,4.79823],[97.77615,4.79588],[97.77904,4.79088],[97.78354,4.78667],[97.78493,4.78327],[97.78591,4.78184],[97.7868,4.78165],[97.78996,4.77609],[97.78757,4.77296],[97.78755,4.77182],[97.78959,4.7702],[97.79084,4.76617],[97.79218,4.76589],[97.79377,4.76392],[97.79526,4.76339]]}},{"type":"Feature","properties":{"kind":"pipa","area":"ONSA","name":"Jalur Pipa ONSA #2","grup":"Pipa"},"geometry":{"type":"LineString","coordinates":[[97.07745,5.22192],[97.07789,5.22192]]}},{"type":"Feature","properties":{"kind":"pipa","area":"ONSA","name":"Jalur Pipa ONSA #3","grup":"Pipa"},"geometry":{"type":"LineString","coordinates":[[97.07754,5.2215],[97.07789,5.22191]]}},{"type":"Feature","properties":{"kind":"pipa","area":"ONSA","name":"Jalur Pipa ONSA #4","grup":"Pipa"},"geometry":{"type":"LineString","coordinates":[[98.27496,4.01834],[98.27416,4.02173],[98.25783,4.01815],[98.2511,4.03387],[98.24238,4.05192]]}},{"type":"Feature","properties":{"kind":"pipa","area":"ONSA","name":"Jalur Pipa ONSA #5","grup":"Pipa"},"geometry":{"type":"LineString","coordinates":[[98.50683,3.66366],[98.49443,3.66268],[98.4845,3.66908],[98.47971,3.67003],[98.47365,3.67612],[98.4729,3.67744],[98.4664,3.6828],[98.46376,3.68785],[98.46226,3.68974],[98.46075,3.69317],[98.46924,3.70121],[98.44465,3.72724],[98.42453,3.74764],[98.42257,3.75444],[98.4233,3.7665],[98.41862,3.7723],[98.3997,3.80824],[98.35577,3.86455],[98.34515,3.87494],[98.32389,3.89002],[98.32065,3.89658],[98.31948,3.89781],[98.30753,3.90852],[98.29242,3.92014],[98.2867,3.93195],[98.28299,3.93604],[98.28019,3.94051],[98.27821,3.96553],[98.27881,3.97399],[98.28159,3.97928],[98.28194,3.99966],[98.27394,4.01045],[98.27494,4.0123],[98.275,4.01828]]}},{"type":"Feature","properties":{"kind":"pipa","area":"ONSA","name":"Jalur Pipa ONSA #6","grup":"Pipa"},"geometry":{"type":"LineString","coordinates":[[98.68081,3.67285],[98.68059,3.67477],[98.68108,3.67538],[98.68042,3.6766],[98.68058,3.67919],[98.68239,3.69049],[98.68194,3.69809],[98.683,3.69889],[98.682,3.70027],[98.68171,3.70486],[98.68295,3.71935],[98.68279,3.72296],[98.67989,3.73733],[98.67956,3.74138],[98.68006,3.74518],[98.68245,3.75329],[98.68352,3.76349],[98.68253,3.76383],[98.68142,3.76105],[98.67405,3.76123],[98.66572,3.75859]]}},{"type":"Feature","properties":{"kind":"pipa","area":"ONSA","name":"Jalur Pipa ONSA #7","grup":"Pipa"},"geometry":{"type":"LineString","coordinates":[[98.70741,3.78176],[98.70625,3.78063],[98.70571,3.78114],[98.70123,3.77696],[98.70036,3.77724],[98.69725,3.78047],[98.69539,3.78138],[98.69006,3.78096],[98.68843,3.78036],[98.68726,3.77831],[98.68351,3.76351]]}},{"type":"Feature","properties":{"kind":"pipa","area":"ONSA","name":"Jalur Pipa ONSA #8","grup":"Pipa"},"geometry":{"type":"LineString","coordinates":[[99.33808,3.1392],[99.33774,3.13985],[99.33531,3.14067],[99.33229,3.13938],[99.33097,3.13957],[99.33042,3.14018],[99.32896,3.14001],[99.32794,3.14218],[99.32337,3.14164],[99.32066,3.14249],[99.31499,3.15175],[99.3143,3.16265],[99.30751,3.16265],[99.30625,3.16188],[99.30255,3.16187],[99.3001,3.16269],[99.29472,3.16277],[99.29485,3.18018],[99.29345,3.18604],[99.29342,3.19533],[99.29488,3.20323],[99.29375,3.20738],[99.28417,3.21017],[99.27016,3.22716],[99.26897,3.22759],[99.26902,3.23576],[99.27701,3.25039],[99.27767,3.25604],[99.27723,3.25887],[99.27843,3.26862],[99.27933,3.27175],[99.28029,3.27305],[99.28154,3.27676],[99.287,3.27845],[99.28739,3.27987],[99.28859,3.28089],[99.28878,3.28533],[99.28802,3.28537],[99.28773,3.28587],[99.2889,3.28809],[99.28969,3.30692],[99.29017,3.308],[99.28973,3.3088],[99.29014,3.32118],[99.29096,3.32174],[99.29092,3.33589],[99.26907,3.33765],[99.26355,3.34196],[99.25501,3.34949],[99.25461,3.35063],[99.24709,3.35676],[99.24615,3.35873],[99.24427,3.35969],[99.24302,3.35976],[99.24147,3.36086],[99.23492,3.3668],[99.21643,3.38167],[99.21467,3.38142],[99.21294,3.38018],[99.17095,3.42496],[99.17004,3.44262],[99.16913,3.44521],[99.16848,3.44971],[99.16475,3.45359],[99.16693,3.45585],[99.1671,3.45767],[99.17062,3.46114],[99.17034,3.4624],[99.1551,3.4781],[99.15099,3.48409],[99.14993,3.48447],[99.14603,3.48777],[99.12857,3.50458],[99.10646,3.5274],[99.0965,3.522],[99.08018,3.52147],[99.0775,3.52082],[99.07557,3.52119],[99.0687,3.52048],[99.05059,3.53875],[99.04773,3.54236]]}},{"type":"Feature","properties":{"kind":"pipa","area":"ONSA","name":"Jalur Pipa ONSA #9","grup":"Pipa"},"geometry":{"type":"LineString","coordinates":[[99.4363,3.36937],[99.43565,3.36862],[99.43331,3.36863],[99.43234,3.36632]]}},{"type":"Feature","properties":{"kind":"pipa","area":"ONSA","name":"Jalur Pipa ONSA #10","grup":"Pipa"},"geometry":{"type":"LineString","coordinates":[[99.43307,3.37485],[99.43413,3.37419],[99.43011,3.36715]]}},{"type":"Feature","properties":{"kind":"pipa","area":"ONSA","name":"Jalur Pipa ONSA #11","grup":"Pipa"},"geometry":{"type":"LineString","coordinates":[[99.44577,3.35779],[99.44476,3.3568],[99.44094,3.36049],[99.44194,3.36162],[99.43808,3.36395],[99.41175,3.37379],[99.4095,3.37401],[99.40696,3.37354],[99.39401,3.36749],[99.38853,3.36407],[99.38442,3.36009],[99.38117,3.35524],[99.37391,3.34129],[99.36982,3.33543],[99.34705,3.30856],[99.33847,3.30163],[99.32959,3.30208],[99.32795,3.3041],[99.31915,3.30929],[99.31049,3.31605],[99.29,3.31684]]}},{"type":"Feature","properties":{"kind":"pipa","area":"ONSA","name":"Jalur Pipa ONSA #12","grup":"Pipa"},"geometry":{"type":"LineString","coordinates":[[99.44574,3.35784],[99.44475,3.3568],[99.4433,3.35816],[99.44093,3.3605],[99.44187,3.36147]]}},{"type":"Feature","properties":{"kind":"pipa","area":"ONSA","name":"Jalur Pipa ONSA #13","grup":"Pipa"},"geometry":{"type":"LineString","coordinates":[[97.25141,5.06703],[97.25213,5.06664],[97.25478,5.05263],[97.25661,5.04811],[97.25795,5.04116],[97.25884,5.0305],[97.26021,5.02736],[97.25578,5.01904],[97.2536,5.01244],[97.25604,5.00825],[97.25684,5.00282],[97.27031,4.9998],[97.276,4.99532],[97.2776,4.99504],[97.29073,4.9855],[97.31548,4.96875],[97.3366,4.95044],[97.34701,4.93802],[97.38711,4.93074],[97.41757,4.89349],[97.44995,4.86651],[97.46519,4.86625],[97.47244,4.8637],[97.47287,4.86386],[97.47315,4.86595],[97.47711,4.86538],[97.47998,4.86664],[97.48272,4.86606],[97.4859,4.86392],[97.48895,4.86298],[97.48962,4.86335],[97.49456,4.86326],[97.49902,4.86188],[97.50031,4.86192]]}},{"type":"Feature","properties":{"kind":"pipa","area":"ONSA","name":"Jalur Pipa ONSA #14","grup":"Pipa"},"geometry":{"type":"LineString","coordinates":[[97.07765,5.2215],[97.07721,5.21997],[97.07805,5.20456],[97.08322,5.19613],[97.08435,5.18355],[97.09085,5.17425],[97.08987,5.16847],[97.08911,5.16679],[97.087,5.14931],[97.11785,5.11976],[97.1245,5.11523],[97.12726,5.1128],[97.13742,5.09947],[97.1542,5.08602],[97.15885,5.08562],[97.16527,5.08616],[97.17938,5.0837],[97.20551,5.07211],[97.20915,5.07265],[97.22055,5.07287],[97.22387,5.07186],[97.23699,5.07005],[97.24695,5.06789],[97.24965,5.06771],[97.25141,5.06703]]}},{"type":"Feature","properties":{"kind":"pipa","area":"ONSA","name":"Jalur Pipa ONSA #15","grup":"Pipa"},"geometry":{"type":"LineString","coordinates":[[98.13142,4.03564],[98.13485,4.03519],[98.13725,4.03582],[98.13877,4.03502],[98.16148,4.01449],[98.16332,4.01439],[98.16634,4.01203],[98.16875,4.01092],[98.17095,4.01127],[98.17137,4.01023],[98.17248,4.01058],[98.17426,4.01261],[98.1793,4.01367],[98.18208,4.01541],[98.23443,4.05099],[98.24063,4.05268],[98.24277,4.05128],[98.25793,4.01809],[98.27405,4.02183],[98.27457,4.01686],[98.27582,4.01685]]}},{"type":"Feature","properties":{"kind":"pipa","area":"ONSA","name":"Jalur Pipa ONSA #16","grup":"Pipa"},"geometry":{"type":"LineString","coordinates":[[99.04773,3.54236],[99.04732,3.54281],[99.02832,3.54285],[99.00105,3.54602],[98.99607,3.54491],[98.96193,3.54556],[98.95761,3.54336],[98.93258,3.54338],[98.92331,3.54475],[98.88679,3.53084],[98.88623,3.53245],[98.88513,3.53271],[98.88109,3.5318],[98.87874,3.53236],[98.875,3.53216],[98.86922,3.53621],[98.86495,3.54044],[98.84128,3.54054],[98.83912,3.54001],[98.83815,3.53815],[98.83447,3.53418],[98.82807,3.52334],[98.82798,3.51933],[98.82298,3.51227],[98.82279,3.50977],[98.79797,3.50993],[98.79672,3.5094],[98.79097,3.51537],[98.7912,3.51593],[98.78945,3.51829],[98.78305,3.52276],[98.78033,3.52301],[98.77996,3.52352],[98.78036,3.52627],[98.76794,3.5316],[98.74947,3.53398],[98.74488,3.53507],[98.73058,3.54012],[98.72845,3.54133],[98.72668,3.54321],[98.72677,3.54514],[98.72543,3.54682],[98.72518,3.54826],[98.72607,3.56823],[98.72488,3.57889],[98.72498,3.58162],[98.72437,3.58461],[98.72411,3.60002],[98.71893,3.62797],[98.71724,3.63116],[98.71419,3.63356],[98.68916,3.645],[98.68533,3.64775],[98.68375,3.65042],[98.68463,3.651],[98.68456,3.65155],[98.68303,3.65341],[98.6824,3.66372],[98.68081,3.67281]]}},{"type":"Feature","properties":{"kind":"pipa","area":"ONSA","name":"Jalur Pipa ONSA #17","grup":"Pipa"},"geometry":{"type":"LineString","coordinates":[[97.0319,5.23528],[97.03038,5.23588],[97.02938,5.23984],[97.02683,5.24328],[97.0241,5.24422]]}},{"type":"Feature","properties":{"kind":"pipa","area":"ONSA","name":"Jalur Pipa ONSA #18","grup":"Pipa"},"geometry":{"type":"LineString","coordinates":[[97.03191,5.23524],[97.03043,5.23576]]}},{"type":"Feature","properties":{"kind":"pipa","area":"ONSA","name":"Jalur Pipa ONSA #19","grup":"Pipa"},"geometry":{"type":"LineString","coordinates":[[98.32817,3.88713],[98.32382,3.89033],[98.32071,3.89675],[98.31764,3.89968],[98.30884,3.90756],[98.29264,3.92004],[98.28689,3.93175],[98.28299,3.93622],[98.28033,3.94041],[98.27837,3.96589],[98.27883,3.97312],[98.28169,3.97942],[98.28207,3.99974],[98.27407,4.01051],[98.27525,4.01262],[98.27505,4.01671],[98.27587,4.0167]]}},{"type":"Feature","properties":{"kind":"pipa","area":"ONSA","name":"Jalur Pipa ONSA #20","grup":"Pipa"},"geometry":{"type":"LineString","coordinates":[[98.38532,3.82715],[98.35769,3.86229],[98.34606,3.87426],[98.32817,3.88713]]}},{"type":"Feature","properties":{"kind":"pipa","area":"ONSA","name":"Jalur Pipa ONSA #21","grup":"Pipa"},"geometry":{"type":"LineString","coordinates":[[98.42621,3.74615],[98.42465,3.7478],[98.42285,3.75372],[98.42345,3.76658],[98.41858,3.77272],[98.39959,3.80877],[98.38532,3.82715]]}},{"type":"Feature","properties":{"kind":"pipa","area":"ONSA","name":"Jalur Pipa ONSA #22","grup":"Pipa"},"geometry":{"type":"LineString","coordinates":[[98.55763,3.75104],[98.54155,3.74376],[98.50419,3.74361],[98.49717,3.74402],[98.49592,3.7428],[98.49351,3.73883],[98.4934,3.7358],[98.46489,3.70908],[98.46382,3.70706],[98.44476,3.72735],[98.42621,3.74615]]}},{"type":"Feature","properties":{"kind":"pipa","area":"ONSA","name":"Jalur Pipa ONSA #23","grup":"Pipa"},"geometry":{"type":"LineString","coordinates":[[98.62051,3.75164],[98.60443,3.75609],[98.58606,3.75631],[98.56407,3.7534],[98.55763,3.75104]]}},{"type":"Feature","properties":{"kind":"pipa","area":"ONSA","name":"Jalur Pipa ONSA #24","grup":"Pipa"},"geometry":{"type":"LineString","coordinates":[[98.64371,3.74864],[98.62888,3.74939],[98.62051,3.75164]]}},{"type":"Feature","properties":{"kind":"pipa","area":"ONSA","name":"Jalur Pipa ONSA #25","grup":"Pipa"},"geometry":{"type":"LineString","coordinates":[[98.67141,3.77211],[98.67127,3.76924],[98.66828,3.76931],[98.66172,3.76583],[98.66638,3.75699],[98.66163,3.75252],[98.65787,3.7501],[98.65396,3.74873],[98.65021,3.74835],[98.64371,3.74864]]}},{"type":"Feature","properties":{"kind":"pipa","area":"ONSA","name":"Jalur Pipa ONSA #26","grup":"Pipa"},"geometry":{"type":"LineString","coordinates":[[97.03067,5.23528],[97.03038,5.23588]]}},{"type":"Feature","properties":{"kind":"pipa","area":"ONSA","name":"Jalur Pipa ONSA #27","grup":"Pipa"},"geometry":{"type":"LineString","coordinates":[[97.03273,5.23121],[97.0327,5.23217],[97.03067,5.23528]]}},{"type":"Feature","properties":{"kind":"pipa","area":"ONSA","name":"Jalur Pipa ONSA #28","grup":"Pipa"},"geometry":{"type":"LineString","coordinates":[[97.03469,5.22854],[97.03281,5.22915],[97.03273,5.23121]]}},{"type":"Feature","properties":{"kind":"pipa","area":"ONSA","name":"Jalur Pipa ONSA #29","grup":"Pipa"},"geometry":{"type":"LineString","coordinates":[[97.04859,5.22706],[97.03981,5.22894],[97.03896,5.22819],[97.03469,5.22854]]}},{"type":"Feature","properties":{"kind":"pipa","area":"ONSA","name":"Jalur Pipa ONSA #30","grup":"Pipa"},"geometry":{"type":"LineString","coordinates":[[97.06964,5.21651],[97.04859,5.22706]]}},{"type":"Feature","properties":{"kind":"pipa","area":"ONSA","name":"Jalur Pipa ONSA #31","grup":"Pipa"},"geometry":{"type":"LineString","coordinates":[[97.07556,5.21794],[97.07458,5.21597],[97.07317,5.2152],[97.06964,5.21651]]}},{"type":"Feature","properties":{"kind":"pipa","area":"ONSA","name":"Jalur Pipa ONSA #32","grup":"Pipa"},"geometry":{"type":"LineString","coordinates":[[97.07746,5.22196],[97.07556,5.21794]]}},{"type":"Feature","properties":{"kind":"pipa","area":"ONSA","name":"Jalur Pipa ONSA #33","grup":"Pipa"},"geometry":{"type":"LineString","coordinates":[[97.79535,4.76307],[97.79539,4.76331]]}},{"type":"Feature","properties":{"kind":"pipa","area":"ONSA","name":"Jalur Pipa ONSA #34","grup":"Pipa"},"geometry":{"type":"LineString","coordinates":[[97.79638,4.76245],[97.79535,4.76307]]}},{"type":"Feature","properties":{"kind":"pipa","area":"ONSA","name":"Jalur Pipa ONSA #35","grup":"Pipa"},"geometry":{"type":"LineString","coordinates":[[97.79879,4.76086],[97.79638,4.76245]]}},{"type":"Feature","properties":{"kind":"pipa","area":"ONSA","name":"Jalur Pipa ONSA #36","grup":"Pipa"},"geometry":{"type":"LineString","coordinates":[[97.79965,4.75954],[97.79879,4.76086]]}},{"type":"Feature","properties":{"kind":"pipa","area":"ONSA","name":"Jalur Pipa ONSA #37","grup":"Pipa"},"geometry":{"type":"LineString","coordinates":[[97.79998,4.75809],[97.79965,4.75954]]}},{"type":"Feature","properties":{"kind":"pipa","area":"ONSA","name":"Jalur Pipa ONSA #38","grup":"Pipa"},"geometry":{"type":"LineString","coordinates":[[97.80039,4.75706],[97.79998,4.75809]]}},{"type":"Feature","properties":{"kind":"pipa","area":"ONSA","name":"Jalur Pipa ONSA #39","grup":"Pipa"},"geometry":{"type":"LineString","coordinates":[[97.80101,4.7553],[97.80039,4.75706]]}},{"type":"Feature","properties":{"kind":"pipa","area":"ONSA","name":"Jalur Pipa ONSA #40","grup":"Pipa"},"geometry":{"type":"LineString","coordinates":[[97.80304,4.75471],[97.80101,4.7553]]}},{"type":"Feature","properties":{"kind":"pipa","area":"ONSA","name":"Jalur Pipa ONSA #41","grup":"Pipa"},"geometry":{"type":"LineString","coordinates":[[97.81266,4.74132],[97.80304,4.75471]]}},{"type":"Feature","properties":{"kind":"pipa","area":"ONSA","name":"Jalur Pipa ONSA #42","grup":"Pipa"},"geometry":{"type":"LineString","coordinates":[[97.81974,4.73185],[97.81882,4.73206],[97.8184,4.73355],[97.81266,4.74132]]}},{"type":"Feature","properties":{"kind":"pipa","area":"ONSA","name":"Jalur Pipa ONSA #43","grup":"Pipa"},"geometry":{"type":"LineString","coordinates":[[97.83175,4.71921],[97.82013,4.73147]]}},{"type":"Feature","properties":{"kind":"pipa","area":"ONSA","name":"Jalur Pipa ONSA #44","grup":"Pipa"},"geometry":{"type":"LineString","coordinates":[[97.83571,4.70443],[97.83599,4.70589],[97.83703,4.70665],[97.83771,4.70812],[97.83872,4.70917],[97.84051,4.70995],[97.83862,4.71261],[97.83731,4.71307],[97.83175,4.71921]]}},{"type":"Feature","properties":{"kind":"pipa","area":"ONSA","name":"Jalur Pipa ONSA #45","grup":"Pipa"},"geometry":{"type":"LineString","coordinates":[[97.83648,4.68723],[97.8351,4.68872],[97.83571,4.69051],[97.8348,4.69429],[97.83617,4.6958],[97.83571,4.70443]]}},{"type":"Feature","properties":{"kind":"pipa","area":"ONSA","name":"Jalur Pipa ONSA #46","grup":"Pipa"},"geometry":{"type":"LineString","coordinates":[[97.83693,4.66996],[97.83697,4.67079],[97.84094,4.6759],[97.84169,4.68002],[97.84259,4.68117],[97.84073,4.68303],[97.83777,4.68419],[97.83833,4.68455],[97.83829,4.68517],[97.83699,4.68611],[97.83648,4.68723]]}},{"type":"Feature","properties":{"kind":"pipa","area":"ONSA","name":"Jalur Pipa ONSA #47","grup":"Pipa"},"geometry":{"type":"LineString","coordinates":[[97.83781,4.65152],[97.83774,4.65358],[97.83851,4.65614],[97.83836,4.6583],[97.83703,4.65917],[97.83653,4.66049],[97.83706,4.66359],[97.83693,4.66996]]}},{"type":"Feature","properties":{"kind":"pipa","area":"ONSA","name":"Jalur Pipa ONSA #48","grup":"Pipa"},"geometry":{"type":"LineString","coordinates":[[97.84352,4.63487],[97.84307,4.63796],[97.84194,4.63904],[97.84039,4.64396],[97.8381,4.64833],[97.83848,4.65034],[97.83781,4.65152]]}},{"type":"Feature","properties":{"kind":"pipa","area":"ONSA","name":"Jalur Pipa ONSA #49","grup":"Pipa"},"geometry":{"type":"LineString","coordinates":[[97.8796,4.60257],[97.87764,4.60492],[97.87492,4.60578],[97.87289,4.60535],[97.87124,4.60572],[97.8687,4.60757],[97.86712,4.6097],[97.86449,4.61546],[97.85977,4.6192],[97.85548,4.62145],[97.85535,4.62325],[97.85358,4.62496],[97.85305,4.62664],[97.8518,4.62732],[97.8506,4.62735],[97.84942,4.62661],[97.84727,4.62662],[97.84584,4.62596],[97.84574,4.62864],[97.8443,4.6306],[97.84352,4.63487]]}},{"type":"Feature","properties":{"kind":"pipa","area":"ONSA","name":"Jalur Pipa ONSA #50","grup":"Pipa"},"geometry":{"type":"LineString","coordinates":[[97.8907,4.57406],[97.88897,4.57763],[97.88777,4.58373],[97.88665,4.5872],[97.88591,4.58788],[97.88573,4.58975],[97.88361,4.59418],[97.88203,4.59626],[97.8823,4.59712],[97.8796,4.60257]]}},{"type":"Feature","properties":{"kind":"pipa","area":"ONSA","name":"Jalur Pipa ONSA #51","grup":"Pipa"},"geometry":{"type":"LineString","coordinates":[[97.89848,4.55217],[97.8993,4.55266],[97.89955,4.55389],[97.89784,4.55756],[97.89787,4.55863],[97.8907,4.57406]]}},{"type":"Feature","properties":{"kind":"pipa","area":"ONSA","name":"Jalur Pipa ONSA #52","grup":"Pipa"},"geometry":{"type":"LineString","coordinates":[[97.91608,4.50876],[97.91331,4.50962],[97.91356,4.51279],[97.91114,4.51571],[97.91091,4.51713],[97.90803,4.51879],[97.90607,4.52101],[97.90495,4.52341],[97.9034,4.52408],[97.90204,4.52633],[97.90135,4.52662],[97.89644,4.52587],[97.89479,4.52942],[97.89256,4.53131],[97.89112,4.53164],[97.88954,4.5329],[97.88916,4.53448],[97.89009,4.53552],[97.89034,4.53716],[97.89134,4.53776],[97.89177,4.53892],[97.89152,4.54207],[97.89235,4.54449],[97.89848,4.55217]]}},{"type":"Feature","properties":{"kind":"pipa","area":"ONSA","name":"Jalur Pipa ONSA #53","grup":"Pipa"},"geometry":{"type":"LineString","coordinates":[[97.9251,4.50738],[97.9207,4.50861],[97.91862,4.50821],[97.91608,4.50876]]}},{"type":"Feature","properties":{"kind":"pipa","area":"ONSA","name":"Jalur Pipa ONSA #54","grup":"Pipa"},"geometry":{"type":"LineString","coordinates":[[97.92519,4.49641],[97.92484,4.49775],[97.92626,4.49842],[97.92653,4.49983],[97.92625,4.50373],[97.92689,4.50658],[97.9251,4.50738]]}},{"type":"Feature","properties":{"kind":"pipa","area":"ONSA","name":"Jalur Pipa ONSA #55","grup":"Pipa"},"geometry":{"type":"LineString","coordinates":[[97.92558,4.4719],[97.92519,4.49641]]}},{"type":"Feature","properties":{"kind":"pipa","area":"ONSA","name":"Jalur Pipa ONSA #56","grup":"Pipa"},"geometry":{"type":"LineString","coordinates":[[97.94926,4.42021],[97.95342,4.42948],[97.95318,4.43132],[97.94556,4.44729],[97.9304,4.45196],[97.92785,4.45413],[97.92588,4.45822],[97.92558,4.4719]]}},{"type":"Feature","properties":{"kind":"pipa","area":"ONSA","name":"Jalur Pipa ONSA #57","grup":"Pipa"},"geometry":{"type":"LineString","coordinates":[[97.98425,4.39039],[97.97577,4.39327],[97.97301,4.39371],[97.97045,4.39611],[97.96719,4.39756],[97.96283,4.39832],[97.96015,4.39781],[97.95642,4.39635],[97.95285,4.39902],[97.94991,4.40229],[97.94991,4.40409],[97.94817,4.40539],[97.94857,4.4085],[97.94681,4.41448],[97.94926,4.42021]]}},{"type":"Feature","properties":{"kind":"pipa","area":"ONSA","name":"Jalur Pipa ONSA #58","grup":"Pipa"},"geometry":{"type":"LineString","coordinates":[[98.03101,4.37717],[98.02874,4.37703],[98.02195,4.37904],[98.01567,4.37827],[98.00829,4.38156],[98.00483,4.38228],[97.99739,4.38881],[97.98967,4.38898],[97.98833,4.38965],[97.98425,4.39039]]}},{"type":"Feature","properties":{"kind":"pipa","area":"ONSA","name":"Jalur Pipa ONSA #59","grup":"Pipa"},"geometry":{"type":"LineString","coordinates":[[98.07897,4.36181],[98.07827,4.36312],[98.07829,4.36527],[98.07768,4.36609],[98.06807,4.3694],[98.06267,4.37335],[98.05991,4.37727],[98.05349,4.37673],[98.04861,4.3714],[98.04788,4.37127],[98.04597,4.37345],[98.04306,4.37157],[98.04091,4.37163],[98.03889,4.3723],[98.03399,4.37692],[98.03101,4.37717]]}},{"type":"Feature","properties":{"kind":"pipa","area":"ONSA","name":"Jalur Pipa ONSA #60","grup":"Pipa"},"geometry":{"type":"LineString","coordinates":[[98.08411,4.33807],[98.08317,4.34224],[98.08375,4.34433],[98.08194,4.34748],[98.08292,4.3484],[98.08218,4.35015],[98.08101,4.34982],[98.07957,4.35169],[98.08094,4.35785],[98.07897,4.36181]]}},{"type":"Feature","properties":{"kind":"pipa","area":"ONSA","name":"Jalur Pipa ONSA #61","grup":"Pipa"},"geometry":{"type":"LineString","coordinates":[[98.09246,4.31668],[98.09405,4.31733],[98.09446,4.31853],[98.09677,4.32104],[98.09619,4.32491],[98.09486,4.32732],[98.09495,4.33057],[98.09263,4.33291],[98.08711,4.33249],[98.08372,4.33373],[98.08427,4.33496],[98.08411,4.33807]]}},{"type":"Feature","properties":{"kind":"pipa","area":"ONSA","name":"Jalur Pipa ONSA #62","grup":"Pipa"},"geometry":{"type":"LineString","coordinates":[[98.08829,4.31083],[98.09246,4.31668]]}},{"type":"Feature","properties":{"kind":"pipa","area":"ONSA","name":"Jalur Pipa ONSA #63","grup":"Pipa"},"geometry":{"type":"LineString","coordinates":[[98.08106,4.29039],[98.08209,4.29225],[98.08358,4.29359],[98.08482,4.29854],[98.08512,4.30134],[98.08472,4.30254],[98.08574,4.30635],[98.08633,4.30809],[98.08829,4.31083]]}},{"type":"Feature","properties":{"kind":"pipa","area":"ONSA","name":"Jalur Pipa ONSA #64","grup":"Pipa"},"geometry":{"type":"LineString","coordinates":[[98.06941,4.28037],[98.07151,4.28196],[98.07478,4.28549],[98.07895,4.28758],[98.08106,4.29039]]}},{"type":"Feature","properties":{"kind":"pipa","area":"ONSA","name":"Jalur Pipa ONSA #65","grup":"Pipa"},"geometry":{"type":"LineString","coordinates":[[98.06185,4.26237],[98.0602,4.26826],[98.05918,4.27015],[98.05955,4.27259],[98.06118,4.27506],[98.06308,4.27659],[98.06492,4.27907],[98.06941,4.28037]]}},{"type":"Feature","properties":{"kind":"pipa","area":"ONSA","name":"Jalur Pipa ONSA #66","grup":"Pipa"},"geometry":{"type":"LineString","coordinates":[[98.06705,4.24324],[98.06681,4.25005],[98.06185,4.26237]]}},{"type":"Feature","properties":{"kind":"pipa","area":"ONSA","name":"Jalur Pipa ONSA #67","grup":"Pipa"},"geometry":{"type":"LineString","coordinates":[[98.05391,4.22459],[98.05925,4.22765],[98.06184,4.23326],[98.06557,4.23742],[98.06704,4.24106],[98.06705,4.24324]]}},{"type":"Feature","properties":{"kind":"pipa","area":"ONSA","name":"Jalur Pipa ONSA #68","grup":"Pipa"},"geometry":{"type":"LineString","coordinates":[[98.03975,4.20961],[98.03987,4.21267],[98.0427,4.21648],[98.05391,4.22459]]}},{"type":"Feature","properties":{"kind":"pipa","area":"ONSA","name":"Jalur Pipa ONSA #69","grup":"Pipa"},"geometry":{"type":"LineString","coordinates":[[98.04174,4.19464],[98.03984,4.19932],[98.04012,4.20386],[98.03975,4.20961]]}},{"type":"Feature","properties":{"kind":"pipa","area":"ONSA","name":"Jalur Pipa ONSA #70","grup":"Pipa"},"geometry":{"type":"LineString","coordinates":[[98.04406,4.17864],[98.04279,4.18373],[98.04377,4.1854],[98.04295,4.1897],[98.04317,4.19097],[98.04174,4.19464]]}},{"type":"Feature","properties":{"kind":"pipa","area":"ONSA","name":"Jalur Pipa ONSA #71","grup":"Pipa"},"geometry":{"type":"LineString","coordinates":[[98.05695,4.15787],[98.05499,4.16114],[98.05202,4.16315],[98.05072,4.16459],[98.05029,4.16606],[98.04887,4.16774],[98.04846,4.17068],[98.04508,4.17433],[98.04406,4.17864]]}},{"type":"Feature","properties":{"kind":"pipa","area":"ONSA","name":"Jalur Pipa ONSA #72","grup":"Pipa"},"geometry":{"type":"LineString","coordinates":[[98.07265,4.13648],[98.07234,4.13829],[98.07068,4.14075],[98.07058,4.14183],[98.06931,4.14422],[98.06723,4.14486],[98.06377,4.14752],[98.06223,4.14887],[98.06075,4.15124],[98.05711,4.15295],[98.05687,4.15342],[98.05757,4.15546],[98.05695,4.15787]]}},{"type":"Feature","properties":{"kind":"pipa","area":"ONSA","name":"Jalur Pipa ONSA #73","grup":"Pipa"},"geometry":{"type":"LineString","coordinates":[[98.08561,4.12253],[98.08305,4.12739],[98.08101,4.12889],[98.07884,4.12911],[98.07813,4.13117],[98.07487,4.1329],[98.07455,4.13497],[98.07323,4.13535],[98.07265,4.13648]]}},{"type":"Feature","properties":{"kind":"pipa","area":"ONSA","name":"Jalur Pipa ONSA #74","grup":"Pipa"},"geometry":{"type":"LineString","coordinates":[[98.09348,4.10583],[98.0908,4.11041],[98.08561,4.12253]]}},{"type":"Feature","properties":{"kind":"pipa","area":"ONSA","name":"Jalur Pipa ONSA #75","grup":"Pipa"},"geometry":{"type":"LineString","coordinates":[[98.12232,4.04046],[98.12092,4.04129],[98.1202,4.04299],[98.11612,4.04799],[98.11499,4.04878],[98.11446,4.0515],[98.11245,4.05566],[98.11325,4.05906],[98.11165,4.06389],[98.11007,4.066],[98.11019,4.06711],[98.1071,4.07501],[98.10267,4.08054],[98.10218,4.08257],[98.10116,4.08359],[98.10145,4.08549],[98.10043,4.08826],[98.10095,4.08919],[98.09955,4.0917],[98.09858,4.09237],[98.09867,4.0945],[98.09805,4.09733],[98.09348,4.10583]]}},{"type":"Feature","properties":{"kind":"pipa","area":"ONSA","name":"Jalur Pipa ONSA #76","grup":"Pipa"},"geometry":{"type":"LineString","coordinates":[[98.13142,4.03564],[98.12232,4.04046]]}},{"type":"Feature","properties":{"kind":"pipa","area":"ONSA","name":"Jalur Pipa ONSA #77","grup":"Pipa"},"geometry":{"type":"LineString","coordinates":[[96.96633,5.19422],[96.96428,5.19345],[96.96153,5.19342],[96.9577,5.19172],[96.9509,5.18976],[96.94986,5.18885],[96.94422,5.18879]]}},{"type":"Feature","properties":{"kind":"pipa","area":"ONSA","name":"Jalur Pipa ONSA #78","grup":"Pipa"},"geometry":{"type":"LineString","coordinates":[[96.96783,5.1951],[96.96633,5.19422]]}},{"type":"Feature","properties":{"kind":"pipa","area":"ONSA","name":"Jalur Pipa ONSA #79","grup":"Pipa"},"geometry":{"type":"LineString","coordinates":[[96.99138,5.22421],[96.98979,5.22308],[96.98565,5.2216],[96.98532,5.22097],[96.98559,5.2195],[96.98436,5.21776],[96.98203,5.21685],[96.9807,5.21558],[96.97876,5.20748],[96.97648,5.20439],[96.97557,5.20378],[96.97161,5.20394],[96.97075,5.20359],[96.96899,5.19674],[96.96783,5.1951]]}},{"type":"Feature","properties":{"kind":"pipa","area":"ONSA","name":"Jalur Pipa ONSA #80","grup":"Pipa"},"geometry":{"type":"LineString","coordinates":[[96.99285,5.22558],[96.99161,5.2244]]}},{"type":"Feature","properties":{"kind":"pipa","area":"ONSA","name":"Jalur Pipa ONSA #81","grup":"Pipa"},"geometry":{"type":"LineString","coordinates":[[97.00169,5.2285],[96.99784,5.22723],[96.99587,5.22829],[96.99485,5.22824],[96.99285,5.22559]]}},{"type":"Feature","properties":{"kind":"pipa","area":"ONSA","name":"Jalur Pipa ONSA #82","grup":"Pipa"},"geometry":{"type":"LineString","coordinates":[[97.0062,5.23765],[97.00412,5.23212],[97.00251,5.22902],[97.00169,5.2285]]}},{"type":"Feature","properties":{"kind":"pipa","area":"ONSA","name":"Jalur Pipa ONSA #83","grup":"Pipa"},"geometry":{"type":"LineString","coordinates":[[97.01911,5.24443],[97.01861,5.24418],[97.01632,5.23772],[97.01307,5.23766],[97.00723,5.23857],[97.0062,5.23765]]}},{"type":"Feature","properties":{"kind":"pipa","area":"ONSA","name":"Jalur Pipa ONSA #84","grup":"Pipa"},"geometry":{"type":"LineString","coordinates":[[97.01994,5.24427],[97.01915,5.24442]]}},{"type":"Feature","properties":{"kind":"pipa","area":"ONSA","name":"Jalur Pipa ONSA #85","grup":"Pipa"},"geometry":{"type":"LineString","coordinates":[[97.02443,5.24512],[97.02393,5.24356],[97.01994,5.24427]]}},{"type":"Feature","properties":{"kind":"fasilitas","area":"ONSA","name":"SM Arun","grup":"Arbel"},"geometry":{"type":"Point","coordinates":[97.07758,5.22163]}},{"type":"Feature","properties":{"kind":"fasilitas","area":"ONSA","name":"Tie In Medco Jambo Balee - KP078","grup":"Arbel"},"geometry":{"type":"Point","coordinates":[97.55603,4.9005]}},{"type":"Feature","properties":{"kind":"fasilitas","area":"ONSA","name":"SKG Rantau Panjang - KP128","grup":"Arbel"},"geometry":{"type":"Point","coordinates":[97.79564,4.76397]}},{"type":"Feature","properties":{"kind":"fasilitas","area":"ONSA","name":"SKG Pangkalan Brandan","grup":"Arbel"},"geometry":{"type":"Point","coordinates":[98.27618,4.01729]}},{"type":"Feature","properties":{"kind":"fasilitas","area":"ONSA","name":"Manifold Belawan Indah","grup":"Arbel"},"geometry":{"type":"Point","coordinates":[98.66566,3.75852]}},{"type":"Feature","properties":{"kind":"fasilitas","area":"ONSA","name":"SM BELAWAN","grup":"Arbel"},"geometry":{"type":"Point","coordinates":[98.67121,3.7734]}},{"type":"Feature","properties":{"kind":"fasilitas","area":"ONSA","name":"SM Sicanang","grup":"Arbel"},"geometry":{"type":"Point","coordinates":[98.67144,3.77244]}},{"type":"Feature","properties":{"kind":"fasilitas","area":"ONSA","name":"SM OFFTAKE TK","grup":"BEL-KIM-KEK-KT"},"geometry":{"type":"Point","coordinates":[99.28982,3.31684]}},{"type":"Feature","properties":{"kind":"fasilitas","area":"ONSA","name":"MRS Multimas Plan","grup":"BEL-KIM-KEK-KT"},"geometry":{"type":"Point","coordinates":[99.43626,3.3693]}},{"type":"Feature","properties":{"kind":"fasilitas","area":"ONSA","name":"MRS Aice","grup":"BEL-KIM-KEK-KT"},"geometry":{"type":"Point","coordinates":[99.34937,3.14554]}},{"type":"Feature","properties":{"kind":"fasilitas","area":"ONSA","name":"PRS Aice","grup":"BEL-KIM-KEK-KT"},"geometry":{"type":"Point","coordinates":[99.35044,3.13738]}},{"type":"Feature","properties":{"kind":"fasilitas","area":"ONSA","name":"SM KEK","grup":"BEL-KIM-KEK-KT"},"geometry":{"type":"Point","coordinates":[99.33832,3.13915]}},{"type":"Feature","properties":{"kind":"fasilitas","area":"ONSA","name":"Manifold BI","grup":"BEL-KIM-KEK-KT"},"geometry":{"type":"Point","coordinates":[98.66571,3.75856]}},{"type":"Feature","properties":{"kind":"fasilitas","area":"ONSA","name":"MRS PT Inalum","grup":"BEL-KIM-KEK-KT"},"geometry":{"type":"Point","coordinates":[99.4456,3.35752]}},{"type":"Feature","properties":{"kind":"fasilitas","area":"ONSA","name":"MRS PT DAP","grup":"BEL-KIM-KEK-KT"},"geometry":{"type":"Point","coordinates":[99.43309,3.37373]}},{"type":"Feature","properties":{"kind":"fasilitas","area":"ONSA","name":"MRS UOI","grup":"BEL-KIM-KEK-KT"},"geometry":{"type":"Point","coordinates":[99.34696,3.13732]}},{"type":"Feature","properties":{"kind":"fasilitas","area":"ONSA","name":"MRS INL","grup":"BEL-KIM-KEK-KT"},"geometry":{"type":"Point","coordinates":[99.34425,3.13198]}},{"type":"Feature","properties":{"kind":"fasilitas","area":"ONSA","name":"RECEIVER TK-KT","grup":"BEL-KIM-KEK-KT"},"geometry":{"type":"Point","coordinates":[99.42617,3.36862]}},{"type":"Feature","properties":{"kind":"fasilitas","area":"ONSA","name":"SM KIM","grup":"BEL-KIM-KEK-KT"},"geometry":{"type":"Point","coordinates":[98.68081,3.6728]}},{"type":"Feature","properties":{"kind":"fasilitas","area":"ONSA","name":"SMG P.Batu","grup":"Sumut"},"geometry":{"type":"Point","coordinates":[98.24246,4.05203]}},{"type":"Feature","properties":{"kind":"fasilitas","area":"ONSA","name":"St. Booster PBR","grup":"Sumut"},"geometry":{"type":"Point","coordinates":[98.27527,4.0188]}},{"type":"Feature","properties":{"kind":"fasilitas","area":"ONSA","name":"SMG Wampu","grup":"Sumut"},"geometry":{"type":"Point","coordinates":[98.50703,3.6635]}},{"type":"Feature","properties":{"kind":"fasilitas","area":"ONSA","name":"SM KKA","grup":"Aceh"},"geometry":{"type":"Point","coordinates":[96.94434,5.18877]}},{"type":"Feature","properties":{"kind":"fasilitas","area":"ONSA","name":"SM PIM","grup":"Aceh"},"geometry":{"type":"Point","coordinates":[97.03181,5.23528]}},{"type":"Feature","properties":{"kind":"fasilitas","area":"ONSA","name":"SM AAF","grup":"Aceh"},"geometry":{"type":"Point","coordinates":[97.02443,5.24522]}},{"type":"Feature","properties":{"kind":"fasilitas","area":"ONSA","name":"MLBV 18\" Payamala","grup":"MLBV"},"geometry":{"type":"Point","coordinates":[98.27876,3.97367]}},{"type":"Feature","properties":{"kind":"fasilitas","area":"ONSA","name":"MLBV 12\" Payamala","grup":"MLBV"},"geometry":{"type":"Point","coordinates":[98.27869,3.97115]}},{"type":"Feature","properties":{"kind":"fasilitas","area":"ONSA","name":"MLBV Tanjung Beringin","grup":"MLBV"},"geometry":{"type":"Point","coordinates":[98.39162,3.81873]}},{"type":"Feature","properties":{"kind":"fasilitas","area":"ONSA","name":"MLBV Stabat Lama","grup":"MLBV"},"geometry":{"type":"Point","coordinates":[98.42326,3.7643]}},{"type":"Feature","properties":{"kind":"fasilitas","area":"ONSA","name":"Jumperline Entry Gohor 12-18","grup":"Box Valve"},"geometry":{"type":"Point","coordinates":[98.42328,3.76451]}},{"type":"Feature","properties":{"kind":"fasilitas","area":"ONSA","name":"Jumperline Exit Gemi 12-18","grup":"Box Valve"},"geometry":{"type":"Point","coordinates":[98.423,3.76124]}},{"type":"Feature","properties":{"kind":"fasilitas","area":"ONSA","name":"Box Valve Belawan","grup":"Box Valve"},"geometry":{"type":"Point","coordinates":[98.68359,3.7644]}},{"type":"Feature","properties":{"kind":"fasilitas","area":"ONSA","name":"Rumah Valve P Batu","grup":"Box Valve"},"geometry":{"type":"Point","coordinates":[98.24958,4.0369]}},{"type":"Feature","properties":{"kind":"fasilitas","area":"ONSA","name":"Rumah Valve Swing Babalan","grup":"Box Valve"},"geometry":{"type":"Point","coordinates":[98.2722,4.02121]}},{"type":"Feature","properties":{"kind":"pipa","area":"OCSA","name":"Segment 1 KP 262-240","grup":"Seg1_262_240"},"geometry":{"type":"LineString","coordinates":[[103.51436,-1.79459],[103.51441,-1.79246],[103.51489,-1.79197],[103.51748,-1.79186],[103.51931,-1.79054],[103.52178,-1.79027],[103.52284,-1.79161],[103.52523,-1.79189],[103.52596,-1.79358],[103.5315,-1.79979],[103.53483,-1.80144],[103.53675,-1.80489],[103.53643,-1.80598],[103.53473,-1.80762],[103.53531,-1.81111],[103.53782,-1.8161],[103.5379,-1.81692],[103.53673,-1.81911],[103.53768,-1.82141],[103.54222,-1.82642],[103.54469,-1.83087],[103.54667,-1.83234],[103.55036,-1.8339],[103.55465,-1.83831],[103.55469,-1.83979],[103.55136,-1.84184],[103.55035,-1.84323],[103.55057,-1.84395],[103.54997,-1.84503],[103.55123,-1.84645],[103.55153,-1.84845],[103.55532,-1.85108],[103.55656,-1.85434],[103.55826,-1.85558],[103.55858,-1.85672],[103.55816,-1.85903],[103.56254,-1.86042],[103.56306,-1.86089],[103.56244,-1.86341],[103.56312,-1.86384],[103.56572,-1.86403],[103.56704,-1.86668],[103.56962,-1.86944],[103.57287,-1.87129],[103.57462,-1.87104],[103.57561,-1.86903],[103.578,-1.86673],[103.57957,-1.8668],[103.58275,-1.86889],[103.5882,-1.87404],[103.59436,-1.88282],[103.59485,-1.8844],[103.59442,-1.88875],[103.59557,-1.8911],[103.59935,-1.89196],[103.60207,-1.89464],[103.60531,-1.89642],[103.60936,-1.89678],[103.61849,-1.91004]]}},{"type":"Feature","properties":{"kind":"pipa","area":"OCSA","name":"Segment 2 KP 240-222","grup":"Seg2_240_222"},"geometry":{"type":"LineString","coordinates":[[103.61856,-1.91016],[103.62002,-1.91301],[103.62166,-1.91898],[103.62267,-1.91988],[103.62665,-1.92136],[103.62878,-1.92495],[103.63228,-1.92648],[103.63319,-1.92733],[103.63574,-1.93081],[103.63642,-1.93312],[103.63918,-1.93555],[103.64048,-1.94054],[103.64276,-1.94113],[103.65533,-1.9473],[103.65897,-1.95144],[103.66893,-1.95809],[103.67077,-1.95877],[103.67378,-1.96129],[103.67518,-1.96417],[103.67625,-1.96514],[103.67744,-1.96538],[103.68237,-1.96458],[103.68365,-1.96485],[103.68501,-1.9662],[103.68537,-1.97],[103.68592,-1.97133],[103.68998,-1.97493],[103.68972,-1.97697],[103.6872,-1.97987],[103.68692,-1.98082],[103.68906,-1.98477],[103.68967,-1.98987],[103.6895,-1.99194],[103.69424,-1.99985],[103.69324,-2.00136],[103.69305,-2.00348],[103.69362,-2.00564],[103.69511,-2.00741],[103.69494,-2.00917],[103.69645,-2.01069],[103.6982,-2.0109],[103.69986,-2.013],[103.6973,-2.03361],[103.68937,-2.04802]]}},{"type":"Feature","properties":{"kind":"pipa","area":"OCSA","name":"Segment 3 KP 222-195","grup":"Seg3_222_195"},"geometry":{"type":"LineString","coordinates":[[103.68929,-2.04816],[103.68548,-2.05439],[103.68203,-2.05604],[103.68122,-2.057],[103.67844,-2.0799],[103.67615,-2.08335],[103.67485,-2.08679],[103.67643,-2.08973],[103.67488,-2.09296],[103.67556,-2.1022],[103.67492,-2.10752],[103.67631,-2.1093],[103.67544,-2.11224],[103.6765,-2.11503],[103.67546,-2.11709],[103.6766,-2.11872],[103.67766,-2.11924],[103.67837,-2.12057],[103.67813,-2.12252],[103.67873,-2.12604],[103.6802,-2.12826],[103.68044,-2.12945],[103.67938,-2.13544],[103.67829,-2.13663],[103.67915,-2.13795],[103.68061,-2.13889],[103.6788,-2.14263],[103.67924,-2.14323],[103.68136,-2.14392],[103.68218,-2.14527],[103.68424,-2.14586],[103.68525,-2.14863],[103.68596,-2.14912],[103.69365,-2.15261],[103.69945,-2.15644],[103.70106,-2.15815],[103.70162,-2.16184],[103.70401,-2.16256],[103.70593,-2.16183],[103.70786,-2.16029],[103.71031,-2.15972],[103.71201,-2.16104],[103.71277,-2.16525],[103.71329,-2.16594],[103.71859,-2.16993],[103.72059,-2.17243],[103.72898,-2.17571],[103.73472,-2.17735],[103.73616,-2.17826],[103.73924,-2.18182],[103.74241,-2.18328],[103.7462,-2.18602],[103.75078,-2.18795],[103.75392,-2.1923],[103.75473,-2.19693],[103.75471,-2.20064],[103.7555,-2.20156],[103.75842,-2.2025],[103.75914,-2.20681],[103.76107,-2.2081],[103.76556,-2.21273],[103.76757,-2.21618],[103.77258,-2.21991],[103.7742,-2.2232],[103.77516,-2.22412]]}},{"type":"Feature","properties":{"kind":"pipa","area":"OCSA","name":"Segment 4 KP 195-174","grup":"Seg4_195_174"},"geometry":{"type":"LineString","coordinates":[[103.77527,-2.22421],[103.77646,-2.22493],[103.78286,-2.22552],[103.78414,-2.2263],[103.78503,-2.22767],[103.78529,-2.2306],[103.78759,-2.23183],[103.78916,-2.2346],[103.79254,-2.23709],[103.79485,-2.23813],[103.79667,-2.24308],[103.79767,-2.24384],[103.80055,-2.24811],[103.80622,-2.2532],[103.81258,-2.25468],[103.82142,-2.25361],[103.82279,-2.2538],[103.82836,-2.25644],[103.83237,-2.25989],[103.8334,-2.26011],[103.8347,-2.26005],[103.83751,-2.25839],[103.83977,-2.25786],[103.84179,-2.25648],[103.8445,-2.2559],[103.84606,-2.25596],[103.84754,-2.25679],[103.85122,-2.25676],[103.85229,-2.256],[103.85478,-2.25654],[103.85828,-2.25629],[103.86312,-2.25692],[103.86409,-2.25832],[103.86421,-2.26128],[103.86591,-2.26544],[103.86704,-2.26653],[103.86867,-2.26715],[103.86979,-2.26848],[103.87127,-2.26875],[103.87247,-2.26956],[103.87632,-2.27564],[103.87727,-2.2781],[103.88051,-2.27992],[103.8818,-2.28115],[103.88368,-2.28551],[103.88616,-2.28823],[103.88636,-2.28964],[103.88803,-2.29234],[103.88967,-2.29365],[103.89268,-2.29496],[103.89477,-2.29947],[103.89666,-2.30655],[103.8959,-2.31039],[103.89595,-2.31402],[103.90266,-2.31697],[103.90508,-2.31987],[103.90687,-2.32064]]}},{"type":"Feature","properties":{"kind":"pipa","area":"OCSA","name":"Segment 5 KP 174-157","grup":"Seg5_174_157"},"geometry":{"type":"LineString","coordinates":[[103.90696,-2.32067],[103.91021,-2.32213],[103.91454,-2.32668],[103.91638,-2.3297],[103.91816,-2.33043],[103.92094,-2.33273],[103.92334,-2.34129],[103.92258,-2.34663],[103.92306,-2.34921],[103.94158,-2.36811],[103.94234,-2.3694],[103.94245,-2.37135],[103.93972,-2.38246],[103.94107,-2.39513],[103.93709,-2.43191],[103.93821,-2.43974],[103.93904,-2.4417],[103.95084,-2.4502]]}},{"type":"Feature","properties":{"kind":"pipa","area":"OCSA","name":"Segment 6 KP 157-139","grup":"Seg6_157_139"},"geometry":{"type":"LineString","coordinates":[[103.95092,-2.45024],[103.98164,-2.46913],[103.99535,-2.47597],[104.0025,-2.48145],[104.01389,-2.48755],[104.01617,-2.49414],[104.02035,-2.49787],[104.02513,-2.50332],[104.03036,-2.51264],[104.05979,-2.51808],[104.06567,-2.52082],[104.08521,-2.51653],[104.08771,-2.51782]]}},{"type":"Feature","properties":{"kind":"pipa","area":"OCSA","name":"Segment 7 KP 139-129","grup":"Seg7_139_129"},"geometry":{"type":"LineString","coordinates":[[104.08778,-2.51786],[104.09304,-2.52107],[104.0997,-2.52303],[104.11201,-2.53472],[104.11323,-2.53788],[104.10775,-2.56142],[104.10617,-2.56578],[104.10849,-2.57983],[104.10863,-2.58399],[104.11082,-2.58885],[104.11331,-2.58898]]}},{"type":"Feature","properties":{"kind":"pipa","area":"OCSA","name":"Segment 8 KP 129-102","grup":"Seg8_129_102"},"geometry":{"type":"LineString","coordinates":[[104.1133,-2.58911],[104.11328,-2.58999],[104.11253,-2.59009],[104.10924,-2.60345],[104.10967,-2.60609],[104.10206,-2.63371],[104.10243,-2.63431],[104.10221,-2.63639],[104.06789,-2.66772],[104.05752,-2.69987],[104.07185,-2.75632],[104.0774,-2.76247],[104.07878,-2.769],[104.08102,-2.77377],[104.08617,-2.77756],[104.08875,-2.77816],[104.08964,-2.7791],[104.0915,-2.77836],[104.0919,-2.77761],[104.09559,-2.77535],[104.09768,-2.77533],[104.10211,-2.77967],[104.10485,-2.78369],[104.10775,-2.78449]]}},{"type":"Feature","properties":{"kind":"pipa","area":"OCSA","name":"Segment 9 KP 102-77","grup":"Seg9_102_77"},"geometry":{"type":"LineString","coordinates":[[104.10783,-2.78462],[104.10947,-2.78764],[104.11182,-2.78924],[104.11795,-2.78939],[104.12432,-2.78571],[104.12697,-2.786],[104.12875,-2.7879],[104.1308,-2.78828],[104.13728,-2.79356],[104.13865,-2.79885],[104.13874,-2.80315],[104.13934,-2.80454],[104.1415,-2.80658],[104.14283,-2.80688],[104.14522,-2.80859],[104.15521,-2.80977],[104.16407,-2.80874],[104.16755,-2.80696],[104.16988,-2.8071],[104.17145,-2.80638],[104.17394,-2.80662],[104.18209,-2.80876],[104.18681,-2.81132],[104.19267,-2.80859],[104.19883,-2.8098],[104.20154,-2.80952],[104.20228,-2.80905],[104.20447,-2.8094],[104.20672,-2.81105],[104.20777,-2.81447],[104.21067,-2.81645],[104.21232,-2.81935],[104.21574,-2.82185],[104.21822,-2.82773],[104.21987,-2.83033],[104.22216,-2.83221],[104.22379,-2.8355],[104.22327,-2.84072],[104.22355,-2.84339],[104.22453,-2.84614],[104.22621,-2.84753],[104.2292,-2.84856],[104.23123,-2.84989],[104.23225,-2.85017],[104.23655,-2.84941],[104.24,-2.85096],[104.25041,-2.84916],[104.25351,-2.85084],[104.26091,-2.85147],[104.26312,-2.85074],[104.26637,-2.85064],[104.26921,-2.84805],[104.27135,-2.84738],[104.27696,-2.84665],[104.28165,-2.84745],[104.28456,-2.8474]]}},{"type":"Feature","properties":{"kind":"pipa","area":"OCSA","name":"Segment 10 KP 77-52","grup":"Seg10_77_52"},"geometry":{"type":"LineString","coordinates":[[104.28465,-2.8474],[104.28905,-2.84749],[104.29195,-2.84693],[104.29713,-2.84799],[104.30011,-2.84677],[104.30167,-2.84664],[104.30547,-2.84905],[104.31744,-2.85485],[104.32727,-2.85829],[104.34732,-2.85453],[104.35126,-2.85568],[104.35695,-2.85841],[104.36023,-2.86057],[104.36487,-2.86225],[104.36795,-2.8642],[104.37297,-2.86636],[104.37727,-2.86907],[104.3818,-2.87055],[104.387,-2.88278],[104.40032,-2.89215],[104.40284,-2.89487],[104.40898,-2.89977],[104.41285,-2.90609],[104.41664,-2.90927],[104.42351,-2.92067],[104.42498,-2.92165],[104.42863,-2.92138],[104.43481,-2.92397],[104.44402,-2.92458],[104.45177,-2.9238],[104.458,-2.92482],[104.46146,-2.92443],[104.4698,-2.92459],[104.47335,-2.92313]]}},{"type":"Feature","properties":{"kind":"pipa","area":"OCSA","name":"Segment 11 KP 52-27","grup":"Seg11_52_27"},"geometry":{"type":"LineString","coordinates":[[104.47352,-2.92301],[104.47871,-2.92129],[104.49232,-2.9234],[104.49775,-2.92575],[104.50508,-2.92568],[104.50655,-2.92507],[104.5113,-2.92514],[104.52705,-2.92085],[104.53052,-2.92068],[104.5355,-2.92121],[104.54101,-2.9232],[104.54442,-2.9238],[104.54668,-2.92489],[104.55162,-2.92879],[104.55339,-2.92897],[104.56196,-2.92577],[104.56587,-2.92498],[104.57622,-2.92469],[104.58798,-2.92069],[104.59247,-2.92034],[104.5973,-2.9208],[104.59939,-2.92041],[104.60208,-2.91936],[104.60913,-2.91435],[104.6153,-2.91283],[104.617,-2.91278],[104.62399,-2.91537],[104.62953,-2.91558],[104.63958,-2.91515],[104.6464,-2.9133],[104.6516,-2.91346],[104.6607,-2.91262],[104.67317,-2.91339],[104.67767,-2.91229],[104.68674,-2.91188]]}},{"type":"Feature","properties":{"kind":"pipa","area":"OCSA","name":"Segment 12 KP 27-8","grup":"Seg12_27_8"},"geometry":{"type":"LineString","coordinates":[[104.68689,-2.91189],[104.69415,-2.91291],[104.69936,-2.91434],[104.70312,-2.91679],[104.7056,-2.91767],[104.70709,-2.9195],[104.71574,-2.92686],[104.71807,-2.93285],[104.7217,-2.93815],[104.72475,-2.93832],[104.72891,-2.93737],[104.73224,-2.93855],[104.73628,-2.93783],[104.74072,-2.93822],[104.74293,-2.93988],[104.7438,-2.94186],[104.7454,-2.94293],[104.75465,-2.94581],[104.76169,-2.94274],[104.76669,-2.94431],[104.77191,-2.94421],[104.77424,-2.9436],[104.77698,-2.94465],[104.78006,-2.94417],[104.78235,-2.94594],[104.83384,-2.95336],[104.83475,-2.9538],[104.83732,-2.95682]]}},{"type":"Feature","properties":{"kind":"pipa","area":"OCSA","name":"Segment 13 KP 8.3-3","grup":"Seg13_8_3"},"geometry":{"type":"LineString","coordinates":[[104.83737,-2.95684],[104.84997,-2.97108],[104.85986,-2.98483],[104.85977,-2.98535],[104.85738,-2.98657],[104.85675,-2.99519]]}},{"type":"Feature","properties":{"kind":"fasilitas","area":"OCSA","name":"SP3 Tempino","grup":"Station & Manifold"},"geometry":{"type":"Point","coordinates":[103.5143,-1.79446]}},{"type":"Feature","properties":{"kind":"fasilitas","area":"OCSA","name":"Booster Station 174","grup":"Station & Manifold"},"geometry":{"type":"Point","coordinates":[103.9071,-2.32073]}},{"type":"Feature","properties":{"kind":"fasilitas","area":"OCSA","name":"Booster Station 139","grup":"Station & Manifold"},"geometry":{"type":"Point","coordinates":[104.08795,-2.51786]}},{"type":"Feature","properties":{"kind":"fasilitas","area":"OCSA","name":"Manifold 243+000","grup":"Station & Manifold"},"geometry":{"type":"Point","coordinates":[103.6185,-1.9101]}},{"type":"Feature","properties":{"kind":"fasilitas","area":"OCSA","name":"Manifold 222+750","grup":"Station & Manifold"},"geometry":{"type":"Point","coordinates":[103.68936,-2.04809]}},{"type":"Feature","properties":{"kind":"fasilitas","area":"OCSA","name":"Manifold 195+000","grup":"Station & Manifold"},"geometry":{"type":"Point","coordinates":[103.77517,-2.22413]}},{"type":"Feature","properties":{"kind":"fasilitas","area":"OCSA","name":"Manifold 157+000","grup":"Station & Manifold"},"geometry":{"type":"Point","coordinates":[103.95093,-2.4503]}},{"type":"Feature","properties":{"kind":"fasilitas","area":"OCSA","name":"Booster Station KM 77","grup":"Station & Manifold"},"geometry":{"type":"Point","coordinates":[104.28508,-2.84742]}},{"type":"Feature","properties":{"kind":"fasilitas","area":"OCSA","name":"Booster Station KM 52","grup":"Station & Manifold"},"geometry":{"type":"Point","coordinates":[104.47358,-2.92292]}},{"type":"Feature","properties":{"kind":"fasilitas","area":"OCSA","name":"Booster Station KM 27","grup":"Station & Manifold"},"geometry":{"type":"Point","coordinates":[104.68679,-2.91192]}},{"type":"Feature","properties":{"kind":"fasilitas","area":"OCSA","name":"Metering Station KM 03","grup":"Station & Manifold"},"geometry":{"type":"Point","coordinates":[104.85686,-2.99525]}},{"type":"Feature","properties":{"kind":"fasilitas","area":"OCSA","name":"Manifold KM 8.3","grup":"Station & Manifold"},"geometry":{"type":"Point","coordinates":[104.83731,-2.95675]}},{"type":"Feature","properties":{"kind":"fasilitas","area":"OCSA","name":"Manifold KM 102","grup":"Station & Manifold"},"geometry":{"type":"Point","coordinates":[104.1078,-2.7846]}},{"type":"Feature","properties":{"kind":"fasilitas","area":"OCSA","name":"Manifold KM 129","grup":"Station & Manifold"},"geometry":{"type":"Point","coordinates":[104.11326,-2.58929]}},{"type":"Feature","properties":{"kind":"fasilitas","area":"OCSA","name":"Manifold KM 127.000","grup":"Station & Manifold"},"geometry":{"type":"Point","coordinates":[104.10971,-2.60592]}},{"type":"Feature","properties":{"kind":"fasilitas","area":"OCSA","name":"Manifold KM 123+800","grup":"Station & Manifold"},"geometry":{"type":"Point","coordinates":[104.10231,-2.63608]}},{"type":"Feature","properties":{"kind":"fasilitas","area":"OCSA","name":"2°51'22.7\"S 104°20'15.0\"E","grup":"Station & Manifold"},"geometry":{"type":"Point","coordinates":[104.3375,-2.85631]}},{"type":"Feature","properties":{"kind":"fasilitas","area":"OCSA","name":"2°50'50.7\"S 104°16'52.0\"E","grup":"Station & Manifold"},"geometry":{"type":"Point","coordinates":[104.28111,-2.84742]}},{"type":"Feature","properties":{"kind":"pipa","area":"ODA","name":"0. Jalur Pipa ODA CIPS","grup":"A. Pipeline PGDD"},"geometry":{"type":"LineString","coordinates":[[101.23378,1.2605],[101.23375,1.2609],[101.24224,1.26126],[101.24308,1.26085],[101.25109,1.2609],[101.25299,1.26267],[101.25301,1.26742],[101.25715,1.27122],[101.26661,1.26224],[101.26785,1.26221],[101.2701,1.26072],[101.27352,1.26247],[101.27556,1.26252],[101.27705,1.26174],[101.2818,1.26505],[101.28126,1.26698],[101.2832,1.27933],[101.29255,1.27951],[101.29275,1.30135],[101.30255,1.3018],[101.30227,1.33165],[101.30921,1.33187],[101.30953,1.35441],[101.31426,1.36558],[101.31282,1.36577],[101.31262,1.39262],[101.32209,1.39279],[101.32155,1.45075],[101.3459,1.46529],[101.34286,1.46878],[101.34662,1.47121],[101.34758,1.47271],[101.35003,1.49813],[101.34748,1.50772],[101.34775,1.51083],[101.35881,1.5233],[101.37655,1.53596],[101.37624,1.54006],[101.37472,1.54443],[101.37441,1.54682],[101.37579,1.54931],[101.37847,1.55215],[101.37983,1.55475],[101.38478,1.55951],[101.3841,1.57432],[101.38654,1.57864],[101.38729,1.58334],[101.38853,1.58418],[101.39368,1.58488],[101.39506,1.58556],[101.39958,1.58936],[101.40214,1.59424],[101.40769,1.59825],[101.41089,1.60164],[101.42324,1.6051],[101.43115,1.61191],[101.44272,1.62769],[101.44417,1.63255],[101.44921,1.63865],[101.45119,1.64742],[101.46042,1.65195],[101.4627,1.65232],[101.47256,1.65572],[101.47859,1.66341],[101.47937,1.66567],[101.48164,1.6691],[101.47596,1.67005],[101.47629,1.6711],[101.47507,1.67119],[101.47501,1.67208],[101.47436,1.67217],[101.47416,1.67289]]}},{"type":"Feature","properties":{"kind":"pipa","area":"ODA","name":"1. Pipeline PGDD","grup":"A. Pipeline PGDD"},"geometry":{"type":"LineString","coordinates":[[101.23417,1.26034],[101.23385,1.26087],[101.2423,1.26122],[101.24296,1.26083],[101.25111,1.26088],[101.25303,1.26266],[101.25304,1.26737],[101.25707,1.27116],[101.26673,1.26212],[101.2678,1.26221],[101.27019,1.2607],[101.27315,1.26238],[101.27515,1.26252],[101.27685,1.26187],[101.28003,1.26357],[101.28172,1.26541],[101.28118,1.2673],[101.28309,1.27933],[101.29258,1.27937],[101.29272,1.30134],[101.30257,1.30158],[101.30225,1.33167],[101.30919,1.33179],[101.30954,1.35454],[101.3143,1.36568],[101.31281,1.36565],[101.3126,1.39271],[101.32206,1.39271],[101.32149,1.45077],[101.34598,1.46531],[101.3428,1.46881],[101.34697,1.47154],[101.34757,1.47296],[101.35001,1.49739],[101.34742,1.50783],[101.34737,1.5093],[101.34806,1.51149],[101.35885,1.52332],[101.37669,1.53606],[101.37618,1.54021],[101.37437,1.54686],[101.37586,1.54939],[101.37842,1.5521],[101.37973,1.55468],[101.38473,1.55935],[101.38408,1.5744],[101.38656,1.57867],[101.3868,1.58222],[101.38733,1.58345],[101.38849,1.58419],[101.39455,1.58519],[101.39929,1.58901],[101.40221,1.59432],[101.40773,1.59827],[101.41092,1.60163],[101.42314,1.60504],[101.43125,1.612],[101.44266,1.62751],[101.44421,1.63267],[101.44941,1.63902],[101.45104,1.64734],[101.4604,1.65191],[101.47255,1.65572],[101.47852,1.66332],[101.47939,1.66569],[101.48164,1.66908],[101.47595,1.67004],[101.47631,1.67116],[101.47505,1.67118],[101.47503,1.67213],[101.47432,1.67224],[101.47415,1.67289]]}},{"type":"Feature","properties":{"kind":"pipa","area":"ODA","name":"1. Pipa Jargas TGI Section 1","grup":"B. Pipeline TGI"},"geometry":{"type":"LineString","coordinates":[[101.4497,1.6394],[101.45127,1.64795]]}},{"type":"Feature","properties":{"kind":"pipa","area":"ODA","name":"2. Pipa Jargas TGI Section 2","grup":"B. Pipeline TGI"},"geometry":{"type":"LineString","coordinates":[[101.45606,1.64953],[101.4557,1.64982],[101.4585,1.65111],[101.45952,1.65071]]}},{"type":"Feature","properties":{"kind":"pipa","area":"ODA","name":"3. Pipa Jargas TGI Section 3","grup":"B. Pipeline TGI"},"geometry":{"type":"LineString","coordinates":[[101.47878,1.66257],[101.47723,1.66416]]}},{"type":"Feature","properties":{"kind":"fasilitas","area":"ODA","name":"Metering Station Duri","grup":"Metering Station"},"geometry":{"type":"Point","coordinates":[101.23448,1.26023]}},{"type":"Feature","properties":{"kind":"fasilitas","area":"ODA","name":"Metering Station Dumai","grup":"Metering Station"},"geometry":{"type":"Point","coordinates":[101.47407,1.67288]}},{"type":"Feature","properties":{"kind":"fasilitas","area":"ODA","name":"Metering Station Koto Gasib","grup":"Metering Station"},"geometry":{"type":"Point","coordinates":[101.72639,0.64417]}},{"type":"Feature","properties":{"kind":"fasilitas","area":"ODA","name":"LBCV 1","grup":"2. Tagging"},"geometry":{"type":"Point","coordinates":[101.30243,1.32902]}},{"type":"Feature","properties":{"kind":"fasilitas","area":"ODA","name":"LBCV 2","grup":"2. Tagging"},"geometry":{"type":"Point","coordinates":[101.32169,1.44514]}},{"type":"Feature","properties":{"kind":"fasilitas","area":"ODA","name":"LBCV 3","grup":"2. Tagging"},"geometry":{"type":"Point","coordinates":[101.37575,1.54921]}},{"type":"Feature","properties":{"kind":"fasilitas","area":"ODA","name":"LBCV 4","grup":"2. Tagging"},"geometry":{"type":"Point","coordinates":[101.46256,1.65231]}},{"type":"Feature","properties":{"kind":"pipa","area":"OSSA","name":"[SBS] CAMBAI - SIMPANG Y","grup":"JALUR PIPA"},"geometry":{"type":"LineString","coordinates":[[104.28318,-3.37307],[104.30917,-3.36564],[104.31126,-3.36453],[104.33771,-3.34399],[104.33997,-3.34022],[104.34582,-3.33776],[104.35283,-3.33224],[104.39248,-3.30713],[104.3951,-3.30368],[104.4115,-3.27646],[104.43013,-3.24886],[104.4407,-3.24342],[104.48681,-3.22496],[104.51027,-3.21968],[104.52797,-3.21838],[104.54485,-3.21815],[104.54595,-3.21754],[104.5495,-3.2173],[104.58858,-3.20379],[104.58956,-3.20432],[104.60962,-3.20132],[104.63612,-3.18047],[104.68014,-3.13818],[104.69987,-3.10472],[104.70337,-3.10196]]}},{"type":"Feature","properties":{"kind":"pipa","area":"OSSA","name":"[SBS] LEMBAK - SIMPANG Y","grup":"JALUR PIPA"},"geometry":{"type":"LineString","coordinates":[[104.35558,-3.33054],[104.39344,-3.30631],[104.41159,-3.27636],[104.4299,-3.24909],[104.44045,-3.24354],[104.4869,-3.22496],[104.5103,-3.2197],[104.53004,-3.21831],[104.53661,-3.2181],[104.5388,-3.21864],[104.54482,-3.21828],[104.546,-3.21755],[104.54965,-3.21728],[104.58852,-3.20384],[104.58962,-3.20432],[104.60954,-3.20141],[104.63614,-3.1805],[104.68004,-3.13827],[104.69986,-3.10479],[104.70333,-3.10206]]}},{"type":"Feature","properties":{"kind":"pipa","area":"OSSA","name":"4\" ARWANA","grup":"JALUR PIPA"},"geometry":{"type":"LineString","coordinates":[[104.61119,-3.20006],[104.61296,-3.20009],[104.62077,-3.20541],[104.62867,-3.20725],[104.63207,-3.20735],[104.63523,-3.20837]]}},{"type":"Feature","properties":{"kind":"pipa","area":"OSSA","name":"[SBS] SIMPANGY - SRIMULYO","grup":"JALUR PIPA"},"geometry":{"type":"LineString","coordinates":[[104.7034,-3.10184],[104.68812,-3.08121],[104.68388,-3.07428],[104.68403,-3.07251],[104.68583,-3.07122],[104.7037,-3.04698],[104.71049,-3.03471],[104.71927,-3.02292],[104.72152,-3.01706],[104.72294,-3.01582],[104.72502,-3.00314],[104.72346,-2.99334],[104.7232,-2.98428],[104.72465,-2.97727],[104.72602,-2.97517],[104.73341,-2.96874],[104.7374,-2.96093],[104.74134,-2.95789],[104.74492,-2.9561],[104.75536,-2.9524],[104.76027,-2.95191],[104.77085,-2.94936],[104.78676,-2.94716],[104.79296,-2.95139],[104.79609,-2.95187],[104.79932,-2.95827],[104.80033,-2.9655],[104.79873,-2.96996],[104.79847,-2.97273],[104.79888,-2.97531],[104.80053,-2.97648],[104.80104,-2.97844]]}},{"type":"Feature","properties":{"kind":"pipa","area":"OSSA","name":"[SBS] SRIMULYO-ASRIGITA","grup":"JALUR PIPA"},"geometry":{"type":"LineString","coordinates":[[104.79489,-2.95153],[104.7959,-2.94778],[104.83428,-2.95343],[104.84096,-2.96073],[104.8503,-2.9491],[104.85355,-2.94668],[104.85525,-2.94273],[104.85795,-2.93979],[104.86206,-2.93217],[104.86569,-2.92903],[104.86891,-2.92757]]}},{"type":"Feature","properties":{"kind":"pipa","area":"OSSA","name":"8\" ASRIGITA","grup":"JALUR PIPA"},"geometry":{"type":"LineString","coordinates":[[104.86892,-2.9276],[104.87158,-2.92978]]}},{"type":"Feature","properties":{"kind":"pipa","area":"OSSA","name":"4\" PLN MEDCO","grup":"JALUR PIPA"},"geometry":{"type":"LineString","coordinates":[[104.86889,-2.92761],[104.87197,-2.92482]]}},{"type":"Feature","properties":{"kind":"pipa","area":"OSSA","name":"[SBS] SIMPANG Y - PULAU LAYANG","grup":"JALUR PIPA"},"geometry":{"type":"LineString","coordinates":[[104.70354,-3.10186],[104.74713,-3.06804],[104.75083,-3.06386],[104.75628,-3.05887],[104.77178,-3.04774],[104.78576,-3.03648],[104.80216,-3.02447],[104.80433,-3.01999],[104.81089,-3.01267],[104.81272,-3.01147],[104.81902,-3.01128],[104.82052,-3.01037],[104.83289,-3.01065],[104.8351,-3.00755]]}},{"type":"Feature","properties":{"kind":"pipa","area":"OSSA","name":"8\" BUAYA-KERAMASAN","grup":"JALUR PIPA"},"geometry":{"type":"LineString","coordinates":[[104.7596,-3.05649],[104.75606,-3.05217],[104.75215,-3.04538],[104.7472,-3.03893],[104.74457,-3.03312]]}},{"type":"Feature","properties":{"kind":"pipa","area":"OSSA","name":"[SBS] PULAU LAYANG - PUSRI","grup":"JALUR PIPA"},"geometry":{"type":"LineString","coordinates":[[104.83524,-3.00727],[104.83663,-3.00636],[104.84184,-3.00625],[104.84463,-3.00294],[104.85598,-2.997],[104.85691,-2.99565],[104.85737,-2.98667],[104.85958,-2.98572],[104.86005,-2.98502],[104.85913,-2.98295],[104.85723,-2.98094],[104.85136,-2.97226],[104.83458,-2.95359],[104.79577,-2.94781],[104.7951,-2.95151],[104.79606,-2.95178],[104.7994,-2.95849],[104.79975,-2.96044],[104.80038,-2.96555],[104.7994,-2.96753],[104.79845,-2.97262],[104.79873,-2.97471],[104.80055,-2.9767],[104.8008,-2.97842]]}},{"type":"Feature","properties":{"kind":"pipa","area":"OSSA","name":"8\" ASRIGITA-CS2","grup":"JALUR PIPA"},"geometry":{"type":"LineString","coordinates":[[104.86885,-2.92745],[104.8693,-2.92669],[104.86771,-2.92589],[104.85919,-2.92359],[104.85327,-2.9189]]}},{"type":"Feature","properties":{"kind":"pipa","area":"OSSA","name":"Jumperline Pulau Layang - Pusri ke Grissik - Pusri","grup":"JALUR PIPA"},"geometry":{"type":"LineString","coordinates":[[104.801,-2.97853],[104.80139,-2.97915]]}},{"type":"Feature","properties":{"kind":"pipa","area":"OSSA","name":"20 Simpang Y - Pulau Layang - Pusri","grup":"JALUR PIPA"},"geometry":{"type":"LineString","coordinates":[[104.70391,-3.10172],[104.74649,-3.0685],[104.75635,-3.05876],[104.76557,-3.05225],[104.78487,-3.0371],[104.80189,-3.02454],[104.80447,-3.01991],[104.81033,-3.01308],[104.81294,-3.01142],[104.81901,-3.01123],[104.82286,-3.01046],[104.83304,-3.01057],[104.83658,-3.0061],[104.84118,-3.00542],[104.84353,-3.00419],[104.84466,-3.00303],[104.85613,-2.99677],[104.85688,-2.99561],[104.85752,-2.98635],[104.8599,-2.98508],[104.85958,-2.98303],[104.85773,-2.98163],[104.85145,-2.97266],[104.83453,-2.95357],[104.79585,-2.94778],[104.79501,-2.95168],[104.79606,-2.95196],[104.79903,-2.95799],[104.79954,-2.96],[104.80027,-2.96564],[104.79871,-2.97008],[104.79845,-2.97255],[104.79886,-2.97534],[104.80055,-2.97651],[104.80098,-2.97853]]}},{"type":"Feature","properties":{"kind":"pipa","area":"OSSA","name":"Jalur Pipa OSSA #14","grup":"JALUR PIPA"},"geometry":{"type":"LineString","coordinates":[[104.60853,-3.20157],[104.6094,-3.20145],[104.63589,-3.18075],[104.68016,-3.13832],[104.69992,-3.10488]]}},{"type":"Feature","properties":{"kind":"pipa","area":"OSSA","name":"20 Grisik - Pusri","grup":"JALUR PIPA GRPU"},"geometry":{"type":"LineString","coordinates":[[103.93453,-2.28856],[103.93446,-2.28893],[103.93284,-2.28893],[103.91906,-2.29354],[103.90818,-2.29786],[103.89547,-2.3021],[103.89652,-2.30644],[103.89542,-2.309],[103.8961,-2.31424],[103.90251,-2.317],[103.90516,-2.32003],[103.90975,-2.32184],[103.91439,-2.32673],[103.91631,-2.32977],[103.91799,-2.3304],[103.92077,-2.33262],[103.92331,-2.34126],[103.92248,-2.34611],[103.92288,-2.34918],[103.92977,-2.3563],[103.93125,-2.35854],[103.93407,-2.36066],[103.9414,-2.36801],[103.94231,-2.36955],[103.94243,-2.37112],[103.93964,-2.38267],[103.94101,-2.39486],[103.93696,-2.43022],[103.93815,-2.44002],[103.93887,-2.44164],[103.94969,-2.44959],[103.97418,-2.46465],[103.98255,-2.46974],[103.99504,-2.47583],[104.00309,-2.48194],[104.01368,-2.48757],[104.01605,-2.49412],[104.02037,-2.49805],[104.02514,-2.50349],[104.03007,-2.51259],[104.05958,-2.51813],[104.06559,-2.52087],[104.08562,-2.51668],[104.09336,-2.52128],[104.09975,-2.52322],[104.1134,-2.53639],[104.10768,-2.5613],[104.106,-2.56496],[104.10845,-2.58006],[104.10845,-2.58366],[104.11104,-2.58941],[104.11237,-2.59061],[104.10917,-2.60352],[104.1093,-2.60735],[104.10206,-2.63345],[104.10212,-2.63634],[104.06751,-2.66807],[104.05746,-2.6998],[104.06555,-2.73174],[104.06508,-2.73379],[104.06653,-2.7356],[104.07188,-2.75659],[104.07751,-2.76273],[104.07863,-2.76864],[104.0799,-2.77199],[104.08152,-2.7745],[104.08494,-2.77657],[104.08545,-2.77737],[104.08863,-2.77803],[104.08989,-2.77916],[104.09059,-2.77914],[104.09174,-2.77817],[104.09243,-2.77605],[104.09425,-2.77552],[104.09778,-2.77542],[104.10242,-2.78008],[104.10444,-2.78339],[104.10762,-2.78437],[104.10891,-2.7872],[104.11166,-2.78929],[104.11807,-2.78941],[104.12293,-2.78591],[104.12722,-2.78614],[104.12876,-2.78798],[104.13153,-2.78882],[104.13712,-2.79343],[104.13876,-2.79937],[104.13866,-2.80252],[104.1391,-2.80422],[104.14143,-2.80655],[104.14311,-2.80706],[104.145,-2.80854],[104.15494,-2.80987],[104.16323,-2.80892],[104.16725,-2.80708],[104.16966,-2.80721],[104.17213,-2.80621],[104.18227,-2.80899],[104.18664,-2.81151],[104.19242,-2.80868],[104.19439,-2.80878],[104.19814,-2.80989],[104.20135,-2.80961],[104.20345,-2.80885],[104.20645,-2.81077],[104.20768,-2.81456],[104.2106,-2.81655],[104.21222,-2.81935],[104.21576,-2.822],[104.21722,-2.82519],[104.21754,-2.82702],[104.21948,-2.83007],[104.22258,-2.83291],[104.22369,-2.83501],[104.2238,-2.8368],[104.22302,-2.83883],[104.22354,-2.84368],[104.22439,-2.84599],[104.22583,-2.84742],[104.23205,-2.85023],[104.2369,-2.84951],[104.23944,-2.85094],[104.24066,-2.85104],[104.25001,-2.84915],[104.25396,-2.85101],[104.25627,-2.8506],[104.25891,-2.85138],[104.26644,-2.85036],[104.26973,-2.84742],[104.27621,-2.84613],[104.28862,-2.84727],[104.29174,-2.84687],[104.29653,-2.84807],[104.30162,-2.84667],[104.30538,-2.84907],[104.30879,-2.85037],[104.31083,-2.85179],[104.31747,-2.85491],[104.32755,-2.85841],[104.34737,-2.8546],[104.3514,-2.85585],[104.36008,-2.8605],[104.36428,-2.86199],[104.3681,-2.86433],[104.37264,-2.86624],[104.3772,-2.86911],[104.38186,-2.87065],[104.38692,-2.88273],[104.40028,-2.89221],[104.40368,-2.89575],[104.40634,-2.89738],[104.40863,-2.89952],[104.41011,-2.90121],[104.4129,-2.90633],[104.41667,-2.90947],[104.42372,-2.92105],[104.4256,-2.92183],[104.42955,-2.92163],[104.43481,-2.92403],[104.44341,-2.92464],[104.45178,-2.92394],[104.45796,-2.92489],[104.46971,-2.92465],[104.47864,-2.92135],[104.49306,-2.92358],[104.49594,-2.92524],[104.49849,-2.92598],[104.50406,-2.92605],[104.5064,-2.92526],[104.51119,-2.92512],[104.52658,-2.92104],[104.52992,-2.92073],[104.53565,-2.92134],[104.54076,-2.92319],[104.5444,-2.92391],[104.54779,-2.92568],[104.5517,-2.92893],[104.55274,-2.92913],[104.55904,-2.92729],[104.56173,-2.92593],[104.56625,-2.92499],[104.57109,-2.92525],[104.57612,-2.92479],[104.58793,-2.92079],[104.59219,-2.92041],[104.59732,-2.92087],[104.60028,-2.92026],[104.60973,-2.9142],[104.61643,-2.91285],[104.61852,-2.91301],[104.62268,-2.91519],[104.62735,-2.91569],[104.63836,-2.9155],[104.64793,-2.91311],[104.65019,-2.9136],[104.65965,-2.91275],[104.66851,-2.91352],[104.69437,-2.91317],[104.70628,-2.91863],[104.71114,-2.92277],[104.71233,-2.91379],[104.71403,-2.91097],[104.71628,-2.9099],[104.72512,-2.90743],[104.72668,-2.90641],[104.7275,-2.90474],[104.72835,-2.90446],[104.73462,-2.90569],[104.73859,-2.90806],[104.74524,-2.91481],[104.75238,-2.91829],[104.77076,-2.91842],[104.77023,-2.92306],[104.77021,-2.9302],[104.76734,-2.93955],[104.76732,-2.94409],[104.7682,-2.94976],[104.78731,-2.94724],[104.78823,-2.94737],[104.79289,-2.95137],[104.79601,-2.95198],[104.79936,-2.95916],[104.80028,-2.96539],[104.79872,-2.96985],[104.79841,-2.97268],[104.79882,-2.97517],[104.80052,-2.97491],[104.80129,-2.97875]]}},{"type":"Feature","properties":{"kind":"fasilitas","area":"OSSA","name":"Kantor Distrik Palembang","grup":"Kantor & SM"},"geometry":{"type":"Point","coordinates":[104.7038,-3.10225]}},{"type":"Feature","properties":{"kind":"fasilitas","area":"OSSA","name":"Kantor SM PLTG Puradaya","grup":"Kantor & SM"},"geometry":{"type":"Point","coordinates":[104.71688,-3.02576]}},{"type":"Feature","properties":{"kind":"fasilitas","area":"OSSA","name":"Kantor SM PLN Keramasan","grup":"Kantor & SM"},"geometry":{"type":"Point","coordinates":[104.74388,-3.03269]}},{"type":"Feature","properties":{"kind":"fasilitas","area":"OSSA","name":"Kantor SM PGN Demang","grup":"Kantor & SM"},"geometry":{"type":"Point","coordinates":[104.72472,-2.97657]}},{"type":"Feature","properties":{"kind":"fasilitas","area":"OSSA","name":"Kantor SM Pulau Layang","grup":"Kantor & SM"},"geometry":{"type":"Point","coordinates":[104.83498,-3.00732]}},{"type":"Feature","properties":{"kind":"fasilitas","area":"OSSA","name":"Kantor SM Pupuk Sriwijaya","grup":"Kantor & SM"},"geometry":{"type":"Point","coordinates":[104.80135,-2.97839]}},{"type":"Feature","properties":{"kind":"fasilitas","area":"OSSA","name":"Kantor SM PLTG Sako","grup":"Kantor & SM"},"geometry":{"type":"Point","coordinates":[104.83176,-2.95413]}},{"type":"Feature","properties":{"kind":"fasilitas","area":"OSSA","name":"Kantor SM Asrigita","grup":"Kantor & SM"},"geometry":{"type":"Point","coordinates":[104.87136,-2.92945]}},{"type":"Feature","properties":{"kind":"fasilitas","area":"OSSA","name":"Meter Arwana Keramik","grup":"Kantor & SM"},"geometry":{"type":"Point","coordinates":[104.63511,-3.20844]}},{"type":"Feature","properties":{"kind":"fasilitas","area":"OSSA","name":"Meter Feed & Lean OBP","grup":"Kantor & SM"},"geometry":{"type":"Point","coordinates":[104.70336,-3.10222]}},{"type":"Feature","properties":{"kind":"fasilitas","area":"OSSA","name":"Meter PLTG Puradaya","grup":"Kantor & SM"},"geometry":{"type":"Point","coordinates":[104.71673,-3.0261]}},{"type":"Feature","properties":{"kind":"fasilitas","area":"OSSA","name":"Meter PLN Keramasan","grup":"Kantor & SM"},"geometry":{"type":"Point","coordinates":[104.74458,-3.03329]}},{"type":"Feature","properties":{"kind":"fasilitas","area":"OSSA","name":"Meter PGN Demang","grup":"Kantor & SM"},"geometry":{"type":"Point","coordinates":[104.72485,-2.97639]}},{"type":"Feature","properties":{"kind":"fasilitas","area":"OSSA","name":"Meter Pulau Layang","grup":"Kantor & SM"},"geometry":{"type":"Point","coordinates":[104.83501,-3.00748]}},{"type":"Feature","properties":{"kind":"fasilitas","area":"OSSA","name":"Meter Pusri 1B","grup":"Kantor & SM"},"geometry":{"type":"Point","coordinates":[104.80142,-2.97857]}},{"type":"Feature","properties":{"kind":"fasilitas","area":"OSSA","name":"Meter Pusri 2","grup":"Kantor & SM"},"geometry":{"type":"Point","coordinates":[104.80125,-2.97941]}},{"type":"Feature","properties":{"kind":"fasilitas","area":"OSSA","name":"Meter Pusri 2B","grup":"Kantor & SM"},"geometry":{"type":"Point","coordinates":[104.80154,-2.97868]}},{"type":"Feature","properties":{"kind":"fasilitas","area":"OSSA","name":"Meter Pusri 3","grup":"Kantor & SM"},"geometry":{"type":"Point","coordinates":[104.80118,-2.97906]}},{"type":"Feature","properties":{"kind":"fasilitas","area":"OSSA","name":"Meter Pusri 4","grup":"Kantor & SM"},"geometry":{"type":"Point","coordinates":[104.80112,-2.97876]}},{"type":"Feature","properties":{"kind":"fasilitas","area":"OSSA","name":"Meter PLTG Sako","grup":"Kantor & SM"},"geometry":{"type":"Point","coordinates":[104.83179,-2.95395]}},{"type":"Feature","properties":{"kind":"fasilitas","area":"OSSA","name":"Meter Asrigita","grup":"Kantor & SM"},"geometry":{"type":"Point","coordinates":[104.8712,-2.92937]}},{"type":"Feature","properties":{"kind":"fasilitas","area":"OSSA","name":"Meter CS2 Pola Sehat","grup":"Kantor & SM"},"geometry":{"type":"Point","coordinates":[104.85326,-2.91891]}},{"type":"Feature","properties":{"kind":"fasilitas","area":"OSSA","name":"PLTG Jakabaring","grup":"Kantor & SM"},"geometry":{"type":"Point","coordinates":[104.7803,-3.03964]}},{"type":"Feature","properties":{"kind":"fasilitas","area":"OSSA","name":"PT. Surya Eka Perkasa","grup":"Kantor & SM"},"geometry":{"type":"Point","coordinates":[104.70264,-3.10371]}},{"type":"Feature","properties":{"kind":"fasilitas","area":"OSSA","name":"Meter City Gas Jakabaring","grup":"Kantor & SM"},"geometry":{"type":"Point","coordinates":[104.78093,-3.04052]}},{"type":"Feature","properties":{"kind":"fasilitas","area":"OSSA","name":"Tie in TBL Existing","grup":"ASET JALUR PIPA"},"geometry":{"type":"Point","coordinates":[104.801,-2.97854]}},{"type":"Feature","properties":{"kind":"fasilitas","area":"OSSA","name":"Tie in GRISPUS","grup":"ASET JALUR PIPA"},"geometry":{"type":"Point","coordinates":[104.80139,-2.97915]}},{"type":"Feature","properties":{"kind":"fasilitas","area":"OSSA","name":"LBCV KERAMASAN 12\" & 14\"","grup":"ASET JALUR PIPA"},"geometry":{"type":"Point","coordinates":[104.68466,-3.07549]}},{"type":"Feature","properties":{"kind":"fasilitas","area":"OSSA","name":"LBCV GENDUS LAUT 12\" & 14\"","grup":"ASET JALUR PIPA"},"geometry":{"type":"Point","coordinates":[104.71998,-3.0212]}},{"type":"Feature","properties":{"kind":"fasilitas","area":"OSSA","name":"LBCV GENDUS DARAT 12\" & 14\"","grup":"ASET JALUR PIPA"},"geometry":{"type":"Point","coordinates":[104.7229,-3.01586]}},{"type":"Feature","properties":{"kind":"fasilitas","area":"OSSA","name":"LBCV SRIMULYO 14\"","grup":"ASET JALUR PIPA"},"geometry":{"type":"Point","coordinates":[104.79504,-2.95154]}},{"type":"Feature","properties":{"kind":"fasilitas","area":"OSSA","name":"JUMPER HOKTONG 14\"","grup":"ASET JALUR PIPA"},"geometry":{"type":"Point","coordinates":[104.70857,-3.03828]}},{"type":"Feature","properties":{"kind":"fasilitas","area":"OSSA","name":"JUMPER PURADAYA 14\"","grup":"ASET JALUR PIPA"},"geometry":{"type":"Point","coordinates":[104.7175,-3.02566]}},{"type":"Feature","properties":{"kind":"fasilitas","area":"OSSA","name":"JUMPER SP2J 12\"","grup":"ASET JALUR PIPA"},"geometry":{"type":"Point","coordinates":[104.7234,-2.9831]}},{"type":"Feature","properties":{"kind":"fasilitas","area":"OSSA","name":"JUMPER PGN 12\"","grup":"ASET JALUR PIPA"},"geometry":{"type":"Point","coordinates":[104.72512,-2.97651]}},{"type":"Feature","properties":{"kind":"fasilitas","area":"OSSA","name":"JUMPER SPBG DEMANG 14\"","grup":"ASET JALUR PIPA"},"geometry":{"type":"Point","coordinates":[104.72978,-2.97195]}},{"type":"Feature","properties":{"kind":"fasilitas","area":"OSSA","name":"JUMPER SPBG SUKAMTO 14\"","grup":"ASET JALUR PIPA"},"geometry":{"type":"Point","coordinates":[104.75874,-2.95199]}},{"type":"Feature","properties":{"kind":"fasilitas","area":"OSSA","name":"LBCV SEI BUAYA 20\"","grup":"ASET JALUR PIPA"},"geometry":{"type":"Point","coordinates":[104.75966,-3.05644]}},{"type":"Feature","properties":{"kind":"fasilitas","area":"OSSA","name":"LBCV OGAN SUNGKI 24\"","grup":"ASET JALUR PIPA"},"geometry":{"type":"Point","coordinates":[104.77631,-3.04413]}},{"type":"Feature","properties":{"kind":"fasilitas","area":"OSSA","name":"LBCV OGAN PLAJU 24\"","grup":"ASET JALUR PIPA"},"geometry":{"type":"Point","coordinates":[104.78009,-3.04107]}},{"type":"Feature","properties":{"kind":"fasilitas","area":"OSSA","name":"JUMPER PDPDE JAKABARING 24\"","grup":"ASET JALUR PIPA"},"geometry":{"type":"Point","coordinates":[104.78098,-3.04031]}},{"type":"Feature","properties":{"kind":"fasilitas","area":"OSSA","name":"LBCV PULAU LAYANG 20\"","grup":"ASET JALUR PIPA"},"geometry":{"type":"Point","coordinates":[104.83531,-3.00731]}},{"type":"Feature","properties":{"kind":"fasilitas","area":"OSSA","name":"LBCV SUNGAI GERONG 22\" & 20\"","grup":"ASET JALUR PIPA"},"geometry":{"type":"Point","coordinates":[104.85821,-2.98214]}},{"type":"Feature","properties":{"kind":"fasilitas","area":"OSSA","name":"JUMPER PSG 24\"","grup":"ASET JALUR PIPA"},"geometry":{"type":"Point","coordinates":[104.85397,-2.99797]}},{"type":"Feature","properties":{"kind":"fasilitas","area":"OSSA","name":"LBVC MATA MERAH 22\" & 20\"","grup":"ASET JALUR PIPA"},"geometry":{"type":"Point","coordinates":[104.83664,-2.95594]}},{"type":"Feature","properties":{"kind":"fasilitas","area":"OSSA","name":"JUMPER SEMATANG BORANG 14\"","grup":"ASET JALUR PIPA"},"geometry":{"type":"Point","coordinates":[104.81051,-2.94989]}},{"type":"Feature","properties":{"kind":"fasilitas","area":"OSSA","name":"LBCV 4","grup":"ASET GRPU"},"geometry":{"type":"Point","coordinates":[104.07837,-2.65808]}},{"type":"Feature","properties":{"kind":"fasilitas","area":"OSSA","name":"LBCV 5","grup":"ASET GRPU"},"geometry":{"type":"Point","coordinates":[104.086,-2.777]}},{"type":"Feature","properties":{"kind":"fasilitas","area":"OSSA","name":"LBCV 6","grup":"ASET GRPU"},"geometry":{"type":"Point","coordinates":[104.19172,-2.80882]}},{"type":"Feature","properties":{"kind":"fasilitas","area":"OSSA","name":"LBCV 7","grup":"ASET GRPU"},"geometry":{"type":"Point","coordinates":[104.31245,-2.85238]}},{"type":"Feature","properties":{"kind":"fasilitas","area":"OSSA","name":"LBCV 8","grup":"ASET GRPU"},"geometry":{"type":"Point","coordinates":[104.41831,-2.91186]}},{"type":"Feature","properties":{"kind":"fasilitas","area":"OSSA","name":"LBCV 9","grup":"ASET GRPU"},"geometry":{"type":"Point","coordinates":[104.53405,-2.92108]}},{"type":"Feature","properties":{"kind":"fasilitas","area":"OSSA","name":"LBCV 10","grup":"ASET GRPU"},"geometry":{"type":"Point","coordinates":[104.59758,-2.92072]}},{"type":"Feature","properties":{"kind":"fasilitas","area":"OSSA","name":"LBCV 11","grup":"ASET GRPU"},"geometry":{"type":"Point","coordinates":[104.70622,-2.9186]}},{"type":"Feature","properties":{"kind":"fasilitas","area":"OSSA","name":"LBCV12","grup":"ASET GRPU"},"geometry":{"type":"Point","coordinates":[104.76579,-2.91835]}},{"type":"Feature","properties":{"kind":"fasilitas","area":"OSSA","name":"FUTURE GRPU","grup":"ASET GRPU"},"geometry":{"type":"Point","coordinates":[104.72819,-2.9046]}},{"type":"Feature","properties":{"kind":"fasilitas","area":"OSSA","name":"FUTURE GRPU","grup":"ASET GRPU"},"geometry":{"type":"Point","coordinates":[104.7965,-2.95282]}},{"type":"Feature","properties":{"kind":"pipa","area":"OWJA","name":"Jalur Pipa OWJA #1","grup":"Pipa"},"geometry":{"type":"LineString","coordinates":[[106.94159,-6.38451],[106.93548,-6.38345],[106.93112,-6.38441],[106.92383,-6.38439],[106.91573,-6.38825],[106.91022,-6.38935],[106.90134,-6.38816],[106.89497,-6.38918],[106.88917,-6.38594],[106.87009,-6.38208],[106.8516,-6.38],[106.84816,-6.37923],[106.83957,-6.37965],[106.80324,-6.36646],[106.79824,-6.36501],[106.7929,-6.3645],[106.78727,-6.35988],[106.77619,-6.35413],[106.77069,-6.35471],[106.75753,-6.35837],[106.7536,-6.35691],[106.73718,-6.34693],[106.73528,-6.33637],[106.73257,-6.33322],[106.73173,-6.3306],[106.73141,-6.32697],[106.7283,-6.32504],[106.72144,-6.32195],[106.70739,-6.30801],[106.70531,-6.30539],[106.70105,-6.30162],[106.69678,-6.29964],[106.68614,-6.29171],[106.68257,-6.2898],[106.68103,-6.28869],[106.67928,-6.2863],[106.67203,-6.28095],[106.66426,-6.27639],[106.64731,-6.27046],[106.6402,-6.26488],[106.62526,-6.25513],[106.61724,-6.25122],[106.60323,-6.24186],[106.57135,-6.22309],[106.5624,-6.22256],[106.55042,-6.22085]]}},{"type":"Feature","properties":{"kind":"pipa","area":"OWJA","name":"Jalur Pipa OWJA #2","grup":"Pipa"},"geometry":{"type":"LineString","coordinates":[[106.9416,-6.38453],[106.9468,-6.38298],[106.96612,-6.38147],[106.97273,-6.37805],[106.97536,-6.3774],[106.98284,-6.37784],[106.98609,-6.37658],[106.99162,-6.3769],[107.00061,-6.3755],[107.01205,-6.36347],[107.02891,-6.34993],[107.04071,-6.33435],[107.05083,-6.32661],[107.0615,-6.31593],[107.0652,-6.31647],[107.07314,-6.31424],[107.08897,-6.30618],[107.09237,-6.30231],[107.09554,-6.30039],[107.09972,-6.30038],[107.11488,-6.29673],[107.11724,-6.29537],[107.12147,-6.29593],[107.13048,-6.2959],[107.1393,-6.29651],[107.14319,-6.30396]]}},{"type":"Feature","properties":{"kind":"pipa","area":"OWJA","name":"Jalur Pipa OWJA #3","grup":"Pipa"},"geometry":{"type":"LineString","coordinates":[[106.93932,-6.38404],[106.94194,-6.38443],[106.947,-6.3829],[106.95775,-6.38221],[106.96228,-6.38127],[106.96628,-6.38142],[106.97203,-6.37832],[106.97545,-6.37733],[106.98268,-6.3779],[106.98534,-6.37653],[106.99172,-6.37676],[107.00063,-6.37537],[107.01474,-6.36091],[107.02776,-6.3509],[107.03477,-6.3429],[107.04109,-6.33399],[107.04952,-6.32757],[107.06157,-6.31597],[107.06547,-6.31636],[107.07194,-6.31462],[107.07813,-6.31209],[107.08897,-6.30616],[107.0917,-6.30351],[107.09272,-6.30178],[107.09595,-6.30022],[107.10136,-6.30043],[107.1054,-6.29852],[107.11497,-6.29662],[107.11662,-6.29566],[107.1222,-6.29613],[107.13773,-6.29604],[107.13944,-6.29662],[107.14344,-6.30167],[107.14334,-6.30382]]}},{"type":"Feature","properties":{"kind":"pipa","area":"OWJA","name":"Jalur Pipa OWJA #4","grup":"Pipa"},"geometry":{"type":"LineString","coordinates":[[106.94453,-6.37611],[106.94271,-6.37776],[106.94146,-6.38073],[106.94032,-6.38414],[106.94171,-6.38447]]}},{"type":"Feature","properties":{"kind":"pipa","area":"OWJA","name":"Jalur Pipa OWJA #5","grup":"Pipa"},"geometry":{"type":"LineString","coordinates":[[106.91759,-6.44005],[106.91879,-6.43784],[106.93586,-6.41542],[106.93905,-6.41009],[106.93969,-6.3935],[106.94171,-6.38442]]}},{"type":"Feature","properties":{"kind":"pipa","area":"OWJA","name":"Jalur Pipa OWJA #6","grup":"Pipa"},"geometry":{"type":"LineString","coordinates":[[106.92892,-6.45853],[106.92602,-6.45571],[106.92497,-6.4553],[106.92463,-6.45385],[106.92337,-6.45254],[106.91831,-6.44064],[106.91759,-6.44005]]}},{"type":"Feature","properties":{"kind":"pipa","area":"OWJA","name":"Jalur Pipa OWJA #7","grup":"Pipa"},"geometry":{"type":"LineString","coordinates":[[106.88873,-6.47421],[106.88981,-6.47453],[106.89037,-6.47362],[106.8916,-6.47415],[106.89198,-6.47348],[106.8922,-6.47167],[106.89031,-6.46801],[106.894,-6.46278],[106.90105,-6.45807],[106.90587,-6.45385],[106.91193,-6.45034],[106.91759,-6.44005]]}},{"type":"Feature","properties":{"kind":"pipa","area":"OWJA","name":"Jalur Pipa OWJA #8","grup":"Pipa"},"geometry":{"type":"LineString","coordinates":[[107.11328,-6.30893],[107.11222,-6.31144],[107.10336,-6.30703],[107.10683,-6.30045],[107.10475,-6.29904],[107.10135,-6.30049],[107.09593,-6.30025],[107.09177,-6.30276]]}},{"type":"Feature","properties":{"kind":"pipa","area":"OWJA","name":"Jalur Pipa OWJA #9","grup":"Pipa"},"geometry":{"type":"LineString","coordinates":[[107.14302,-6.30365],[107.14355,-6.30287],[107.1435,-6.3018],[107.14005,-6.29732],[107.13859,-6.29614],[107.12165,-6.2962],[107.11841,-6.29585],[107.11841,-6.29535],[107.11706,-6.29508],[107.11642,-6.29376],[107.11761,-6.29256],[107.11701,-6.29207],[107.11606,-6.28737],[107.1152,-6.28579],[107.11339,-6.28505],[107.11274,-6.28527],[107.10332,-6.28373],[107.10393,-6.28091],[107.10787,-6.27513],[107.10843,-6.27215],[107.1096,-6.27074],[107.11211,-6.26917],[107.12401,-6.26688],[107.12539,-6.26599],[107.12838,-6.25541],[107.12904,-6.2457],[107.12977,-6.24249],[107.09048,-6.22529],[107.08862,-6.22402],[107.07049,-6.17002],[107.0644,-6.13647],[107.064,-6.13455],[107.06122,-6.12829],[107.06138,-6.12606],[107.06079,-6.12336],[107.0573,-6.11532],[107.04649,-6.09619],[107.04548,-6.09444],[107.0439,-6.09327],[107.03926,-6.08559],[107.04218,-6.08438],[107.04246,-6.08519],[107.04461,-6.08469],[107.0445,-6.08316],[107.04541,-6.08311],[107.04529,-6.08068],[107.04433,-6.08067],[107.04492,-6.08049]]}},{"type":"Feature","properties":{"kind":"pipa","area":"OWJA","name":"Jalur Pipa OWJA #10","grup":"Pipa"},"geometry":{"type":"LineString","coordinates":[[107.16023,-6.2849],[107.1541,-6.28834],[107.15095,-6.2911],[107.14579,-6.29845],[107.14522,-6.30188],[107.14312,-6.30362]]}},{"type":"Feature","properties":{"kind":"pipa","area":"OWJA","name":"Jalur Pipa OWJA #11","grup":"Pipa"},"geometry":{"type":"LineString","coordinates":[[107.01555,-6.24919],[107.01872,-6.24791],[107.02006,-6.24797],[107.03063,-6.25192],[107.03832,-6.25729],[107.05145,-6.25908],[107.06539,-6.26338],[107.07259,-6.26496],[107.07494,-6.26645],[107.08112,-6.26767],[107.09969,-6.27404],[107.09809,-6.27361],[107.09393,-6.27513],[107.09758,-6.28087],[107.09753,-6.28229],[107.10507,-6.28347]]}},{"type":"Feature","properties":{"kind":"pipa","area":"OWJA","name":"Jalur Pipa OWJA #12","grup":"Pipa"},"geometry":{"type":"LineString","coordinates":[[106.79818,-6.24317],[106.79657,-6.26157],[106.79729,-6.26445],[106.79764,-6.27707],[106.79603,-6.28237],[106.79515,-6.29245]]}},{"type":"Feature","properties":{"kind":"pipa","area":"OWJA","name":"Jalur Pipa OWJA #13","grup":"Pipa"},"geometry":{"type":"LineString","coordinates":[[106.81363,-6.31078],[106.81469,-6.29921],[106.81649,-6.29256]]}},{"type":"Feature","properties":{"kind":"pipa","area":"OWJA","name":"Jalur Pipa OWJA #14","grup":"Pipa"},"geometry":{"type":"LineString","coordinates":[[106.77085,-6.29092],[106.77104,-6.28924],[106.77642,-6.28921],[106.77789,-6.28868],[106.78111,-6.29086],[106.78704,-6.29237],[106.81542,-6.29245],[106.81934,-6.29302],[106.82216,-6.29408]]}},{"type":"Feature","properties":{"kind":"pipa","area":"OWJA","name":"Jalur Pipa OWJA #15","grup":"Pipa"},"geometry":{"type":"LineString","coordinates":[[106.82104,-6.30092],[106.82099,-6.2972],[106.82216,-6.29407],[106.82796,-6.29673],[106.83746,-6.3026],[106.8396,-6.30332],[106.83905,-6.30703],[106.83805,-6.30917],[106.83825,-6.31154],[106.83681,-6.31992],[106.83362,-6.32624],[106.83368,-6.32836],[106.83502,-6.3314],[106.83537,-6.33375],[106.83345,-6.34243],[106.83158,-6.3563],[106.83236,-6.36753],[106.8297,-6.37591],[106.82873,-6.37554],[106.82857,-6.37621],[106.8284,-6.37542]]}},{"type":"Feature","properties":{"kind":"pipa","area":"OWJA","name":"Jalur Pipa OWJA #16","grup":"Pipa"},"geometry":{"type":"LineString","coordinates":[[106.99633,-6.0849],[106.99631,-6.08561],[106.9956,-6.08578],[106.99576,-6.08678],[106.99513,-6.0869],[106.99531,-6.08802],[106.99626,-6.08797],[106.99651,-6.0904],[107.00006,-6.09002],[107.00028,-6.09379],[107.00163,-6.09402],[107.00542,-6.09598],[107.02983,-6.08753],[107.03466,-6.08893],[107.03535,-6.08864]]}},{"type":"Feature","properties":{"kind":"pipa","area":"OWJA","name":"Jalur Pipa OWJA #17","grup":"Pipa"},"geometry":{"type":"LineString","coordinates":[[107.04446,-6.08023],[107.04439,-6.08056],[107.04539,-6.08063],[107.04552,-6.0831],[107.04436,-6.08316],[107.04443,-6.08459],[107.04245,-6.08507],[107.04219,-6.08435],[107.03761,-6.08578],[107.03915,-6.08764],[107.03661,-6.08901],[107.03589,-6.08843],[107.03535,-6.08864]]}},{"type":"Feature","properties":{"kind":"pipa","area":"OWJA","name":"Jalur Pipa OWJA #18","grup":"Pipa"},"geometry":{"type":"LineString","coordinates":[[108.54092,-6.7333],[108.54029,-6.73117],[108.54464,-6.72975],[108.54523,-6.72838],[108.54464,-6.72677],[108.54719,-6.7166],[108.54866,-6.71655],[108.5494,-6.71516],[108.54929,-6.70712],[108.5512,-6.69842],[108.5517,-6.69731],[108.55305,-6.69651],[108.54611,-6.67992],[108.5422,-6.67254],[108.54147,-6.66948],[108.53884,-6.66394],[108.53727,-6.65802],[108.53436,-6.65307],[108.53124,-6.64896],[108.52611,-6.63145],[108.52339,-6.6253],[108.5203,-6.61074],[108.51841,-6.60498],[108.51091,-6.58986],[108.5082,-6.58261],[108.50702,-6.57738],[108.5038,-6.56898],[108.50306,-6.56006],[108.49971,-6.54991],[108.49505,-6.54244],[108.4869,-6.54206],[108.46727,-6.53728],[108.46331,-6.53707],[108.46329,-6.53537],[108.45881,-6.53467],[108.45459,-6.53318],[108.45447,-6.52869],[108.45112,-6.51925],[108.45119,-6.5176],[108.44848,-6.51699],[108.44456,-6.51437],[108.43744,-6.50762],[108.43601,-6.49889],[108.43314,-6.49907]]}},{"type":"Feature","properties":{"kind":"pipa","area":"OWJA","name":"Jalur Pipa OWJA #19","grup":"Pipa"},"geometry":{"type":"LineString","coordinates":[[107.14323,-6.30395],[107.14502,-6.30369],[107.14954,-6.31102],[107.1561,-6.31712],[107.16533,-6.324],[107.1684,-6.32557],[107.17197,-6.33021],[107.18088,-6.33283],[107.19421,-6.33908],[107.20384,-6.34616],[107.20564,-6.3467],[107.21496,-6.34703],[107.23163,-6.34948],[107.23574,-6.34749],[107.24296,-6.34991],[107.2442,-6.34977],[107.2519,-6.3451],[107.26034,-6.34748],[107.26922,-6.3475],[107.27799,-6.34568],[107.28139,-6.34581],[107.28436,-6.34407],[107.28648,-6.34391],[107.2884,-6.34409],[107.29484,-6.34671],[107.3009,-6.35027],[107.30211,-6.35182],[107.3048,-6.35748],[107.3069,-6.35904],[107.31099,-6.36154],[107.31504,-6.36259],[107.32074,-6.366],[107.32402,-6.36721],[107.32697,-6.37194],[107.33891,-6.38537],[107.34043,-6.38535],[107.34273,-6.38794],[107.35605,-6.39163],[107.35918,-6.38738],[107.36197,-6.38458],[107.36128,-6.37572],[107.35594,-6.36647],[107.35745,-6.35943],[107.36527,-6.34857],[107.37145,-6.3366],[107.37235,-6.33591],[107.38763,-6.33616],[107.39039,-6.33664],[107.39383,-6.33858],[107.39956,-6.34402],[107.4041,-6.34544],[107.45787,-6.34937]]}},{"type":"Feature","properties":{"kind":"pipa","area":"OWJA","name":"Jalur Pipa OWJA #20","grup":"Pipa"},"geometry":{"type":"LineString","coordinates":[[107.43011,-6.40368],[107.43193,-6.40361],[107.43545,-6.3934],[107.43921,-6.38918],[107.44762,-6.37349],[107.45139,-6.36534],[107.4543,-6.3568],[107.45785,-6.34936]]}},{"type":"Feature","properties":{"kind":"pipa","area":"OWJA","name":"Jalur Pipa OWJA #21","grup":"Pipa"},"geometry":{"type":"LineString","coordinates":[[107.59151,-6.24137],[107.58981,-6.24123],[107.57008,-6.25529],[107.56332,-6.26116],[107.55317,-6.27584],[107.54876,-6.2837],[107.54263,-6.30069],[107.53926,-6.30856],[107.538,-6.30809],[107.53407,-6.31104],[107.51656,-6.31105],[107.48796,-6.32046],[107.48508,-6.32264],[107.47862,-6.3355],[107.47066,-6.34842],[107.46748,-6.34993],[107.45803,-6.3494]]}},{"type":"Feature","properties":{"kind":"pipa","area":"OWJA","name":"Jalur Pipa OWJA #22","grup":"Pipa"},"geometry":{"type":"LineString","coordinates":[[107.59153,-6.2413],[107.60107,-6.24117],[107.60663,-6.24385],[107.61771,-6.25198],[107.62446,-6.2579],[107.64151,-6.27043],[107.64869,-6.27345],[107.65562,-6.27435],[107.66633,-6.27693],[107.70539,-6.29481],[107.7137,-6.29828],[107.73074,-6.30397],[107.73099,-6.30501],[107.74117,-6.30938],[107.74373,-6.30995],[107.8005,-6.31059],[107.81842,-6.30887],[107.82988,-6.307],[107.87216,-6.30704],[107.88114,-6.30763],[107.89897,-6.31011],[107.90366,-6.31144],[107.9254,-6.31553],[107.93407,-6.31796],[107.94746,-6.32266],[107.96634,-6.33343],[107.97459,-6.33694],[107.99196,-6.34174],[108.00423,-6.34688],[108.05821,-6.37654],[108.06764,-6.37928],[108.07579,-6.38095],[108.09852,-6.38813]]}},{"type":"Feature","properties":{"kind":"pipa","area":"OWJA","name":"Jalur Pipa OWJA #23","grup":"Pipa"},"geometry":{"type":"LineString","coordinates":[[108.09852,-6.38816],[108.14133,-6.4044],[108.15108,-6.40711],[108.16092,-6.40699],[108.19119,-6.40885],[108.2273,-6.41291],[108.25053,-6.4137],[108.27749,-6.4137],[108.29537,-6.41611],[108.30143,-6.4162],[108.34254,-6.39254],[108.38197,-6.37085],[108.3866,-6.36931],[108.38537,-6.36775],[108.38836,-6.36526]]}},{"type":"Feature","properties":{"kind":"pipa","area":"OWJA","name":"Jalur Pipa OWJA #24","grup":"Pipa"},"geometry":{"type":"LineString","coordinates":[[108.38837,-6.36525],[108.39085,-6.36368],[108.4007,-6.37862],[108.40369,-6.3802],[108.40733,-6.38584],[108.41531,-6.3945],[108.4151,-6.39576],[108.4182,-6.39907],[108.41756,-6.39984],[108.41921,-6.40205],[108.42584,-6.4077],[108.43199,-6.41523],[108.43398,-6.41633],[108.4386,-6.42172],[108.44595,-6.42843],[108.44378,-6.44186],[108.44318,-6.44226],[108.4378,-6.46475],[108.43754,-6.46793],[108.43801,-6.47097],[108.431,-6.49766],[108.43163,-6.49927]]}},{"type":"Feature","properties":{"kind":"pipa","area":"OWJA","name":"Jalur Pipa OWJA #25","grup":"Pipa"},"geometry":{"type":"LineString","coordinates":[[107.00021,-6.09021],[107.00032,-6.0938],[107.00538,-6.09601],[106.98962,-6.10198],[106.98756,-6.10168],[106.98728,-6.10299],[106.98294,-6.10195],[106.97837,-6.10188],[106.97843,-6.10142],[106.97836,-6.10188],[106.97572,-6.10185],[106.97048,-6.10488],[106.9614,-6.10715],[106.95915,-6.10824],[106.95311,-6.1099],[106.93797,-6.11033],[106.93404,-6.1113],[106.92891,-6.11384],[106.92541,-6.11451],[106.92489,-6.11495],[106.92495,-6.11557],[106.92443,-6.11574],[106.92588,-6.12131],[106.9246,-6.12206],[106.92194,-6.12493],[106.91865,-6.12617],[106.91749,-6.12913],[106.91382,-6.13133],[106.91271,-6.13126],[106.91023,-6.12968],[106.90844,-6.12913],[106.89595,-6.13081],[106.89279,-6.1306],[106.88332,-6.1267],[106.86216,-6.12299],[106.86021,-6.12244],[106.85948,-6.12112],[106.85882,-6.12108],[106.8559,-6.12236],[106.85522,-6.12323],[106.85149,-6.12459],[106.84433,-6.12605],[106.84426,-6.12732],[106.83095,-6.12983],[106.83022,-6.12972],[106.82988,-6.12775],[106.82938,-6.12774],[106.82213,-6.12907],[106.82219,-6.1313],[106.81978,-6.13172],[106.81557,-6.12953],[106.8134,-6.12933],[106.81169,-6.12976],[106.81007,-6.12768],[106.80509,-6.12839],[106.80465,-6.12812],[106.80413,-6.12527],[106.80059,-6.12534],[106.80047,-6.12318],[106.79738,-6.1222],[106.79734,-6.11951],[106.79679,-6.11862],[106.79406,-6.11857],[106.79457,-6.1121],[106.78469,-6.11218],[106.78023,-6.11061],[106.78048,-6.10986]]}},{"type":"Feature","properties":{"kind":"pipa","area":"OWJA","name":"Jalur Pipa OWJA #26","grup":"Pipa"},"geometry":{"type":"LineString","coordinates":[[106.00461,-5.99501],[106.00462,-5.99562],[106.02525,-5.9954],[106.0264,-5.99498],[106.03297,-5.98722],[106.03605,-5.98703],[106.03825,-5.98925],[106.04018,-5.99037],[106.04966,-5.99046],[106.05504,-5.99326],[106.06339,-5.99672],[106.07874,-6.00675],[106.08566,-6.0119],[106.0919,-6.01856],[106.10704,-6.04064],[106.12061,-6.05238],[106.12659,-6.05659],[106.12886,-6.06699],[106.13141,-6.07551],[106.13599,-6.08323],[106.14171,-6.09014],[106.15342,-6.09441],[106.15811,-6.09742],[106.16659,-6.11037],[106.17963,-6.11494],[106.20398,-6.11799],[106.23089,-6.12017],[106.24226,-6.12446],[106.24797,-6.12392],[106.25665,-6.12557],[106.26625,-6.12848],[106.2741,-6.12917],[106.28302,-6.12835],[106.30149,-6.13321],[106.30808,-6.13771],[106.31925,-6.14655],[106.31996,-6.15021],[106.32365,-6.15783],[106.33579,-6.17038],[106.34142,-6.17797],[106.34909,-6.19415],[106.35576,-6.19978],[106.36416,-6.20282],[106.37314,-6.20337],[106.39265,-6.20615],[106.43466,-6.2159],[106.45253,-6.21492],[106.4909,-6.21779],[106.51502,-6.21571],[106.54193,-6.21926],[106.55042,-6.22085]]}}]}