{"type":"FeatureCollection","features":[{"type":"Feature","geometry":{"type":"LineString","coordinates":[[97.75281,4.84332],[97.75368,4.84146],[97.75495,4.84145],[97.75622,4.84144],[97.75799,4.8401],[97.76008,4.83954],[97.76127,4.83985],[97.76245,4.84015],[97.76334,4.83935],[97.76541,4.83902],[97.76748,4.8387],[97.76943,4.83779],[97.76981,4.83657],[97.7702,4.83534],[97.77008,4.83411],[97.76996,4.83287],[97.76934,4.83186],[97.76921,4.83038],[97.76908,4.82889],[97.76838,4.82753],[97.76769,4.82616],[97.76699,4.8248],[97.76737,4.82313],[97.76845,4.82181],[97.76743,4.82107],[97.76641,4.82033],[97.76587,4.8191],[97.76609,4.81738],[97.76689,4.81621],[97.76768,4.81504],[97.76891,4.81422],[97.77015,4.8134],[97.77009,4.81127],[97.76959,4.80995],[97.7691,4.80862],[97.76814,4.80693],[97.76717,4.80524],[97.76621,4.80355],[97.76778,4.80304],[97.76932,4.80157],[97.77085,4.80009],[97.77239,4.79862],[97.77449,4.79918],[97.77608,4.79823]]},"properties":{"area":"ONSA","aset":"Jalur Pipa ONSA #1","level":"rendah","km":7.82,"rasio":0.83,"ari":24.9,"ari95":30.0,"kerentanan":4,"produk":"hari_ini"}}]}